{"type":"FeatureCollection","features":[{"type":"Feature","geometry":{"type":"Polygon","coordinates":[[[-78.828805,43.030139],[-78.945262,43.06695599999999],[-79.009664,43.06955799999999],[-79.028353,43.066897],[-79.028653,43.069474],[-79.058399,43.075230999999995],[-79.066269,43.09096999999999],[-79.056767,43.12685499999999],[-79.044066,43.138054999999994],[-79.042366,43.143655],[-79.058399,43.23892399999998],[-79.070469,43.262454],[-79.019848,43.273686],[-78.971866,43.28125399999999],[-78.930764,43.29325399999998],[-78.859362,43.310955],[-78.836261,43.318455],[-78.834061,43.31755499999999],[-78.777759,43.327055],[-78.747158,43.334555],[-78.696856,43.341255],[-78.634346,43.35762399999999],[-78.547395,43.369541000000005],[-78.488857,43.374762999999994],[-78.482526,43.374425],[-78.473099,43.370812],[-78.465502,43.371232000000006],[-78.466429,43.30277499999999],[-78.460416,43.216221999999995],[-78.465505,43.128619],[-78.464306,43.091514],[-78.464449,43.088703],[-78.733606,43.08421899999999],[-78.828805,43.030139]]]},"properties":{}}]}