{"type": "FeatureCollection", "features": [{"type": "Feature", "geometry": {"type": "Polygon", "coordinates": [[[-79.0480579, 43.0809625], [-79.0494025, 43.0813294], [-79.0494951, 43.0824066], [-79.0488707, 43.0824344], [-79.0488622, 43.0823446], [-79.0481939, 43.0823841], [-79.0480579, 43.0809625]]]}, "properties": {"site": "1001-Buffalo-Avenue__C932182", "boundary_name": "site_boundary", "boundary_type": "site_boundary", "n_vertices": 6, "figure_style": "annotated", "fit_rms_m": "2.08", "loo_median_m": "2.98", "source_page": "54", "source_document": "Application.BCP.C932182.2023-02-01.Remedial Investigation Work Plan.pdf"}}, {"type": "Feature", "geometry": {"type": "Polygon", "coordinates": [[[-78.8788477, 43.0278478], [-78.8780966, 43.0280242], [-78.8778604, 43.0276107], [-78.8784198, 43.0274792], [-78.8788477, 43.0278478]]]}, "properties": {"site": "211-Main-Street__C932171", "boundary_name": "site_boundary", "boundary_type": "site_boundary", "n_vertices": 4, "figure_style": "untested", "fit_rms_m": "4.49", "loo_median_m": "6.03", "source_page": "19", "source_document": "Decision Document.BCP.C932171.2021-02-09.Decision_Document_Final.pdf"}}, {"type": "Feature", "geometry": {"type": "Polygon", "coordinates": [[[-78.8784215, 43.0276376], [-78.8784526, 43.0276418], [-78.8784599, 43.0276585], [-78.878378, 43.0276783], [-78.8783657, 43.0276562], [-78.8784247, 43.0276394], [-78.8784215, 43.0276376]]]}, "properties": {"site": "211-Main-Street__C932171", "boundary_name": "gamma_activity_area_1", "boundary_type": "gamma_activity_area", "n_vertices": 6, "figure_style": "untested", "fit_rms_m": "2.46", "loo_median_m": "5.1", "source_page": "18", "source_document": "Decision Document.BCP.C932171.2021-02-09.Decision_Document_Final.pdf"}}, {"type": "Feature", "geometry": {"type": "Polygon", "coordinates": [[[-79.0549398, 43.0824776], [-79.0573811, 43.0823671], [-79.0574072, 43.0828304], [-79.0549746, 43.0829438], [-79.0549488, 43.0824807], [-79.0549398, 43.0824776]]]}, "properties": {"site": "401-402-430-Buffalo-Avenue-Site__C932164", "boundary_name": "site_boundary", "boundary_type": "site_boundary", "n_vertices": 5, "figure_style": "untested", "fit_rms_m": "4.28", "loo_median_m": "5.93", "source_page": "20", "source_document": "Decision Document.BCP.C932164.2015-12-28.Decision Document - December 28, 2015.pdf"}}, {"type": "Feature", "geometry": {"type": "Polygon", "coordinates": [[[-79.0573492, 43.081438], [-79.0573759, 43.0822806], [-79.0556869, 43.0823062], [-79.0556238, 43.0820023], [-79.055618, 43.0815556], [-79.0559579, 43.0815031], [-79.056278, 43.0814641], [-79.0565274, 43.081442], [-79.0567386, 43.0814191], [-79.0573365, 43.0814377], [-79.0573492, 43.081438]]]}, "properties": {"site": "401-402-430-Buffalo-Avenue-Site__C932164", "boundary_name": "site_boundary", "boundary_type": "site_boundary", "n_vertices": 10, "figure_style": "untested", "fit_rms_m": "13.98", "loo_median_m": "21.56", "source_page": "60", "source_document": "Work Plan.BCP.C932164.2015-12-17.Site Management Plan.pdf"}}, {"type": "Feature", "geometry": {"type": "Polygon", "coordinates": [[[-79.0573644, 43.0824599], [-79.0570562, 43.0824706], [-79.0570778, 43.082665], [-79.0571063, 43.0828441], [-79.0572394, 43.0828439], [-79.0573865, 43.0828436], [-79.0573644, 43.0824599], [-79.0570492, 43.0824706], [-79.0573644, 43.0824599]]]}, "properties": {"site": "401-402-430-Buffalo-Avenue-Site__C932164", "boundary_name": "other_1", "boundary_type": "gamma_activity_area", "n_vertices": 8, "figure_style": "untested", "fit_rms_m": "6.53", "loo_median_m": "9.93", "source_page": "52", "source_document": "Report.BCP.C932164.2015-12-01.FER.pdf"}}, {"type": "Feature", "geometry": {"type": "Polygon", "coordinates": [[[-79.056349, 43.0813546], [-79.0561905, 43.0813586], [-79.0562072, 43.0815031], [-79.0563572, 43.0815013], [-79.0563523, 43.0813523], [-79.056349, 43.0813546]]]}, "properties": {"site": "401-402-430-Buffalo-Avenue-Site__C932164", "boundary_name": "other_2", "boundary_type": "gamma_activity_area", "n_vertices": 5, "figure_style": "untested", "fit_rms_m": "6.53", "loo_median_m": "9.93", "source_page": "52", "source_document": "Report.BCP.C932164.2015-12-01.FER.pdf"}}, {"type": "Feature", "geometry": {"type": "Polygon", "coordinates": [[[-79.0569036, 43.0811814], [-79.0570986, 43.0812034], [-79.0572021, 43.0812091], [-79.0572852, 43.0812175], [-79.0573306, 43.0812451], [-79.0573378, 43.0813006], [-79.0571236, 43.0813019], [-79.0568692, 43.0813044], [-79.0568379, 43.081287], [-79.0568989, 43.0811808], [-79.0569036, 43.0811814]]]}, "properties": {"site": "401-402-430-Buffalo-Avenue-Site__C932164", "boundary_name": "other_3", "boundary_type": "gamma_activity_area", "n_vertices": 10, "figure_style": "untested", "fit_rms_m": "6.53", "loo_median_m": "9.93", "source_page": "52", "source_document": "Report.BCP.C932164.2015-12-01.FER.pdf"}}, {"type": "Feature", "geometry": {"type": "Polygon", "coordinates": [[[-79.0568598, 43.0823119], [-79.0568347, 43.0823145], [-79.0568276, 43.0823012], [-79.0568375, 43.0822881], [-79.0568586, 43.0822918], [-79.0568584, 43.08231], [-79.0568598, 43.0823119]]]}, "properties": {"site": "401-402-430-Buffalo-Avenue-Site__C932164", "boundary_name": "other_4", "boundary_type": "gamma_activity_area", "n_vertices": 6, "figure_style": "untested", "fit_rms_m": "6.53", "loo_median_m": "9.93", "source_page": "52", "source_document": "Report.BCP.C932164.2015-12-01.FER.pdf"}}, {"type": "Feature", "geometry": {"type": "Polygon", "coordinates": [[[-79.0565164, 43.0821216], [-79.0565112, 43.0821409], [-79.0564903, 43.0821392], [-79.0564855, 43.0821216], [-79.056502, 43.082113], [-79.056518, 43.0821218], [-79.0565164, 43.0821216]]]}, "properties": {"site": "401-402-430-Buffalo-Avenue-Site__C932164", "boundary_name": "other_5", "boundary_type": "gamma_activity_area", "n_vertices": 6, "figure_style": "untested", "fit_rms_m": "6.53", "loo_median_m": "9.93", "source_page": "52", "source_document": "Report.BCP.C932164.2015-12-01.FER.pdf"}}, {"type": "Feature", "geometry": {"type": "Polygon", "coordinates": [[[-79.0565422, 43.0822973], [-79.0565604, 43.0823071], [-79.0565582, 43.0823265], [-79.0565244, 43.0823224], [-79.0565124, 43.0823125], [-79.0565186, 43.0823001], [-79.0565431, 43.0822964], [-79.0565422, 43.0822973]]]}, "properties": {"site": "401-402-430-Buffalo-Avenue-Site__C932164", "boundary_name": "other_6", "boundary_type": "gamma_activity_area", "n_vertices": 7, "figure_style": "untested", "fit_rms_m": "6.53", "loo_median_m": "9.93", "source_page": "52", "source_document": "Report.BCP.C932164.2015-12-01.FER.pdf"}}, {"type": "Feature", "geometry": {"type": "Polygon", "coordinates": [[[-79.0561991, 43.0819717], [-79.0561953, 43.081994], [-79.0561735, 43.0819946], [-79.0561661, 43.0819784], [-79.056179, 43.0819687], [-79.0562023, 43.0819711], [-79.0561991, 43.0819717]]]}, "properties": {"site": "401-402-430-Buffalo-Avenue-Site__C932164", "boundary_name": "other_7", "boundary_type": "gamma_activity_area", "n_vertices": 6, "figure_style": "untested", "fit_rms_m": "6.53", "loo_median_m": "9.93", "source_page": "52", "source_document": "Report.BCP.C932164.2015-12-01.FER.pdf"}}, {"type": "Feature", "geometry": {"type": "Polygon", "coordinates": [[[-79.0557068, 43.0821694], [-79.0556878, 43.0821908], [-79.0556652, 43.082173], [-79.055686, 43.0821624], [-79.0557139, 43.0821716], [-79.0557068, 43.0821694]]]}, "properties": {"site": "401-402-430-Buffalo-Avenue-Site__C932164", "boundary_name": "other_8", "boundary_type": "gamma_activity_area", "n_vertices": 5, "figure_style": "untested", "fit_rms_m": "6.53", "loo_median_m": "9.93", "source_page": "52", "source_document": "Report.BCP.C932164.2015-12-01.FER.pdf"}}, {"type": "Feature", "geometry": {"type": "Polygon", "coordinates": [[[-78.8870546, 43.0348487], [-78.8862057, 43.0351259], [-78.8864546, 43.0357251], [-78.8849155, 43.036088], [-78.8851678, 43.0367071], [-78.8876821, 43.0361124], [-78.8875862, 43.0357615], [-78.887498, 43.035607], [-78.8875531, 43.0354357], [-78.8875055, 43.035319], [-78.8874215, 43.0351795], [-78.8873393, 43.0350695], [-78.887053, 43.0348584], [-78.8870546, 43.0348487]]]}, "properties": {"site": "600-River-Road-Apartments__C932161", "boundary_name": "site_boundary", "boundary_type": "site_boundary", "n_vertices": 13, "figure_style": "untested", "fit_rms_m": "7.63", "loo_median_m": "11.11", "source_page": "17", "source_document": "Report.BCP.C932161.2012-05-23.TurnKey_Phase_2.pdf"}}, {"type": "Feature", "geometry": {"type": "Polygon", "coordinates": [[[-78.8878002, 43.0359905], [-78.8881465, 43.0368239], [-78.8858788, 43.0374702], [-78.8854311, 43.0366623], [-78.8878027, 43.0359862], [-78.8878002, 43.0359905]]]}, "properties": {"site": "624-River-Road__C932176", "boundary_name": "site_boundary", "boundary_type": "site_boundary", "n_vertices": 5, "figure_style": "untested", "fit_rms_m": "4.5", "loo_median_m": "5.42", "source_page": "42", "source_document": "Report.BCP.C932176.2021-10-29.Final RIAAR.pdf"}}, {"type": "Feature", "geometry": {"type": "Polygon", "coordinates": [[[-79.03741, 43.1733893], [-79.0373352, 43.1740387], [-79.0356848, 43.173916], [-79.0358824, 43.1726177], [-79.0372658, 43.1727175], [-79.037191, 43.1733669], [-79.037403, 43.1733942], [-79.0374031, 43.1733892], [-79.0374031, 43.1733892], [-79.03741, 43.1733893]]]}, "properties": {"site": "756-790-Center-Street-Site__C932168", "boundary_name": "site_boundary", "boundary_type": "site_boundary", "n_vertices": 9, "figure_style": "untested", "fit_rms_m": "4.88", "loo_median_m": "7.29", "source_page": "55", "source_document": "Work Plan.BCP.C932168.2016-06-01.Draft RI-IRM Work Plan.pdf"}}, {"type": "Feature", "geometry": {"type": "Polygon", "coordinates": [[[-78.9642269, 43.1061968], [-78.9643786, 43.1127199], [-78.9598536, 43.1127966], [-78.9599591, 43.1121685], [-78.9568077, 43.112151], [-78.9567637, 43.1130714], [-78.9528091, 43.1129765], [-78.9529561, 43.119165], [-78.9523844, 43.1192531], [-78.952285, 43.1202994], [-78.9455824, 43.1203512], [-78.9455727, 43.1196821], [-78.9389323, 43.1200679], [-78.9387711, 43.1168488], [-78.9331558, 43.1168085], [-78.932949, 43.1183575], [-78.9307155, 43.1184166], [-78.9306979, 43.1172039], [-78.9271425, 43.1169804], [-78.931222, 43.1133346], [-78.9331414, 43.1124305], [-78.9329841, 43.110929], [-78.9377016, 43.1109539], [-78.9377282, 43.1120891], [-78.9454613, 43.1119876], [-78.9453852, 43.1106917], [-78.9508878, 43.1108583], [-78.9509035, 43.1119456], [-78.9525088, 43.1120169], [-78.9524894, 43.1106787], [-78.9532184, 43.1095857], [-78.9532924, 43.106783], [-78.9642269, 43.1061968], [-78.9642269, 43.1061968]]]}, "properties": {"site": "914-Tactical-Airlift-Group__932106", "boundary_name": "site_boundary", "boundary_type": "site_boundary", "n_vertices": 33, "figure_style": "untested", "fit_rms_m": "12.83", "loo_median_m": "8.34", "source_page": "60", "source_document": "Report.RCRA.932106.2023-03-21.NFARS_Final_2021_Annual_Comprehensive_Sampling-Monitoring_Report.pdf"}}, {"type": "Feature", "geometry": {"type": "Polygon", "coordinates": [[[-78.9342384, 43.1154873], [-78.9342527, 43.1158977], [-78.9336532, 43.1158911], [-78.9334753, 43.1157285], [-78.933454, 43.1155628], [-78.9342384, 43.1154873]]]}, "properties": {"site": "914-Tactical-Airlift-Group__932106", "boundary_name": "site_boundary", "boundary_type": "excavation_area", "n_vertices": 5, "figure_style": "annotated", "fit_rms_m": "3.27", "loo_median_m": "4.18", "source_page": "33", "source_document": "Report.RCRA.932106.2014-05-01.NER0006BV.03_PDI_QAPP_AddendumNo1_Final_May2014.pdf"}}, {"type": "Feature", "geometry": {"type": "Polygon", "coordinates": [[[-78.9340122, 43.1156322], [-78.9337663, 43.115654], [-78.9337673, 43.1156142], [-78.9340065, 43.1155886], [-78.9340182, 43.1156316], [-78.9340122, 43.1156322]]]}, "properties": {"site": "914-Tactical-Airlift-Group__932106", "boundary_name": "site_boundary", "boundary_type": "excavation_area", "n_vertices": 5, "figure_style": "annotated", "fit_rms_m": "3.27", "loo_median_m": "4.18", "source_page": "33", "source_document": "Report.RCRA.932106.2014-05-01.NER0006BV.03_PDI_QAPP_AddendumNo1_Final_May2014.pdf"}}, {"type": "Feature", "geometry": {"type": "Polygon", "coordinates": [[[-78.9337976, 43.1158304], [-78.9337739, 43.1156856], [-78.9336283, 43.1157052], [-78.9336549, 43.1158439], [-78.933799, 43.1158273], [-78.9337976, 43.1158304]]]}, "properties": {"site": "914-Tactical-Airlift-Group__932106", "boundary_name": "site_boundary", "boundary_type": "site_boundary", "n_vertices": 5, "figure_style": "annotated", "fit_rms_m": "3.27", "loo_median_m": "4.18", "source_page": "33", "source_document": "Report.RCRA.932106.2014-05-01.NER0006BV.03_PDI_QAPP_AddendumNo1_Final_May2014.pdf"}}, {"type": "Feature", "geometry": {"type": "Polygon", "coordinates": [[[-78.9504996, 43.0851332], [-78.9504909, 43.0850696], [-78.9515107, 43.0850087], [-78.9515789, 43.0856202], [-78.9505635, 43.0856685], [-78.9504907, 43.0850676], [-78.9504996, 43.0851332]]]}, "properties": {"site": "97th-St-Methodist-Church__932084A", "boundary_name": "site_boundary", "boundary_type": "site_boundary", "n_vertices": 6, "figure_style": "untested", "fit_rms_m": "2.76", "loo_median_m": "3.81", "source_page": "36", "source_document": "Report.HW.932084A.1990-12-01.PHASE_I.pdf"}}, {"type": "Feature", "geometry": {"type": "Polygon", "coordinates": [[[-79.0315134, 43.1183888], [-79.0341197, 43.1184134], [-79.0346347, 43.1194378], [-79.0314938, 43.1194158], [-79.0315134, 43.1183888]]]}, "properties": {"site": "Carborundum-Company-Globar-Plant__932036", "boundary_name": "site_boundary", "boundary_type": "site_boundary", "n_vertices": 4, "figure_style": "untested", "fit_rms_m": "10.46", "loo_median_m": "9.52", "source_page": "63", "source_document": "ROD.HW.932036.2000-10-01.ROD_2000.pdf"}}, {"type": "Feature", "geometry": {"type": "Polygon", "coordinates": [[[-79.0315184, 43.1184693], [-79.031603, 43.1184629], [-79.0316055, 43.1183931], [-79.0315095, 43.1183842], [-79.0315184, 43.1184693]]]}, "properties": {"site": "Carborundum-Company-Globar-Plant__932036", "boundary_name": "Contaminated", "boundary_type": "contaminated", "n_vertices": 4, "figure_style": "untested", "fit_rms_m": "10.46", "loo_median_m": "9.52", "source_page": "63", "source_document": "ROD.HW.932036.2000-10-01.ROD_2000.pdf"}}, {"type": "Feature", "geometry": {"type": "Polygon", "coordinates": [[[-79.0322278, 43.1187171], [-79.0324151, 43.1187133], [-79.0324048, 43.1191027], [-79.0322462, 43.1191575], [-79.0321835, 43.1192298], [-79.0320648, 43.1192275], [-79.0320243, 43.119036], [-79.0316459, 43.1191544], [-79.031493, 43.1191124], [-79.0315131, 43.1188873], [-79.0320127, 43.1188667], [-79.0322278, 43.1187171]]]}, "properties": {"site": "Carborundum-Company-Globar-Plant__932036", "boundary_name": "Contaminated", "boundary_type": "contaminated", "n_vertices": 11, "figure_style": "untested", "fit_rms_m": "10.46", "loo_median_m": "9.52", "source_page": "63", "source_document": "ROD.HW.932036.2000-10-01.ROD_2000.pdf"}}, {"type": "Feature", "geometry": {"type": "Polygon", "coordinates": [[[-79.0326673, 43.1190678], [-79.0325636, 43.1190681], [-79.0325724, 43.1188256], [-79.0326554, 43.1188315], [-79.0326673, 43.1190678]]]}, "properties": {"site": "Carborundum-Company-Globar-Plant__932036", "boundary_name": "Contaminated", "boundary_type": "contaminated", "n_vertices": 4, "figure_style": "untested", "fit_rms_m": "10.46", "loo_median_m": "9.52", "source_page": "63", "source_document": "ROD.HW.932036.2000-10-01.ROD_2000.pdf"}}, {"type": "Feature", "geometry": {"type": "Polygon", "coordinates": [[[-79.0324251, 43.1191534], [-79.0325396, 43.1191522], [-79.0325341, 43.1193349], [-79.0324128, 43.1193236], [-79.0324251, 43.1191534]]]}, "properties": {"site": "Carborundum-Company-Globar-Plant__932036", "boundary_name": "Contaminated", "boundary_type": "contaminated", "n_vertices": 4, "figure_style": "untested", "fit_rms_m": "10.46", "loo_median_m": "9.52", "source_page": "63", "source_document": "ROD.HW.932036.2000-10-01.ROD_2000.pdf"}}, {"type": "Feature", "geometry": {"type": "Polygon", "coordinates": [[[-79.0329031, 43.1193888], [-79.0329124, 43.1192743], [-79.0327284, 43.1192708], [-79.0327192, 43.1191969], [-79.0326482, 43.1191912], [-79.032665, 43.1193822], [-79.0329031, 43.1193888]]]}, "properties": {"site": "Carborundum-Company-Globar-Plant__932036", "boundary_name": "Contaminated", "boundary_type": "contaminated", "n_vertices": 6, "figure_style": "untested", "fit_rms_m": "10.46", "loo_median_m": "9.52", "source_page": "63", "source_document": "ROD.HW.932036.2000-10-01.ROD_2000.pdf"}}, {"type": "Feature", "geometry": {"type": "Polygon", "coordinates": [[[-79.0318863, 43.1187504], [-79.0317789, 43.1187625], [-79.0317866, 43.1187149], [-79.0318644, 43.1186991], [-79.0318863, 43.1187504]]]}, "properties": {"site": "Carborundum-Company-Globar-Plant__932036", "boundary_name": "Contaminated", "boundary_type": "contaminated", "n_vertices": 4, "figure_style": "untested", "fit_rms_m": "10.46", "loo_median_m": "9.52", "source_page": "63", "source_document": "ROD.HW.932036.2000-10-01.ROD_2000.pdf"}}, {"type": "Feature", "geometry": {"type": "Polygon", "coordinates": [[[-79.0079688, 43.0821648], [-79.0074386, 43.08207], [-79.0066916, 43.0822995], [-79.0059355, 43.0826853], [-79.0053379, 43.0831783], [-79.0051215, 43.0835659], [-79.0029088, 43.0899741], [-79.0031943, 43.0900251], [-79.0040603, 43.0893117], [-79.0052525, 43.0856257], [-79.0055734, 43.0856357], [-79.005621, 43.0836236], [-79.0059564, 43.0835257], [-79.0062543, 43.0831527], [-79.0062123, 43.0829558], [-79.0065913, 43.0825342], [-79.0070587, 43.0823652], [-79.0079688, 43.0821648]]]}, "properties": {"site": "Covanta-Niagara-Rail-to-Truck-Intermodal-Facility__C932160", "boundary_name": "site_boundary", "boundary_type": "site_boundary", "n_vertices": 17, "figure_style": "untested", "fit_rms_m": "0", "loo_median_m": "", "source_page": "70", "source_document": "Covanta_RI_Vol1.pdf"}}, {"type": "Feature", "geometry": {"type": "Polygon", "coordinates": [[[-79.0104704, 43.0873333], [-79.0103793, 43.0874189], [-79.0101129, 43.0874278], [-79.0101082, 43.0873525], [-79.0102946, 43.0873022], [-79.0104704, 43.0873333]]]}, "properties": {"site": "Frontier-Chemical-Royal-Avenue__932110", "boundary_name": "OU1 (0-2ft)", "boundary_type": "contaminated", "n_vertices": 5, "figure_style": "untested", "fit_rms_m": "21.74", "loo_median_m": "33.6", "source_page": "26", "source_document": "ROD.HW.932110.2012-03-28.OU1_ROD_AMENDMENT.pdf"}}, {"type": "Feature", "geometry": {"type": "Polygon", "coordinates": [[[-79.0106566, 43.0874432], [-79.0108463, 43.0875687], [-79.0107744, 43.087631], [-79.0106584, 43.0876791], [-79.0105843, 43.0876418], [-79.0106566, 43.0874432]]]}, "properties": {"site": "Frontier-Chemical-Royal-Avenue__932110", "boundary_name": "OU2 (0-2ft)", "boundary_type": "contaminated", "n_vertices": 5, "figure_style": "untested", "fit_rms_m": "21.74", "loo_median_m": "33.6", "source_page": "26", "source_document": "ROD.HW.932110.2012-03-28.OU1_ROD_AMENDMENT.pdf"}}, {"type": "Feature", "geometry": {"type": "Polygon", "coordinates": [[[-79.0111309, 43.088055], [-79.01131, 43.0881936], [-79.0110145, 43.0883372], [-79.0108605, 43.0882175], [-79.0111309, 43.088055]]]}, "properties": {"site": "Frontier-Chemical-Royal-Avenue__932110", "boundary_name": "OU3 (0-2ft)", "boundary_type": "contaminated", "n_vertices": 4, "figure_style": "untested", "fit_rms_m": "21.74", "loo_median_m": "33.6", "source_page": "26", "source_document": "ROD.HW.932110.2012-03-28.OU1_ROD_AMENDMENT.pdf"}}, {"type": "Feature", "geometry": {"type": "Polygon", "coordinates": [[[-79.0098519, 43.0874022], [-79.0099532, 43.0873449], [-79.0100043, 43.0872951], [-79.0102534, 43.0871264], [-79.0104947, 43.0870446], [-79.0105973, 43.0870328], [-79.0106089, 43.0870874], [-79.0108258, 43.0870791], [-79.0108648, 43.0871177], [-79.0108947, 43.0871271], [-79.0110569, 43.0870913], [-79.0111853, 43.0871024], [-79.0113637, 43.087274], [-79.0114044, 43.0872783], [-79.0113942, 43.0873968], [-79.0114451, 43.0874852], [-79.0115677, 43.0875529], [-79.0117079, 43.0877216], [-79.0115767, 43.0878232], [-79.0115834, 43.0878912], [-79.0114769, 43.0879278], [-79.01142, 43.0878908], [-79.0111805, 43.0880497], [-79.011123, 43.0882441], [-79.0109792, 43.088349], [-79.0109381, 43.0884012], [-79.0107862, 43.0884329], [-79.0105906, 43.0882749], [-79.0103943, 43.0882601], [-79.0102864, 43.0881832], [-79.0102109, 43.0880752], [-79.0101554, 43.0880392], [-79.010091, 43.0878542], [-79.010044, 43.0876112], [-79.0099891, 43.0875861], [-79.0098986, 43.0875858], [-79.0098659, 43.0875025], [-79.0098519, 43.0874022]]]}, "properties": {"site": "Frontier-Chemical-Royal-Avenue__932110", "boundary_name": "excavation_area_1", "boundary_type": "excavation_area", "n_vertices": 37, "figure_style": "untested", "fit_rms_m": "7.06", "loo_median_m": "7.84", "source_page": "269", "source_document": "Report.HW.932110.2014-05-01.FER and SMP.pdf"}}, {"type": "Feature", "geometry": {"type": "Polygon", "coordinates": [[[-79.0113992, 43.0882831], [-79.0113522, 43.0881405], [-79.0112673, 43.0881532], [-79.0111341, 43.08824], [-79.0111466, 43.0883779], [-79.0113992, 43.0882831]]]}, "properties": {"site": "Frontier-Chemical-Royal-Avenue__932110", "boundary_name": "excavation_area_2", "boundary_type": "excavation_area", "n_vertices": 5, "figure_style": "untested", "fit_rms_m": "7.06", "loo_median_m": "7.84", "source_page": "269", "source_document": "Report.HW.932110.2014-05-01.FER and SMP.pdf"}}, {"type": "Feature", "geometry": {"type": "Polygon", "coordinates": [[[-79.0123265, 43.0869667], [-79.0123768, 43.087666], [-79.012294, 43.087709], [-79.0122152, 43.0876799], [-79.0122009, 43.0875051], [-79.0117218, 43.0875158], [-79.0117268, 43.0878041], [-79.0115464, 43.087875], [-79.0114759, 43.0878766], [-79.0114537, 43.0878514], [-79.0113984, 43.0878783], [-79.011328, 43.0878799], [-79.0113291, 43.0879056], [-79.0112375, 43.0879077], [-79.0112319, 43.0879438], [-79.0112612, 43.0879689], [-79.011289, 43.0888026], [-79.0089935, 43.0888846], [-79.008923, 43.0870271], [-79.0123265, 43.0869667]]]}, "properties": {"site": "Frontier-Chemical-Royal-Avenue__932110", "boundary_name": "site_boundary", "boundary_type": "site_boundary", "n_vertices": 19, "figure_style": "annotated", "fit_rms_m": "5.15", "loo_median_m": "10.89", "source_page": "161", "source_document": "Report.HW.932110.2021-02-26.FinalCCR_ParkinglotProject.pdf"}}, {"type": "Feature", "geometry": {"type": "Polygon", "coordinates": [[[-79.0176411, 43.1869048], [-78.9813972, 43.18703], [-78.9771888, 43.2029235], [-78.9675696, 43.2032989], [-78.9670543, 43.2106185], [-78.9579222, 43.2127141], [-78.9574492, 43.2494853], [-78.9874337, 43.2545177], [-79.0144019, 43.2553929], [-79.0136289, 43.2492665], [-79.00985, 43.2488289], [-79.017322, 43.2336977], [-79.0176411, 43.1869048]]]}, "properties": {"site": "Lake-Ontario-Ordnance-Works-LOOW-Main-Site__FUSRAP-LOOW", "boundary_name": "site_boundary", "boundary_type": "site_boundary", "n_vertices": 12, "figure_style": "untested", "fit_rms_m": "", "loo_median_m": "", "source_page": "3", "source_document": "Attachment A - Figures.pdf"}}, {"type": "Feature", "geometry": {"type": "Polygon", "coordinates": [[[-78.9884034, 43.2308992], [-78.9884464, 43.2241293], [-78.9900782, 43.2227846], [-78.9897776, 43.2182344], [-79.0036588, 43.2181562], [-79.0035729, 43.2310712], [-78.9884034, 43.2308992]]]}, "properties": {"site": "Lake-Ontario-Ordnance-Works-LOOW-Main-Site__FUSRAP-LOOW", "boundary_name": "operable_unit_2", "boundary_type": "contaminated", "n_vertices": 6, "figure_style": "untested", "fit_rms_m": "", "loo_median_m": "", "source_page": "3", "source_document": "Attachment A - Figures.pdf"}}, {"type": "Feature", "geometry": {"type": "Polygon", "coordinates": [[[-79.0108867, 43.184575], [-79.0110463, 43.1983197], [-78.9940075, 43.1985951], [-78.9937385, 43.1897484], [-78.9831423, 43.1895431], [-78.9835156, 43.184829], [-79.0108867, 43.184575]]]}, "properties": {"site": "Lake-Ontario-Ordnance-Works-LOOW-Main-Site__FUSRAP-LOOW", "boundary_name": "Hazard Area", "boundary_type": "other", "n_vertices": 6, "figure_style": "untested", "fit_rms_m": "", "loo_median_m": "", "source_page": "10", "source_document": "C02NY002502_01.08_0006_a (1).pdf"}}, {"type": "Feature", "geometry": {"type": "Polygon", "coordinates": [[[-78.9993005, 43.2050828], [-78.9836288, 43.2055424], [-78.9841101, 43.2128791], [-78.9983034, 43.2124613], [-78.9982348, 43.2102026], [-78.9992674, 43.2101859], [-78.9993005, 43.2050828]]]}, "properties": {"site": "Lake-Ontario-Ordnance-Works-LOOW-Main-Site__FUSRAP-LOOW", "boundary_name": "Hazard Area", "boundary_type": "other", "n_vertices": 6, "figure_style": "untested", "fit_rms_m": "", "loo_median_m": "", "source_page": "10", "source_document": "C02NY002502_01.08_0006_a (1).pdf"}}, {"type": "Feature", "geometry": {"type": "Polygon", "coordinates": [[[-79.0007338, 43.2414233], [-78.9997939, 43.2275028], [-78.9928063, 43.2270508], [-78.9918602, 43.2214165], [-78.9882401, 43.2212867], [-78.987994, 43.2131929], [-78.9823087, 43.2130965], [-78.9820359, 43.1870278], [-78.9802288, 43.1914426], [-78.9816023, 43.2238421], [-78.9842183, 43.2249298], [-78.9841146, 43.2300161], [-78.9815959, 43.2321283], [-78.9813715, 43.2417362], [-79.0007338, 43.2414233]]]}, "properties": {"site": "Lake-Ontario-Ordnance-Works-LOOW-Main-Site__FUSRAP-LOOW", "boundary_name": "Hazard Area", "boundary_type": "other", "n_vertices": 14, "figure_style": "untested", "fit_rms_m": "", "loo_median_m": "", "source_page": "10", "source_document": "C02NY002502_01.08_0006_a (1).pdf"}}, {"type": "Feature", "geometry": {"type": "Polygon", "coordinates": [[[-79.0169574, 43.2483172], [-79.0009512, 43.2485759], [-79.0010485, 43.2517757], [-79.0062232, 43.2520687], [-79.0063377, 43.2558333], [-79.0140769, 43.2555199], [-79.0169574, 43.2483172]]]}, "properties": {"site": "Lake-Ontario-Ordnance-Works-LOOW-Main-Site__FUSRAP-LOOW", "boundary_name": "Hazard Area", "boundary_type": "other", "n_vertices": 6, "figure_style": "untested", "fit_rms_m": "", "loo_median_m": "", "source_page": "10", "source_document": "C02NY002502_01.08_0006_a (1).pdf"}}, {"type": "Feature", "geometry": {"type": "Polygon", "coordinates": [[[-79.0201291, 43.2316844], [-79.0001723, 43.2314514], [-79.000241, 43.2337101], [-79.0198786, 43.2339577], [-79.0201291, 43.2316844]]]}, "properties": {"site": "Lake-Ontario-Ordnance-Works-LOOW-Main-Site__FUSRAP-LOOW", "boundary_name": "Hazard Area", "boundary_type": "other", "n_vertices": 4, "figure_style": "untested", "fit_rms_m": "", "loo_median_m": "", "source_page": "10", "source_document": "C02NY002502_01.08_0006_a (1).pdf"}}, {"type": "Feature", "geometry": {"type": "Polygon", "coordinates": [[[-78.9881306, 43.2118331], [-78.9798334, 43.2116891], [-78.980031, 43.217448], [-78.9719313, 43.217424], [-78.9719313, 43.2188638], [-78.9722606, 43.2190317], [-78.9722277, 43.2197516], [-78.9754873, 43.2197996], [-78.9755531, 43.2192957], [-78.9894806, 43.2192237], [-78.9894806, 43.2182398], [-78.9885257, 43.2174], [-78.9881306, 43.217232], [-78.9881306, 43.2118331]]]}, "properties": {"site": "Niagara-Falls-Storage-Site__932023", "boundary_name": "site_boundary", "boundary_type": "site_boundary", "n_vertices": 13, "figure_style": "untested", "fit_rms_m": "11.61", "loo_median_m": "19.94", "source_page": "3579", "source_document": "NFSS_03.10_0048_a.pdf"}}, {"type": "Feature", "geometry": {"type": "Polygon", "coordinates": [[[-78.9876989, 43.212589], [-78.9850901, 43.212589], [-78.9850632, 43.2161467], [-78.9876257, 43.2161291], [-78.9876989, 43.212589]]]}, "properties": {"site": "Niagara-Falls-Storage-Site__932023", "boundary_name": "gamma_activity_area_1", "boundary_type": "gamma_activity_area", "n_vertices": 4, "figure_style": "untested", "fit_rms_m": "0", "loo_median_m": "", "source_page": "544", "source_document": "nfss-riaddendum-appendices12c-13a-2011-04.pdf"}}, {"type": "Feature", "geometry": {"type": "Polygon", "coordinates": [[[-79.0278058, 43.1255659], [-79.0278245, 43.1242679], [-79.027187, 43.1236571], [-79.0266985, 43.1236141], [-79.026151, 43.1234457], [-79.0261939, 43.1226587], [-79.022277, 43.1225921], [-79.0245852, 43.1255365], [-79.0278058, 43.1255659]]]}, "properties": {"site": "SKW-Newco-Inc__932001C", "boundary_name": "site_boundary", "boundary_type": "site_boundary", "n_vertices": 8, "figure_style": "callout", "fit_rms_m": "13.29", "loo_median_m": "11.37", "source_page": "13", "source_document": "Report.HW.932001C.2011-06-30.2nd_Bi-Annual_2010_Monitoring_Report.pdf"}}, {"type": "Feature", "geometry": {"type": "Polygon", "coordinates": [[[-79.0343631, 43.1228192], [-79.0309921, 43.1256148], [-79.0278143, 43.1255522], [-79.0278465, 43.1242679], [-79.0271702, 43.1236415], [-79.0266119, 43.1236023], [-79.0261932, 43.1234222], [-79.0261825, 43.1226548], [-79.0343631, 43.1228192]]]}, "properties": {"site": "SKW-Newco-Inc__932001C", "boundary_name": "site_boundary", "boundary_type": "site_boundary", "n_vertices": 8, "figure_style": "callout", "fit_rms_m": "3.19", "loo_median_m": "9.61", "source_page": "19", "source_document": "Report.HW.932001C.2024-10-28.Annual OMM.pdf"}}, {"type": "Feature", "geometry": {"type": "Polygon", "coordinates": [[[-78.9164806, 42.9904578], [-78.9139242, 42.9925564], [-78.9224625, 43.0016182], [-78.9228792, 43.0015094], [-78.9227159, 43.0012627], [-78.9237775, 43.0006263], [-78.9240217, 43.0009589], [-78.9245937, 43.0007212], [-78.9239307, 43.0000175], [-78.9249041, 42.9993243], [-78.9164806, 42.9904578]]]}, "properties": {"site": "Seaway-Industrial-Park-FUSRAP__FUSRAP-SEAWAY", "boundary_name": "site_boundary", "boundary_type": "site_boundary", "n_vertices": 10, "figure_style": "untested", "fit_rms_m": "", "loo_median_m": "", "source_page": "80", "source_document": "Seaway_05.09_0001_a.pdf"}}, {"type": "Feature", "geometry": {"type": "Polygon", "coordinates": [[[-78.9233817, 42.999908], [-78.9230596, 42.9992332], [-78.9225872, 42.9986525], [-78.922029, 42.9983229], [-78.9210413, 42.998166], [-78.9202683, 42.9984799], [-78.9200107, 42.9986211], [-78.9200536, 42.9990291], [-78.9211272, 43.0002061], [-78.9226731, 43.0006612], [-78.9232958, 43.0007083], [-78.9233817, 42.999908]]]}, "properties": {"site": "Seaway-Industrial-Park-FUSRAP__FUSRAP-SEAWAY", "boundary_name": "Area A", "boundary_type": "gamma_activity_area", "n_vertices": 11, "figure_style": "untested", "fit_rms_m": "", "loo_median_m": "", "source_page": "80", "source_document": "Seaway_05.09_0001_a.pdf"}}, {"type": "Feature", "geometry": {"type": "Polygon", "coordinates": [[[-78.9229952, 42.9979934], [-78.922029, 42.9979149], [-78.9204616, 42.9983229], [-78.920118, 42.9982916], [-78.9199248, 42.9981503], [-78.9202468, 42.9979149], [-78.920118, 42.9978207], [-78.919682, 42.9979306], [-78.9195961, 42.997652], [-78.9197034, 42.9973735], [-78.9202993, 42.9967418], [-78.9219687, 42.9968517], [-78.9225108, 42.9972401], [-78.9229952, 42.9979934]]]}, "properties": {"site": "Seaway-Industrial-Park-FUSRAP__FUSRAP-SEAWAY", "boundary_name": "Area C", "boundary_type": "gamma_activity_area", "n_vertices": 13, "figure_style": "untested", "fit_rms_m": "", "loo_median_m": "", "source_page": "80", "source_document": "Seaway_05.09_0001_a.pdf"}}, {"type": "Feature", "geometry": {"type": "Polygon", "coordinates": [[[-79.0304217, 43.143591], [-79.0304432, 43.1452741], [-79.0384055, 43.1453954], [-79.0383894, 43.1452114], [-79.0369291, 43.1450744], [-79.036913, 43.1440724], [-79.0360488, 43.1439511], [-79.0357911, 43.1437202], [-79.0342398, 43.143681], [-79.034213, 43.1434853], [-79.0304217, 43.143591]]]}, "properties": {"site": "Stauffer-Chemical-Plant-PASNY-Site__932053", "boundary_name": "site_boundary", "boundary_type": "site_boundary", "n_vertices": 10, "figure_style": "untested", "fit_rms_m": "2.27", "loo_median_m": "1.08", "source_page": "36", "source_document": "Report.HW.932053.2017-04-19.2016 Annual OMM.pdf"}}, {"type": "Feature", "geometry": {"type": "Polygon", "coordinates": [[[-79.034108, 43.1449311], [-79.0341582, 43.145069], [-79.0347768, 43.1450541], [-79.0348961, 43.1449157], [-79.0348951, 43.1447778], [-79.0347565, 43.1446153], [-79.0345153, 43.144541], [-79.0343261, 43.1445166], [-79.0343416, 43.1442783], [-79.0341513, 43.144116], [-79.0336184, 43.144093], [-79.0333117, 43.1444578], [-79.0332966, 43.1447463], [-79.0334352, 43.1449088], [-79.034108, 43.1449311]]]}, "properties": {"site": "Stauffer-Chemical-Plant-PASNY-Site__932053", "boundary_name": "Area A", "boundary_type": "other", "n_vertices": 14, "figure_style": "untested", "fit_rms_m": "2.27", "loo_median_m": "1.08", "source_page": "36", "source_document": "Report.HW.932053.2017-04-19.2016 Annual OMM.pdf"}}, {"type": "Feature", "geometry": {"type": "Polygon", "coordinates": [[[-79.035443, 43.1438667], [-79.035336, 43.1439485], [-79.0353541, 43.1440738], [-79.0355603, 43.144073], [-79.0357322, 43.1440849], [-79.0357831, 43.1439844], [-79.0357482, 43.1439093], [-79.0356103, 43.1438596], [-79.035443, 43.1438667]]]}, "properties": {"site": "Stauffer-Chemical-Plant-PASNY-Site__932053", "boundary_name": "Area T-4", "boundary_type": "other", "n_vertices": 8, "figure_style": "untested", "fit_rms_m": "2.27", "loo_median_m": "1.08", "source_page": "36", "source_document": "Report.HW.932053.2017-04-19.2016 Annual OMM.pdf"}}, {"type": "Feature", "geometry": {"type": "Polygon", "coordinates": [[[-79.0286234, 43.1437779], [-79.0286333, 43.1439365], [-79.0287711, 43.1439736], [-79.0289427, 43.1439479], [-79.0290451, 43.1438472], [-79.0289929, 43.1437471], [-79.0288895, 43.1437099], [-79.0287177, 43.143723], [-79.0286234, 43.1437779]]]}, "properties": {"site": "Stauffer-Chemical-Plant-PASNY-Site__932053", "boundary_name": "Area C", "boundary_type": "other", "n_vertices": 8, "figure_style": "untested", "fit_rms_m": "2.27", "loo_median_m": "1.08", "source_page": "36", "source_document": "Report.HW.932053.2017-04-19.2016 Annual OMM.pdf"}}, {"type": "Feature", "geometry": {"type": "Polygon", "coordinates": [[[-79.0274429, 43.1440998], [-79.0279583, 43.1442094], [-79.0280227, 43.1445069], [-79.0261761, 43.1458064], [-79.0248664, 43.1465109], [-79.0244155, 43.1464796], [-79.0243081, 43.1461351], [-79.024759, 43.1456811], [-79.0269062, 43.1444286], [-79.0274429, 43.1440998]]]}, "properties": {"site": "Stauffer-Chemical-Plant-PASNY-Site__932053", "boundary_name": "Area B Landfill", "boundary_type": "other", "n_vertices": 9, "figure_style": "untested", "fit_rms_m": "2.27", "loo_median_m": "1.08", "source_page": "36", "source_document": "Report.HW.932053.2017-04-19.2016 Annual OMM.pdf"}}, {"type": "Feature", "geometry": {"type": "Polygon", "coordinates": [[[-79.0390746, 43.1454971], [-79.0390331, 43.1453624], [-79.0378876, 43.1453385], [-79.0374683, 43.1451232], [-79.0373728, 43.1440389], [-79.0364616, 43.1438947], [-79.036139, 43.1436567], [-79.0301067, 43.1436732], [-79.0301866, 43.1453778], [-79.0390746, 43.1454971]]]}, "properties": {"site": "Stauffer-Chemical-Plant-PASNY-Site__932053", "boundary_name": "site_boundary", "boundary_type": "site_boundary", "n_vertices": 9, "figure_style": "untested", "fit_rms_m": "2.64", "loo_median_m": "3.04", "source_page": "53", "source_document": "Report.HW.932053.2019-04-22.Hydrogeologic Conceptual Site Model.pdf"}}, {"type": "Feature", "geometry": {"type": "Polygon", "coordinates": [[[-79.0354579, 43.1213923], [-79.0359657, 43.121969], [-79.0262156, 43.1298046], [-79.0191142, 43.1303369], [-79.0153795, 43.1215295], [-79.035477, 43.1213068], [-79.0354579, 43.1213923]]]}, "properties": {"site": "Vanadium-Corporation-of-America__932001", "boundary_name": "site_boundary", "boundary_type": "site_boundary", "n_vertices": 6, "figure_style": "untested", "fit_rms_m": "14.38", "loo_median_m": "11.71", "source_page": "52", "source_document": "Report.HW.932001.2012-07-01.Remedial_Designs_003_Addendum.pdf"}}, {"type": "Feature", "geometry": {"type": "Polygon", "coordinates": [[[-79.0276896, 43.1256441], [-79.0281791, 43.1262451], [-79.0281407, 43.1263782], [-79.0230942, 43.1263553], [-79.0224434, 43.1265347], [-79.0222248, 43.1269701], [-79.0216746, 43.126938], [-79.0212737, 43.1270509], [-79.0209347, 43.1270597], [-79.0206599, 43.1269557], [-79.0205339, 43.1265778], [-79.0202941, 43.1263183], [-79.0198497, 43.1263093], [-79.0194022, 43.1261769], [-79.0191011, 43.1259858], [-79.0185072, 43.125697], [-79.0174413, 43.1235103], [-79.0178131, 43.1232075], [-79.0177834, 43.1228523], [-79.0182989, 43.1225384], [-79.0188311, 43.1225035], [-79.0194087, 43.1226486], [-79.0196841, 43.1229677], [-79.0200316, 43.1230631], [-79.0203346, 43.1230943], [-79.0207435, 43.1233321], [-79.0208706, 43.1230373], [-79.0211843, 43.1228588], [-79.0216387, 43.1227496], [-79.0221212, 43.1229959], [-79.02248, 43.1229463], [-79.0245811, 43.1255042], [-79.0276896, 43.1256441]]]}, "properties": {"site": "Vanadium-Corporation-of-America__932001", "boundary_name": "excavation_area_2", "boundary_type": "excavation_area", "n_vertices": 32, "figure_style": "untested", "fit_rms_m": "14.38", "loo_median_m": "11.71", "source_page": "52", "source_document": "Report.HW.932001.2012-07-01.Remedial_Designs_003_Addendum.pdf"}}, {"type": "Feature", "geometry": {"type": "Polygon", "coordinates": [[[-79.0262515, 43.1227764], [-79.0262132, 43.1235345], [-79.0268115, 43.123739], [-79.0272127, 43.1237518], [-79.0278383, 43.1243788], [-79.0277784, 43.1256366], [-79.0246504, 43.1255612], [-79.0224394, 43.1226594], [-79.0262515, 43.1227764]]]}, "properties": {"site": "Vanadium-Corporation-of-America__932001", "boundary_name": "operable_unit_1", "boundary_type": "contaminated", "n_vertices": 8, "figure_style": "callout", "fit_rms_m": "6.43", "loo_median_m": "12.06", "source_page": "24", "source_document": "Report.HW.932001.2011-06-30.Remedy_Review_Report_5_Year.pdf"}}, {"type": "Feature", "geometry": {"type": "Polygon", "coordinates": [[[-79.0140688, 43.0869818], [-79.0143028, 43.0903208], [-79.0137017, 43.0903109], [-79.0136861, 43.0900445], [-79.0128912, 43.0900692], [-79.0128979, 43.0897353], [-79.010175, 43.0898296], [-79.0101214, 43.0891353], [-79.0085724, 43.0892121], [-79.0085657, 43.0890979], [-79.0103119, 43.0890436], [-79.0107239, 43.088945], [-79.0106791, 43.0879548], [-79.0124893, 43.0878794], [-79.0124552, 43.0870701], [-79.0140688, 43.0869818]]]}, "properties": {"site": "Former-Mill-No-2__C932150", "boundary_name": "site_boundary", "boundary_type": "site_boundary", "n_vertices": 15, "figure_style": "annotated", "fit_rms_m": "5.25", "loo_median_m": "9.11", "source_page": "69", "source_document": "Mill2_RI_Report_2012.pdf"}}]}