{"type":"FeatureCollection","features":[{"type":"Feature","geometry":{"type":"Polygon","coordinates":[[[-78.99060900000002,43.068765],[-78.990845,43.06877999999999],[-78.990915,43.06878499999999],[-78.998538,43.069282],[-78.999664,43.069355],[-78.999768,43.069355999999985],[-78.999873,43.06935599999999],[-79.001737,43.069401],[-79.003602,43.069439],[-79.005516,43.06947599999999],[-79.007431,43.069513],[-79.009664,43.06955799999999],[-79.016326,43.06844499999998],[-79.019228,43.067958],[-79.020755,43.068198999999986],[-79.025336,43.068921999999986],[-79.026863,43.069163999999994],[-79.028654,43.06948299999999],[-79.032771,43.070215999999995],[-79.039765,43.07146199999999],[-79.045567,43.072562],[-79.074459,43.077863],[-79.075367,43.08135499999999],[-79.074003,43.083012],[-79.069151,43.08803],[-79.067852,43.0894],[-79.067333,43.089946999999995],[-79.067222,43.09003599999999],[-79.066676,43.090476],[-79.066222,43.09084099999999],[-79.065961,43.09105199999999],[-79.064196,43.094578999999996],[-79.063559,43.095855000000014],[-79.062287,43.098375999999995],[-79.058473,43.10594],[-79.057961,43.10695699999999],[-79.058037,43.10820099999999],[-79.058067,43.108455000000006],[-79.058088,43.108544],[-79.05811,43.10863299999998],[-79.05814,43.108762],[-79.058184,43.108943999999994],[-79.058232,43.109149],[-79.058257,43.10925599999999],[-79.058262,43.10927900000001],[-79.058647,43.110919999999986],[-79.060105,43.113866],[-79.062563,43.11609199999999],[-79.069649,43.120321999999994],[-79.05940900000002,43.126476],[-79.057087,43.127036999999994],[-79.05412300000002,43.12936899999999],[-79.052548,43.13163900000001],[-79.05218,43.13206199999999],[-79.05185,43.132055],[-79.051238,43.132055],[-79.051034,43.132055],[-79.05067,43.132063],[-79.049579,43.132089],[-79.049377,43.13209499999999],[-79.049216,43.132099],[-79.048965,43.132099],[-79.048743,43.132098],[-79.04732400000002,43.132095],[-79.047008,43.132095],[-79.046864,43.132028999999996],[-79.045806,43.13193499999999],[-79.044412,43.13200599999998],[-79.041921,43.132414],[-79.041712,43.13240899999999],[-79.041085,43.132393999999984],[-79.040877,43.13239],[-79.040763,43.132388999999996],[-79.040622,43.132388],[-79.040421,43.13238599999999],[-79.04030800000001,43.13238599999998],[-79.039723,43.13238299999998],[-79.037968,43.132374],[-79.037776,43.132374],[-79.037384,43.132356],[-79.034713,43.132267999999996],[-79.030756,43.132139],[-79.029718,43.132105],[-79.027637,43.13203699999999],[-79.026894,43.131989999999995],[-79.026604,43.131982999999984],[-79.026262,43.131973],[-79.024038,43.131810999999985],[-79.019664,43.131812999999994],[-79.019532,43.131779],[-79.019325,43.13172700000001],[-79.019136,43.131678000000015],[-79.019005,43.131645],[-79.01897,43.131646999999994],[-79.018864,43.131655999999985],[-79.01883,43.131659000000006],[-79.016778,43.13165599999999],[-79.01062500000002,43.131648],[-79.009611,43.131646999999994],[-79.008574,43.13164599999999],[-79.008076,43.131632999999994],[-79.006582,43.131596],[-79.006084,43.13158399999999],[-79.005674,43.13159599999999],[-79.004447,43.131633999999984],[-79.004038,43.13164799999999],[-79.003443,43.131673000000006],[-79.001657,43.13175],[-79.001063,43.131775999999995],[-79.000941,43.13174399999999],[-79.00047,43.131740999999984],[-79.000002,43.131739999999986],[-78.998682,43.13174500000001],[-78.998086,43.131747999999995],[-78.997838,43.131749],[-78.997097,43.131752],[-78.99685,43.131754],[-78.996549,43.131756],[-78.995645,43.131763],[-78.995345,43.131765999999985],[-78.995034,43.13176700000001],[-78.994104,43.131772],[-78.993942,43.131774],[-78.993796,43.131755999999996],[-78.979045,43.132007],[-78.977059,43.13203999999999],[-78.976356,43.132053],[-78.974683,43.13213700000001],[-78.974204,43.132141999999995],[-78.973462,43.132152],[-78.972767,43.132156],[-78.972289,43.13216],[-78.97142600000001,43.132186],[-78.968838,43.132265999999994],[-78.967976,43.13229299999999],[-78.967571,43.132299],[-78.966364,43.132318],[-78.965955,43.132331],[-78.951493,43.132411000000005],[-78.95109700000002,43.132395],[-78.951002,43.13239199999999],[-78.950826,43.132390999999984],[-78.950747,43.132431999999994],[-78.946833,43.132512],[-78.945279,43.132518],[-78.944766,43.132521000000004],[-78.94222400000001,43.132504],[-78.936056,43.132314],[-78.935626,43.1323],[-78.931941,43.132186999999995],[-78.93095200000002,43.13217199999999],[-78.927561,43.13214599999999],[-78.917388,43.132068],[-78.913998,43.13204299999999],[-78.912122,43.132055],[-78.906497,43.13209299999999],[-78.905529,43.1321],[-78.905076,43.132102999999994],[-78.904622,43.132106],[-78.901551,43.13212399999998],[-78.893342,43.132172999999995],[-78.892338,43.13217999999999],[-78.889268,43.13219899999999],[-78.889369,43.13053099999999],[-78.8894,43.130012999999984],[-78.889793,43.123456000000004],[-78.889823,43.122961999999994],[-78.889883,43.12182500000001],[-78.889889,43.12155500000001],[-78.889891,43.121269],[-78.889888,43.12104],[-78.88988000000002,43.120495],[-78.889868,43.11948499999999],[-78.889857,43.118173000000006],[-78.889852,43.11739899999999],[-78.889851,43.117136],[-78.889851,43.116350999999995],[-78.889851,43.116089],[-78.889857,43.11377199999999],[-78.889861,43.112501],[-78.889874,43.110343],[-78.889865,43.106821],[-78.88986,43.104824],[-78.88986,43.104505],[-78.889856,43.104040999999995],[-78.889847,43.102650999999994],[-78.88984500000001,43.102188],[-78.889841,43.101862999999994],[-78.889829,43.100891000000004],[-78.889825,43.100567],[-78.889821,43.100367],[-78.889812,43.09976700000001],[-78.889809,43.09956799999999],[-78.889767,43.09787599999999],[-78.889749,43.09710099999999],[-78.889688,43.09445799999999],[-78.889658,43.092802999999996],[-78.889629,43.091112],[-78.889617,43.09061899999998],[-78.88961,43.090302],[-78.889554,43.087872],[-78.88953800000002,43.087137999999996],[-78.889537,43.087063],[-78.889535,43.087016999999996],[-78.889532,43.08688100000001],[-78.889529,43.086835999999984],[-78.889206,43.086663],[-78.888507,43.086328],[-78.888032,43.08612099999999],[-78.887203,43.08575999999999],[-78.886806,43.08561499999999],[-78.88585,43.085322],[-78.883303,43.08458399999999],[-78.88246,43.08434],[-78.881922,43.08418799999999],[-78.881705,43.084139],[-78.880733,43.083943],[-78.880523,43.08390399999999],[-78.879447,43.083708],[-78.879042,43.083619999999996],[-78.878513,43.083487],[-78.878099,43.08336],[-78.877864,43.08328],[-78.877347,43.083072],[-78.87705800000002,43.082927999999995],[-78.87688,43.08283900000001],[-78.876033,43.082298],[-78.875491,43.081945],[-78.874915,43.081598],[-78.87458700000002,43.081426999999984],[-78.874571,43.08141899999998],[-78.872494,43.080412],[-78.871057,43.079746],[-78.86999500000002,43.07928999999999],[-78.869122,43.07891599999999],[-78.869025,43.078875999999994],[-78.868995,43.078863],[-78.868441,43.078633],[-78.86586,43.07756199999999],[-78.865573,43.07749100000001],[-78.865095,43.077277],[-78.864662,43.07703899999999],[-78.864216,43.07678799999999],[-78.863165,43.07601199999999],[-78.86239,43.0754],[-78.861949,43.075128],[-78.861572,43.074915000000004],[-78.86012500000001,43.074141999999995],[-78.85782000000002,43.072874],[-78.856906,43.072358],[-78.856243,43.072061],[-78.855951,43.07193899999999],[-78.85423,43.07115000000001],[-78.851729,43.070147],[-78.851194,43.069901999999985],[-78.850959,43.069795],[-78.849963,43.06932700000001],[-78.849233,43.06897],[-78.849198,43.06895299999999],[-78.848848,43.068785999999996],[-78.848241,43.06849699999999],[-78.847915,43.068323],[-78.847814,43.06826099999999],[-78.847574,43.068116],[-78.847482,43.068064],[-78.851174,43.068082],[-78.86225,43.068136],[-78.865942,43.06815499999999],[-78.870619,43.06818599999998],[-78.88465,43.068279999999994],[-78.88932700000001,43.068311999999985],[-78.88932,43.067439],[-78.88929,43.06348899999998],[-78.889285,43.062579],[-78.889286,43.06246],[-78.889276,43.060658999999994],[-78.887261,43.05962099999999],[-78.886596,43.059284999999996],[-78.885255,43.058595999999994],[-78.884583,43.058248999999996],[-78.883762,43.057827],[-78.883656,43.05777199999999],[-78.883368,43.057622],[-78.882746,43.05729899999999],[-78.882507,43.057173999999996],[-78.882221,43.057025],[-78.88214,43.056983],[-78.881899,43.056859999999986],[-78.881819,43.05681899999999],[-78.88165200000002,43.056733],[-78.881152,43.056477],[-78.880985,43.056393],[-78.880773,43.056278],[-78.880663,43.056219],[-78.880607,43.05617399999999],[-78.880557,43.056112999999996],[-78.88037,43.055751],[-78.879985,43.054946],[-78.87996700000001,43.05491699999998],[-78.879951,43.054884],[-78.880283,43.05453299999999],[-78.882504,43.052171],[-78.884252,43.050326999999996],[-78.885213,43.04933],[-78.885633,43.048857],[-78.886138,43.04967299999999],[-78.886168,43.049719],[-78.886494,43.050248],[-78.886626,43.050461999999996],[-78.886671,43.050535999999994],[-78.88680900000001,43.050758],[-78.886855,43.050831999999986],[-78.886904,43.05091300000001],[-78.887053,43.051157999999994],[-78.887103,43.05124],[-78.88735,43.051659999999984],[-78.887429,43.051788],[-78.887666,43.05217499999999],[-78.887746,43.05230399999999],[-78.88796,43.052654],[-78.888167,43.052991999999996],[-78.888532,43.053583],[-78.888679,43.05381199999999],[-78.888809,43.054014],[-78.889107,43.054508999999996],[-78.889248,43.054743],[-78.889814,43.05442099999999],[-78.890141,43.054243],[-78.891961,43.05325599999999],[-78.892337,43.053034],[-78.89255,43.052870999999996],[-78.892791,43.052692],[-78.89359,43.05205800000002],[-78.893622,43.052032000000004],[-78.893635,43.05201899999999],[-78.893767,43.05190000000001],[-78.893811,43.051861],[-78.894076,43.052057],[-78.894708,43.05252],[-78.895091,43.052794999999996],[-78.89524,43.052903],[-78.896154,43.05358499999999],[-78.896742,43.053993999999996],[-78.89711,43.05423],[-78.897789,43.054618999999995],[-78.8991,43.055337],[-78.89980700000001,43.055724000000005],[-78.900182,43.055934],[-78.900491,43.056099],[-78.901389,43.05658999999999],[-78.901855,43.05684600000001],[-78.903981,43.05799399999999],[-78.90409,43.05805300000001],[-78.904289,43.058161999999996],[-78.904438,43.05824499999999],[-78.904858,43.058446999999994],[-78.90500700000001,43.058508],[-78.90512,43.05855499999999],[-78.905242,43.058592999999995],[-78.90532,43.05861800000001],[-78.905692,43.058713],[-78.905788,43.05873600000001],[-78.905971,43.05877300000001],[-78.906055,43.058791],[-78.906219,43.058814999999996],[-78.906228,43.058642],[-78.906256,43.058123999999985],[-78.906266,43.05795199999999],[-78.906252,43.05773800000001],[-78.906184,43.056672],[-78.905941,43.052834999999995],[-78.90586,43.05155599999999],[-78.91152,43.05474000000001],[-78.945262,43.06695599999999],[-78.949962,43.067856000000006],[-78.975611,43.068236],[-78.976963,43.06825599999999],[-78.985764,43.068555999999994],[-78.990464,43.068754999999996],[-78.990521,43.06875900000001],[-78.99060900000002,43.068765]]]},"properties":{"name":"Niagara Falls Area Impact Zone","tracts":26,"site_count":158,"cont_acres":4324.8,"aland_acres":24585.8}}]}