{"type":"FeatureCollection","features":[{"type":"Feature","geometry":{"type":"LineString","coordinates":[[-79.019005,43.131645],[-79.019313,43.132393]]},"properties":{"name":"I- 190","road_class":"Highway"}},{"type":"Feature","geometry":{"type":"LineString","coordinates":[[-79.020737,43.135178],[-79.020276,43.134047]]},"properties":{"name":"I- 190","road_class":"Highway"}},{"type":"Feature","geometry":{"type":"LineString","coordinates":[[-79.038382,43.152376],[-79.041881,43.15276]]},"properties":{"name":"I- 190","road_class":"Highway"}},{"type":"Feature","geometry":{"type":"LineString","coordinates":[[-78.998043,43.113803],[-78.997562,43.113046],[-78.996399,43.11132],[-78.996178,43.111012],[-78.995804,43.110554],[-78.995422,43.110134],[-78.995079,43.10981]]},"properties":{"name":"I- 190","road_class":"Highway"}},{"type":"Feature","geometry":{"type":"LineString","coordinates":[[-78.98644,43.106107],[-78.986977,43.106298],[-78.987174,43.106368],[-78.987965,43.106649],[-78.98859,43.106871],[-78.988742,43.106925],[-78.989128,43.107063]]},"properties":{"name":"I- 190","road_class":"Highway"}},{"type":"Feature","geometry":{"type":"LineString","coordinates":[[-79.018678,43.130157],[-79.018762,43.130354],[-79.019277,43.131609],[-79.019325,43.131727]]},"properties":{"name":"I- 190","road_class":"Highway"}},{"type":"Feature","geometry":{"type":"LineString","coordinates":[[-78.99223,43.107961],[-78.992478,43.10808],[-78.992994,43.10834]]},"properties":{"name":"I- 190","road_class":"Highway"}},{"type":"Feature","geometry":{"type":"LineString","coordinates":[[-79.038097,43.12695],[-79.03818,43.127109],[-79.038231,43.127206],[-79.038406,43.127601],[-79.03848,43.127767]]},"properties":{"name":"Hyde Park Blvd","road_class":"Arterial"}},{"type":"Feature","geometry":{"type":"LineString","coordinates":[[-78.8272,43.053355],[-78.827039,43.052881],[-78.826841,43.052115]]},"properties":{"name":"Niagara Falls Blvd","road_class":"Arterial"}},{"type":"Feature","geometry":{"type":"LineString","coordinates":[[-78.881705,43.084139],[-78.880733,43.083943],[-78.880523,43.083904],[-78.879447,43.083708],[-78.879042,43.08362],[-78.878513,43.083487],[-78.878099,43.08336],[-78.877864,43.08328],[-78.877347,43.083072],[-78.877058,43.082928],[-78.87688,43.082839],[-78.876033,43.082298]]},"properties":{"name":"Niagara Falls Blvd","road_class":"Arterial"}},{"type":"Feature","geometry":{"type":"LineString","coordinates":[[-78.86586,43.077562],[-78.865573,43.077491],[-78.865095,43.077277],[-78.864662,43.077039],[-78.864216,43.076788],[-78.863165,43.076012],[-78.86239,43.0754]]},"properties":{"name":"Niagara Falls Blvd","road_class":"Arterial"}},{"type":"Feature","geometry":{"type":"LineString","coordinates":[[-78.86239,43.0754],[-78.861949,43.075128],[-78.861572,43.074915],[-78.860125,43.074142],[-78.85782,43.072874],[-78.856906,43.072358],[-78.856243,43.072061],[-78.855951,43.071939],[-78.85423,43.07115]]},"properties":{"name":"Niagara Falls Blvd","road_class":"Arterial"}},{"type":"Feature","geometry":{"type":"LineString","coordinates":[[-79.032595,43.113688],[-79.032629,43.113765],[-79.032659,43.113833]]},"properties":{"name":"Hyde Park Blvd","road_class":"Arterial"}},{"type":"Feature","geometry":{"type":"LineString","coordinates":[[-79.030278,43.108604],[-79.03035,43.108763],[-79.030567,43.10924],[-79.03064,43.109399]]},"properties":{"name":"Hyde Park Blvd","road_class":"Arterial"}},{"type":"Feature","geometry":{"type":"LineString","coordinates":[[-79.028403,43.104388],[-79.028463,43.104524],[-79.028598,43.104828]]},"properties":{"name":"Hyde Park Blvd","road_class":"Arterial"}},{"type":"Feature","geometry":{"type":"LineString","coordinates":[[-79.027993,43.103464],[-79.028334,43.104236]]},"properties":{"name":"Hyde Park Blvd","road_class":"Arterial"}},{"type":"Feature","geometry":{"type":"LineString","coordinates":[[-78.83739,43.058868],[-78.83792,43.059006],[-78.838186,43.059099]]},"properties":{"name":"Niagara Falls Blvd","road_class":"Arterial"}},{"type":"Feature","geometry":{"type":"LineString","coordinates":[[-79.020167,43.085928],[-79.020514,43.086634]]},"properties":{"name":"Hyde Park Blvd","road_class":"Arterial"}},{"type":"Feature","geometry":{"type":"LineString","coordinates":[[-78.995861,43.090238],[-78.995653,43.090216],[-78.995031,43.090152],[-78.994824,43.090131]]},"properties":{"name":"Niagara Falls Blvd","road_class":"Arterial"}},{"type":"Feature","geometry":{"type":"LineString","coordinates":[[-78.989755,43.089575],[-78.98861,43.08941],[-78.988139,43.089318]]},"properties":{"name":"Niagara Falls Blvd","road_class":"Arterial"}},{"type":"Feature","geometry":{"type":"LineString","coordinates":[[-78.990243,43.089623],[-78.989755,43.089575]]},"properties":{"name":"Niagara Falls Blvd","road_class":"Arterial"}},{"type":"Feature","geometry":{"type":"LineString","coordinates":[[-78.960007,43.092852],[-78.959759,43.09295],[-78.959593,43.093012],[-78.958346,43.093482],[-78.957931,43.093639]]},"properties":{"name":"Niagara Falls Blvd","road_class":"Arterial"}},{"type":"Feature","geometry":{"type":"LineString","coordinates":[[-78.94587,43.098167],[-78.945357,43.098359],[-78.94498,43.0985]]},"properties":{"name":"Niagara Falls Blvd","road_class":"Arterial"}},{"type":"Feature","geometry":{"type":"LineString","coordinates":[[-78.957931,43.093639],[-78.957366,43.093848],[-78.955671,43.094477],[-78.955107,43.094687]]},"properties":{"name":"Niagara Falls Blvd","road_class":"Arterial"}},{"type":"Feature","geometry":{"type":"LineString","coordinates":[[-79.026517,43.100248],[-79.026655,43.100558],[-79.026738,43.100743]]},"properties":{"name":"Hyde Park Blvd","road_class":"Arterial"}},{"type":"Feature","geometry":{"type":"LineString","coordinates":[[-78.990926,43.074219],[-78.990926,43.074316]]},"properties":{"name":"I- 190","road_class":"Highway"}},{"type":"Feature","geometry":{"type":"LineString","coordinates":[[-79.000678,43.11741],[-79.00075,43.117483]]},"properties":{"name":"I- 190","road_class":"Highway"}},{"type":"Feature","geometry":{"type":"LineString","coordinates":[[-79.024703,43.096192],[-79.024752,43.096302],[-79.024995,43.096847],[-79.025077,43.097029]]},"properties":{"name":"Hyde Park Blvd","road_class":"Arterial"}},{"type":"Feature","geometry":{"type":"LineString","coordinates":[[-78.990949,43.080552],[-78.990949,43.080659]]},"properties":{"name":"I- 190","road_class":"Highway"}},{"type":"Feature","geometry":{"type":"LineString","coordinates":[[-79.032073,43.112501],[-79.032157,43.112701],[-79.032189,43.112777],[-79.032214,43.112837],[-79.03223,43.112867]]},"properties":{"name":"Hyde Park Blvd","road_class":"Arterial"}},{"type":"Feature","geometry":{"type":"LineString","coordinates":[[-78.990521,43.068759],[-78.990577,43.073688]]},"properties":{"name":"I- 190","road_class":"Highway"}},{"type":"Feature","geometry":{"type":"LineString","coordinates":[[-78.99095,43.080873],[-78.990951,43.081231],[-78.990952,43.081447],[-78.990953,43.081629],[-78.990955,43.081966],[-78.990957,43.082063],[-78.990959,43.082179],[-78.990964,43.083218]]},"properties":{"name":"I- 190","road_class":"Highway"}},{"type":"Feature","geometry":{"type":"LineString","coordinates":[[-78.990551,43.089658],[-78.990929,43.089703]]},"properties":{"name":"Niagara Falls Blvd","road_class":"Arterial"}},{"type":"Feature","geometry":{"type":"LineString","coordinates":[[-78.990243,43.089623],[-78.990203,43.089711],[-78.990095,43.089955],[-78.990047,43.090065],[-78.989809,43.090512],[-78.989686,43.090707],[-78.989511,43.090972],[-78.989222,43.091365],[-78.988904,43.091739],[-78.988126,43.09257]]},"properties":{"name":"I- 190","road_class":"Highway"}},{"type":"Feature","geometry":{"type":"LineString","coordinates":[[-78.990551,43.089658],[-78.990243,43.089623]]},"properties":{"name":"Niagara Falls Blvd","road_class":"Arterial"}},{"type":"Feature","geometry":{"type":"LineString","coordinates":[[-79.035366,43.120475],[-79.035784,43.121477],[-79.035926,43.121817]]},"properties":{"name":"Hyde Park Blvd","road_class":"Arterial"}},{"type":"Feature","geometry":{"type":"LineString","coordinates":[[-79.034877,43.119232],[-79.034945,43.119409],[-79.035152,43.119942],[-79.035221,43.12012]]},"properties":{"name":"Hyde Park Blvd","road_class":"Arterial"}},{"type":"Feature","geometry":{"type":"LineString","coordinates":[[-79.040197,43.132148],[-79.040308,43.132386]]},"properties":{"name":"Hyde Park Blvd","road_class":"Arterial"}},{"type":"Feature","geometry":{"type":"LineString","coordinates":[[-79.020834,43.136096],[-79.021576,43.137874],[-79.021933,43.138828],[-79.022068,43.139411],[-79.022155,43.139921],[-79.022177,43.140344],[-79.022231,43.141601]]},"properties":{"name":"I- 190","road_class":"Highway"}},{"type":"Feature","geometry":{"type":"LineString","coordinates":[[-79.031383,43.151543],[-79.032764,43.15182]]},"properties":{"name":"I- 190","road_class":"Highway"}},{"type":"Feature","geometry":{"type":"LineString","coordinates":[[-79.021141,43.136102],[-79.02168,43.137395],[-79.022034,43.138326],[-79.022151,43.138654],[-79.022273,43.139129],[-79.022321,43.139419],[-79.022356,43.139794],[-79.022378,43.140218],[-79.022402,43.141603]]},"properties":{"name":"I- 190","road_class":"Highway"}},{"type":"Feature","geometry":{"type":"LineString","coordinates":[[-79.021141,43.136102],[-79.020737,43.135178]]},"properties":{"name":"I- 190","road_class":"Highway"}},{"type":"Feature","geometry":{"type":"LineString","coordinates":[[-78.943987,43.09883],[-78.94387,43.098869],[-78.943457,43.098975],[-78.943002,43.099093]]},"properties":{"name":"Niagara Falls Blvd","road_class":"Arterial"}},{"type":"Feature","geometry":{"type":"LineString","coordinates":[[-78.988416,43.092661],[-78.988276,43.092808],[-78.987407,43.093721]]},"properties":{"name":"I- 190","road_class":"Highway"}},{"type":"Feature","geometry":{"type":"LineString","coordinates":[[-78.943002,43.099093],[-78.942848,43.099133],[-78.942771,43.099147],[-78.942189,43.099256],[-78.941845,43.099304],[-78.941698,43.099325],[-78.9413,43.09937]]},"properties":{"name":"Niagara Falls Blvd","road_class":"Arterial"}},{"type":"Feature","geometry":{"type":"LineString","coordinates":[[-79.018678,43.130157],[-79.017807,43.12804]]},"properties":{"name":"I- 190","road_class":"Highway"}},{"type":"Feature","geometry":{"type":"LineString","coordinates":[[-78.982865,43.098598],[-78.982644,43.098934],[-78.982534,43.099131],[-78.982392,43.099425],[-78.98221,43.099933],[-78.982108,43.100369],[-78.982069,43.100701],[-78.982047,43.101023],[-78.982067,43.101339]]},"properties":{"name":"I- 190","road_class":"Highway"}},{"type":"Feature","geometry":{"type":"LineString","coordinates":[[-78.834403,43.057883],[-78.834592,43.057956],[-78.835158,43.058175],[-78.835348,43.058248],[-78.835457,43.058288],[-78.835787,43.058408],[-78.835897,43.058448]]},"properties":{"name":"Niagara Falls Blvd","road_class":"Arterial"}},{"type":"Feature","geometry":{"type":"LineString","coordinates":[[-78.826841,43.052115],[-78.826834,43.052085],[-78.826815,43.051995],[-78.826809,43.051965]]},"properties":{"name":"Niagara Falls Blvd","road_class":"Arterial"}},{"type":"Feature","geometry":{"type":"LineString","coordinates":[[-78.927195,43.099137],[-78.926776,43.099052],[-78.925519,43.098799],[-78.925101,43.098715]]},"properties":{"name":"Niagara Falls Blvd","road_class":"Arterial"}},{"type":"Feature","geometry":{"type":"LineString","coordinates":[[-78.925101,43.098715],[-78.92346,43.098418],[-78.922779,43.098282],[-78.922481,43.098212],[-78.921906,43.098065]]},"properties":{"name":"Niagara Falls Blvd","road_class":"Arterial"}},{"type":"Feature","geometry":{"type":"LineString","coordinates":[[-78.89366,43.089742],[-78.893122,43.089485],[-78.892832,43.089313],[-78.892764,43.089269],[-78.892351,43.089004],[-78.891319,43.088173],[-78.890603,43.08758],[-78.89037,43.087398],[-78.890089,43.087178],[-78.889716,43.086945],[-78.889529,43.086836]]},"properties":{"name":"Niagara Falls Blvd","road_class":"Arterial"}},{"type":"Feature","geometry":{"type":"LineString","coordinates":[[-78.910492,43.094091],[-78.906203,43.09242],[-78.904953,43.09194],[-78.904246,43.091682],[-78.903812,43.091541],[-78.903315,43.091406],[-78.902559,43.091234],[-78.902147,43.091164],[-78.90143,43.091076]]},"properties":{"name":"Niagara Falls Blvd","road_class":"Arterial"}},{"type":"Feature","geometry":{"type":"LineString","coordinates":[[-79.037781,43.126221],[-79.037933,43.126637],[-79.038097,43.12695]]},"properties":{"name":"Hyde Park Blvd","road_class":"Arterial"}},{"type":"Feature","geometry":{"type":"LineString","coordinates":[[-79.000718,43.11782],[-79.000787,43.117883],[-79.000858,43.117947]]},"properties":{"name":"I- 190","road_class":"Highway"}},{"type":"Feature","geometry":{"type":"LineString","coordinates":[[-79.02901,43.10575],[-79.029031,43.1058],[-79.029097,43.105951],[-79.029119,43.106002]]},"properties":{"name":"Hyde Park Blvd","road_class":"Arterial"}},{"type":"Feature","geometry":{"type":"LineString","coordinates":[[-79.027993,43.103464],[-79.027939,43.103348]]},"properties":{"name":"Hyde Park Blvd","road_class":"Arterial"}},{"type":"Feature","geometry":{"type":"LineString","coordinates":[[-78.837224,43.058823],[-78.837273,43.058838]]},"properties":{"name":"Niagara Falls Blvd","road_class":"Arterial"}},{"type":"Feature","geometry":{"type":"LineString","coordinates":[[-79.026738,43.100743],[-79.02682,43.100933],[-79.026917,43.101157]]},"properties":{"name":"Hyde Park Blvd","road_class":"Arterial"}},{"type":"Feature","geometry":{"type":"LineString","coordinates":[[-79.024248,43.095145],[-79.024671,43.096121]]},"properties":{"name":"Hyde Park Blvd","road_class":"Arterial"}},{"type":"Feature","geometry":{"type":"LineString","coordinates":[[-79.009338,43.093471],[-79.009193,43.093436],[-79.009023,43.093395],[-79.008922,43.093403]]},"properties":{"name":"Niagara Falls Blvd","road_class":"Arterial"}},{"type":"Feature","geometry":{"type":"LineString","coordinates":[[-79.008781,43.093366],[-79.007468,43.09298],[-79.005603,43.092433],[-79.003525,43.09184]]},"properties":{"name":"Niagara Falls Blvd","road_class":"Arterial"}},{"type":"Feature","geometry":{"type":"LineString","coordinates":[[-78.998406,43.090495],[-78.997577,43.090411],[-78.997,43.090353]]},"properties":{"name":"Niagara Falls Blvd","road_class":"Arterial"}},{"type":"Feature","geometry":{"type":"LineString","coordinates":[[-78.991496,43.089752],[-78.990929,43.089703]]},"properties":{"name":"Niagara Falls Blvd","road_class":"Arterial"}},{"type":"Feature","geometry":{"type":"LineString","coordinates":[[-78.96251,43.091897],[-78.96226,43.091995],[-78.96151,43.092289],[-78.961486,43.092299],[-78.961259,43.092384]]},"properties":{"name":"Niagara Falls Blvd","road_class":"Arterial"}},{"type":"Feature","geometry":{"type":"LineString","coordinates":[[-78.961259,43.092384],[-78.961008,43.092477],[-78.960257,43.092758],[-78.960007,43.092852]]},"properties":{"name":"Niagara Falls Blvd","road_class":"Arterial"}},{"type":"Feature","geometry":{"type":"LineString","coordinates":[[-78.966287,43.090795],[-78.966069,43.090864],[-78.965417,43.091073],[-78.9652,43.091143]]},"properties":{"name":"Niagara Falls Blvd","road_class":"Arterial"}},{"type":"Feature","geometry":{"type":"LineString","coordinates":[[-78.963607,43.091557],[-78.96251,43.091897]]},"properties":{"name":"Niagara Falls Blvd","road_class":"Arterial"}},{"type":"Feature","geometry":{"type":"LineString","coordinates":[[-78.946869,43.097797],[-78.946491,43.097937],[-78.94587,43.098167]]},"properties":{"name":"Niagara Falls Blvd","road_class":"Arterial"}},{"type":"Feature","geometry":{"type":"LineString","coordinates":[[-79.028598,43.104828],[-79.028644,43.104932],[-79.028705,43.105068]]},"properties":{"name":"Hyde Park Blvd","road_class":"Arterial"}},{"type":"Feature","geometry":{"type":"LineString","coordinates":[[-78.984418,43.088631],[-78.984128,43.088576],[-78.983258,43.088414],[-78.982969,43.08836]]},"properties":{"name":"Niagara Falls Blvd","road_class":"Arterial"}},{"type":"Feature","geometry":{"type":"LineString","coordinates":[[-78.976166,43.088386],[-78.975943,43.088429],[-78.975275,43.08856],[-78.975053,43.088604]]},"properties":{"name":"Niagara Falls Blvd","road_class":"Arterial"}},{"type":"Feature","geometry":{"type":"LineString","coordinates":[[-79.026115,43.099347],[-79.026247,43.099643],[-79.026326,43.09982]]},"properties":{"name":"Hyde Park Blvd","road_class":"Arterial"}},{"type":"Feature","geometry":{"type":"LineString","coordinates":[[-79.030076,43.108147],[-79.030214,43.108461],[-79.030278,43.108604]]},"properties":{"name":"Hyde Park Blvd","road_class":"Arterial"}},{"type":"Feature","geometry":{"type":"LineString","coordinates":[[-79.002134,43.091435],[-79.001987,43.091391],[-79.001743,43.09132],[-79.000336,43.090912],[-78.999867,43.090776]]},"properties":{"name":"Niagara Falls Blvd","road_class":"Arterial"}},{"type":"Feature","geometry":{"type":"LineString","coordinates":[[-79.027752,43.102975],[-79.027835,43.103143],[-79.027888,43.103253],[-79.027939,43.103348]]},"properties":{"name":"Hyde Park Blvd","road_class":"Arterial"}},{"type":"Feature","geometry":{"type":"LineString","coordinates":[[-78.990926,43.074413],[-78.990931,43.075312],[-78.990929,43.075435],[-78.990927,43.075563]]},"properties":{"name":"I- 190","road_class":"Highway"}},{"type":"Feature","geometry":{"type":"LineString","coordinates":[[-78.990949,43.080659],[-78.990949,43.080707]]},"properties":{"name":"I- 190","road_class":"Highway"}},{"type":"Feature","geometry":{"type":"LineString","coordinates":[[-78.988473,43.092601],[-78.988416,43.092661]]},"properties":{"name":"I- 190","road_class":"Highway"}},{"type":"Feature","geometry":{"type":"LineString","coordinates":[[-78.990551,43.089658],[-78.990517,43.089741],[-78.990467,43.089872],[-78.9903,43.090225],[-78.990067,43.090645],[-78.989937,43.090855],[-78.989754,43.091118],[-78.989548,43.091412],[-78.989174,43.091862],[-78.988509,43.09255],[-78.988473,43.092601]]},"properties":{"name":"I- 190","road_class":"Highway"}},{"type":"Feature","geometry":{"type":"LineString","coordinates":[[-79.035221,43.12012],[-79.035359,43.12046],[-79.035366,43.120475]]},"properties":{"name":"Hyde Park Blvd","road_class":"Arterial"}},{"type":"Feature","geometry":{"type":"LineString","coordinates":[[-79.040365,43.132513],[-79.040346,43.132471],[-79.040308,43.132386]]},"properties":{"name":"Hyde Park Blvd","road_class":"Arterial"}},{"type":"Feature","geometry":{"type":"LineString","coordinates":[[-79.0405,43.132811],[-79.040461,43.132726],[-79.040365,43.132513]]},"properties":{"name":"Hyde Park Blvd","road_class":"Arterial"}},{"type":"Feature","geometry":{"type":"LineString","coordinates":[[-79.040881,43.133689],[-79.040614,43.133062]]},"properties":{"name":"Hyde Park Blvd","road_class":"Arterial"}},{"type":"Feature","geometry":{"type":"LineString","coordinates":[[-79.019313,43.132393],[-79.020462,43.135189]]},"properties":{"name":"I- 190","road_class":"Highway"}},{"type":"Feature","geometry":{"type":"LineString","coordinates":[[-79.030969,43.151448],[-79.031096,43.151476]]},"properties":{"name":"I- 190","road_class":"Highway"}},{"type":"Feature","geometry":{"type":"LineString","coordinates":[[-79.017039,43.126945],[-79.017132,43.127134],[-79.017188,43.127248],[-79.01743,43.127812],[-79.018273,43.129855],[-79.018399,43.130158]]},"properties":{"name":"I- 190","road_class":"Highway"}},{"type":"Feature","geometry":{"type":"LineString","coordinates":[[-78.986539,43.105883],[-78.987352,43.106177],[-78.989022,43.106772]]},"properties":{"name":"I- 190","road_class":"Highway"}},{"type":"Feature","geometry":{"type":"LineString","coordinates":[[-78.987407,43.093721],[-78.986249,43.094946],[-78.985146,43.09609],[-78.983198,43.098168],[-78.982865,43.098598]]},"properties":{"name":"I- 190","road_class":"Highway"}},{"type":"Feature","geometry":{"type":"LineString","coordinates":[[-79.039239,43.12811],[-79.039374,43.128303],[-79.03938,43.128311],[-79.03947,43.128497],[-79.039566,43.128748],[-79.039629,43.128961],[-79.039663,43.129076],[-79.039685,43.12919]]},"properties":{"name":"Hyde Park Blvd","road_class":"Arterial"}},{"type":"Feature","geometry":{"type":"LineString","coordinates":[[-78.844729,43.064986],[-78.84481,43.065134],[-78.845053,43.065581],[-78.845135,43.06573]]},"properties":{"name":"Niagara Falls Blvd","road_class":"Arterial"}},{"type":"Feature","geometry":{"type":"LineString","coordinates":[[-78.82783,43.054384],[-78.827745,43.054292]]},"properties":{"name":"Niagara Falls Blvd","road_class":"Arterial"}},{"type":"Feature","geometry":{"type":"LineString","coordinates":[[-78.9413,43.09937],[-78.940883,43.099402]]},"properties":{"name":"Niagara Falls Blvd","road_class":"Arterial"}},{"type":"Feature","geometry":{"type":"LineString","coordinates":[[-78.921906,43.098065],[-78.920778,43.09776]]},"properties":{"name":"Niagara Falls Blvd","road_class":"Arterial"}},{"type":"Feature","geometry":{"type":"LineString","coordinates":[[-78.868995,43.078863],[-78.868441,43.078633],[-78.86586,43.077562]]},"properties":{"name":"Niagara Falls Blvd","road_class":"Arterial"}},{"type":"Feature","geometry":{"type":"LineString","coordinates":[[-78.851194,43.069902],[-78.850959,43.069795],[-78.849963,43.069327],[-78.849233,43.06897],[-78.849198,43.068953],[-78.848848,43.068786],[-78.848241,43.068497],[-78.847915,43.068323],[-78.847814,43.068261],[-78.847574,43.068116],[-78.847482,43.068064]]},"properties":{"name":"Niagara Falls Blvd","road_class":"Arterial"}},{"type":"Feature","geometry":{"type":"LineString","coordinates":[[-79.033264,43.11521],[-79.033541,43.115935]]},"properties":{"name":"Hyde Park Blvd","road_class":"Arterial"}},{"type":"Feature","geometry":{"type":"LineString","coordinates":[[-79.029862,43.107654],[-79.029881,43.107701],[-79.029941,43.107842],[-79.029962,43.10789]]},"properties":{"name":"Hyde Park Blvd","road_class":"Arterial"}},{"type":"Feature","geometry":{"type":"LineString","coordinates":[[-79.029621,43.107127],[-79.029651,43.107192]]},"properties":{"name":"Hyde Park Blvd","road_class":"Arterial"}},{"type":"Feature","geometry":{"type":"LineString","coordinates":[[-79.029119,43.106002],[-79.029161,43.106092],[-79.029288,43.106364],[-79.029331,43.106455]]},"properties":{"name":"Hyde Park Blvd","road_class":"Arterial"}},{"type":"Feature","geometry":{"type":"LineString","coordinates":[[-79.028785,43.105252],[-79.02883,43.105351],[-79.028965,43.10565],[-79.02901,43.10575]]},"properties":{"name":"Hyde Park Blvd","road_class":"Arterial"}},{"type":"Feature","geometry":{"type":"LineString","coordinates":[[-79.028334,43.104236],[-79.028403,43.104388]]},"properties":{"name":"Hyde Park Blvd","road_class":"Arterial"}},{"type":"Feature","geometry":{"type":"LineString","coordinates":[[-78.837273,43.058838],[-78.83739,43.058868]]},"properties":{"name":"Niagara Falls Blvd","road_class":"Arterial"}},{"type":"Feature","geometry":{"type":"LineString","coordinates":[[-78.840662,43.060802],[-78.841533,43.06159],[-78.842146,43.062188],[-78.842682,43.062741]]},"properties":{"name":"Niagara Falls Blvd","road_class":"Arterial"}},{"type":"Feature","geometry":{"type":"LineString","coordinates":[[-79.022051,43.090099],[-79.022115,43.090237],[-79.022308,43.090653],[-79.022373,43.090792]]},"properties":{"name":"Hyde Park Blvd","road_class":"Arterial"}},{"type":"Feature","geometry":{"type":"LineString","coordinates":[[-79.021064,43.087838],[-79.021214,43.088174]]},"properties":{"name":"Hyde Park Blvd","road_class":"Arterial"}},{"type":"Feature","geometry":{"type":"LineString","coordinates":[[-79.018509,43.082257],[-79.018602,43.08247],[-79.018884,43.08311],[-79.018978,43.083324]]},"properties":{"name":"Hyde Park Blvd","road_class":"Arterial"}},{"type":"Feature","geometry":{"type":"LineString","coordinates":[[-79.01084,43.09382],[-79.010428,43.093724],[-79.009485,43.093506],[-79.009338,43.093471]]},"properties":{"name":"Niagara Falls Blvd","road_class":"Arterial"}},{"type":"Feature","geometry":{"type":"LineString","coordinates":[[-79.002212,43.091459],[-79.002134,43.091435]]},"properties":{"name":"Niagara Falls Blvd","road_class":"Arterial"}},{"type":"Feature","geometry":{"type":"LineString","coordinates":[[-78.972694,43.089089],[-78.972466,43.089136],[-78.971785,43.089276],[-78.971558,43.089324]]},"properties":{"name":"Niagara Falls Blvd","road_class":"Arterial"}},{"type":"Feature","geometry":{"type":"LineString","coordinates":[[-78.947858,43.097416],[-78.94766,43.097492],[-78.947066,43.09772],[-78.946869,43.097797]]},"properties":{"name":"Niagara Falls Blvd","road_class":"Arterial"}},{"type":"Feature","geometry":{"type":"LineString","coordinates":[[-78.955107,43.094687],[-78.954311,43.094988],[-78.952163,43.095804],[-78.951926,43.095893],[-78.951132,43.096196]]},"properties":{"name":"Niagara Falls Blvd","road_class":"Arterial"}},{"type":"Feature","geometry":{"type":"LineString","coordinates":[[-78.951132,43.096196],[-78.950897,43.096283],[-78.950194,43.096546],[-78.94996,43.096634]]},"properties":{"name":"Niagara Falls Blvd","road_class":"Arterial"}},{"type":"Feature","geometry":{"type":"LineString","coordinates":[[-79.00075,43.117483],[-79.00082,43.117555],[-79.001026,43.117748]]},"properties":{"name":"I- 190","road_class":"Highway"}},{"type":"Feature","geometry":{"type":"LineString","coordinates":[[-78.975053,43.088604],[-78.974819,43.088653],[-78.974119,43.088801],[-78.973886,43.088851]]},"properties":{"name":"Niagara Falls Blvd","road_class":"Arterial"}},{"type":"Feature","geometry":{"type":"LineString","coordinates":[[-78.97749,43.0881],[-78.977262,43.088147],[-78.976578,43.08829],[-78.976351,43.088339]]},"properties":{"name":"Niagara Falls Blvd","road_class":"Arterial"}},{"type":"Feature","geometry":{"type":"LineString","coordinates":[[-79.000456,43.117569],[-79.00055,43.117663]]},"properties":{"name":"I- 190","road_class":"Highway"}},{"type":"Feature","geometry":{"type":"LineString","coordinates":[[-78.990975,43.084963],[-78.990979,43.085473],[-78.990983,43.085743]]},"properties":{"name":"I- 190","road_class":"Highway"}},{"type":"Feature","geometry":{"type":"LineString","coordinates":[[-78.999181,43.115541],[-78.999326,43.11576],[-78.999453,43.115953],[-78.999747,43.116358],[-79.000229,43.116935],[-79.000533,43.117258],[-79.000678,43.11741]]},"properties":{"name":"I- 190","road_class":"Highway"}},{"type":"Feature","geometry":{"type":"LineString","coordinates":[[-79.001189,43.117895],[-79.001344,43.118031],[-79.001422,43.118098]]},"properties":{"name":"I- 190","road_class":"Highway"}},{"type":"Feature","geometry":{"type":"LineString","coordinates":[[-79.018978,43.083324],[-79.019359,43.08416]]},"properties":{"name":"Hyde Park Blvd","road_class":"Arterial"}},{"type":"Feature","geometry":{"type":"LineString","coordinates":[[-78.990923,43.07575],[-78.990933,43.075963],[-78.990935,43.076574],[-78.990935,43.076934]]},"properties":{"name":"I- 190","road_class":"Highway"}},{"type":"Feature","geometry":{"type":"LineString","coordinates":[[-78.990926,43.074316],[-78.990926,43.074413]]},"properties":{"name":"I- 190","road_class":"Highway"}},{"type":"Feature","geometry":{"type":"LineString","coordinates":[[-78.99095,43.080806],[-78.99095,43.080873]]},"properties":{"name":"I- 190","road_class":"Highway"}},{"type":"Feature","geometry":{"type":"LineString","coordinates":[[-78.988126,43.09257],[-78.988038,43.092663]]},"properties":{"name":"I- 190","road_class":"Highway"}},{"type":"Feature","geometry":{"type":"LineString","coordinates":[[-79.031438,43.111045],[-79.031597,43.111408],[-79.031841,43.111963]]},"properties":{"name":"Hyde Park Blvd","road_class":"Arterial"}},{"type":"Feature","geometry":{"type":"LineString","coordinates":[[-79.023152,43.092875],[-79.023432,43.093552]]},"properties":{"name":"Hyde Park Blvd","road_class":"Arterial"}},{"type":"Feature","geometry":{"type":"LineString","coordinates":[[-79.040614,43.133062],[-79.040591,43.133011],[-79.040578,43.132983],[-79.040522,43.132861],[-79.0405,43.132811]]},"properties":{"name":"Hyde Park Blvd","road_class":"Arterial"}},{"type":"Feature","geometry":{"type":"LineString","coordinates":[[-79.032754,43.1516],[-79.032348,43.151526]]},"properties":{"name":"I- 190","road_class":"Highway"}},{"type":"Feature","geometry":{"type":"LineString","coordinates":[[-79.032348,43.151526],[-79.03138,43.151325]]},"properties":{"name":"I- 190","road_class":"Highway"}},{"type":"Feature","geometry":{"type":"LineString","coordinates":[[-79.03138,43.151325],[-79.03128,43.151289]]},"properties":{"name":"I- 190","road_class":"Highway"}},{"type":"Feature","geometry":{"type":"LineString","coordinates":[[-79.03833,43.152192],[-79.039593,43.152372],[-79.041843,43.152676]]},"properties":{"name":"I- 190","road_class":"Highway"}},{"type":"Feature","geometry":{"type":"LineString","coordinates":[[-79.041843,43.152676],[-79.041987,43.152692]]},"properties":{"name":"I- 190","road_class":"Highway"}},{"type":"Feature","geometry":{"type":"LineString","coordinates":[[-79.019325,43.131727],[-79.020276,43.134047]]},"properties":{"name":"I- 190","road_class":"Highway"}},{"type":"Feature","geometry":{"type":"LineString","coordinates":[[-78.994806,43.109924],[-78.99509,43.110191],[-78.995261,43.110367],[-78.995348,43.110457],[-78.995769,43.110944],[-78.996038,43.111298],[-78.996424,43.111874],[-78.996779,43.112403],[-78.996938,43.112644],[-78.997415,43.113369],[-78.997574,43.113611],[-78.997629,43.113696],[-78.997795,43.113951],[-78.997851,43.114037]]},"properties":{"name":"I- 190","road_class":"Highway"}},{"type":"Feature","geometry":{"type":"LineString","coordinates":[[-79.037339,43.125209],[-79.037456,43.125498],[-79.037602,43.125806],[-79.037716,43.126081]]},"properties":{"name":"Hyde Park Blvd","road_class":"Arterial"}},{"type":"Feature","geometry":{"type":"LineString","coordinates":[[-79.035926,43.121817],[-79.036622,43.123498]]},"properties":{"name":"Hyde Park Blvd","road_class":"Arterial"}},{"type":"Feature","geometry":{"type":"LineString","coordinates":[[-78.889529,43.086836],[-78.889206,43.086663],[-78.888507,43.086328],[-78.888032,43.086121],[-78.887203,43.08576],[-78.886806,43.085615],[-78.88585,43.085322],[-78.883303,43.084584],[-78.88246,43.08434],[-78.881922,43.084188],[-78.881705,43.084139]]},"properties":{"name":"Niagara Falls Blvd","road_class":"Arterial"}},{"type":"Feature","geometry":{"type":"LineString","coordinates":[[-78.831197,43.056578],[-78.830734,43.056355],[-78.829994,43.055998],[-78.829618,43.055804],[-78.82937,43.055645],[-78.828939,43.055368]]},"properties":{"name":"Niagara Falls Blvd","road_class":"Arterial"}},{"type":"Feature","geometry":{"type":"LineString","coordinates":[[-78.90143,43.091076],[-78.897358,43.090644],[-78.896721,43.090556],[-78.895805,43.090396],[-78.894977,43.090199],[-78.894522,43.090072],[-78.894194,43.089966],[-78.894012,43.0899],[-78.89366,43.089742]]},"properties":{"name":"Niagara Falls Blvd","road_class":"Arterial"}},{"type":"Feature","geometry":{"type":"LineString","coordinates":[[-78.9132,43.095138],[-78.912261,43.094768]]},"properties":{"name":"Niagara Falls Blvd","road_class":"Arterial"}},{"type":"Feature","geometry":{"type":"LineString","coordinates":[[-78.827745,43.054292],[-78.827549,43.054022],[-78.827432,43.053842],[-78.827416,43.053817],[-78.827311,43.053608],[-78.8272,43.053355]]},"properties":{"name":"Niagara Falls Blvd","road_class":"Arterial"}},{"type":"Feature","geometry":{"type":"LineString","coordinates":[[-79.033025,43.11468],[-79.033088,43.114795],[-79.033264,43.11521]]},"properties":{"name":"Hyde Park Blvd","road_class":"Arterial"}},{"type":"Feature","geometry":{"type":"LineString","coordinates":[[-78.842682,43.062741],[-78.843317,43.06341]]},"properties":{"name":"Niagara Falls Blvd","road_class":"Arterial"}},{"type":"Feature","geometry":{"type":"LineString","coordinates":[[-79.026326,43.09982],[-79.026408,43.100004],[-79.026517,43.100248]]},"properties":{"name":"Hyde Park Blvd","road_class":"Arterial"}},{"type":"Feature","geometry":{"type":"LineString","coordinates":[[-79.021214,43.088174],[-79.021261,43.088283],[-79.021403,43.08861],[-79.021451,43.088719]]},"properties":{"name":"Hyde Park Blvd","road_class":"Arterial"}},{"type":"Feature","geometry":{"type":"LineString","coordinates":[[-79.021451,43.088719],[-79.02151,43.088858],[-79.021688,43.089275],[-79.021748,43.089415]]},"properties":{"name":"Hyde Park Blvd","road_class":"Arterial"}},{"type":"Feature","geometry":{"type":"LineString","coordinates":[[-78.99065,43.083214],[-78.990653,43.083512],[-78.990662,43.084196]]},"properties":{"name":"I- 190","road_class":"Highway"}},{"type":"Feature","geometry":{"type":"LineString","coordinates":[[-78.988139,43.089318],[-78.987761,43.08925],[-78.986627,43.089046],[-78.986249,43.088979]]},"properties":{"name":"Niagara Falls Blvd","road_class":"Arterial"}},{"type":"Feature","geometry":{"type":"LineString","coordinates":[[-78.990619,43.075696],[-78.990619,43.075843],[-78.990619,43.075897],[-78.990616,43.076287],[-78.990615,43.076435],[-78.99062,43.076995],[-78.990623,43.078071],[-78.99063,43.079559],[-78.990629,43.080078],[-78.990627,43.080237],[-78.99063,43.080339]]},"properties":{"name":"I- 190","road_class":"Highway"}},{"type":"Feature","geometry":{"type":"LineString","coordinates":[[-78.967809,43.090322],[-78.967742,43.09034],[-78.967503,43.090414],[-78.966591,43.090699],[-78.966287,43.090795]]},"properties":{"name":"Niagara Falls Blvd","road_class":"Arterial"}},{"type":"Feature","geometry":{"type":"LineString","coordinates":[[-78.964342,43.091372],[-78.964195,43.091409],[-78.963754,43.09152],[-78.963607,43.091557]]},"properties":{"name":"Niagara Falls Blvd","road_class":"Arterial"}},{"type":"Feature","geometry":{"type":"LineString","coordinates":[[-78.94498,43.0985],[-78.944781,43.098566],[-78.944185,43.098763],[-78.943987,43.09883]]},"properties":{"name":"Niagara Falls Blvd","road_class":"Arterial"}},{"type":"Feature","geometry":{"type":"LineString","coordinates":[[-78.990948,43.080358],[-78.990947,43.080251]]},"properties":{"name":"I- 190","road_class":"Highway"}},{"type":"Feature","geometry":{"type":"LineString","coordinates":[[-79.039711,43.130258],[-79.039719,43.130363]]},"properties":{"name":"Hyde Park Blvd","road_class":"Arterial"}},{"type":"Feature","geometry":{"type":"LineString","coordinates":[[-79.001026,43.117748],[-79.001118,43.117831],[-79.001189,43.117895]]},"properties":{"name":"I- 190","road_class":"Highway"}},{"type":"Feature","geometry":{"type":"LineString","coordinates":[[-79.022911,43.092194],[-79.022957,43.09233],[-79.02307,43.092666],[-79.023099,43.09274],[-79.023152,43.092875]]},"properties":{"name":"Hyde Park Blvd","road_class":"Arterial"}},{"type":"Feature","geometry":{"type":"LineString","coordinates":[[-79.022672,43.091504],[-79.022719,43.091642],[-79.022863,43.092056],[-79.022911,43.092194]]},"properties":{"name":"Hyde Park Blvd","road_class":"Arterial"}},{"type":"Feature","geometry":{"type":"LineString","coordinates":[[-79.041032,43.134075],[-79.040881,43.133689]]},"properties":{"name":"Hyde Park Blvd","road_class":"Arterial"}},{"type":"Feature","geometry":{"type":"LineString","coordinates":[[-79.022231,43.141601],[-79.022234,43.143937]]},"properties":{"name":"I- 190","road_class":"Highway"}},{"type":"Feature","geometry":{"type":"LineString","coordinates":[[-79.04384,43.152969],[-79.044429,43.153067]]},"properties":{"name":"I- 190","road_class":"Highway"}},{"type":"Feature","geometry":{"type":"LineString","coordinates":[[-79.034162,43.152149],[-79.034651,43.152264],[-79.034992,43.152327],[-79.035031,43.152335],[-79.035313,43.152376],[-79.035725,43.152404],[-79.036233,43.152406],[-79.037273,43.152322],[-79.037535,43.152317],[-79.037721,43.152314],[-79.03791,43.152323],[-79.038382,43.152376]]},"properties":{"name":"I- 190","road_class":"Highway"}},{"type":"Feature","geometry":{"type":"LineString","coordinates":[[-79.027592,43.150006],[-79.028385,43.150392],[-79.029092,43.150732],[-79.029599,43.150948],[-79.030139,43.151174]]},"properties":{"name":"I- 190","road_class":"Highway"}},{"type":"Feature","geometry":{"type":"LineString","coordinates":[[-78.982608,43.098463],[-78.982478,43.098649],[-78.982315,43.098914],[-78.982164,43.09921],[-78.982031,43.099509],[-78.981951,43.099734],[-78.98186,43.100052],[-78.981792,43.100377],[-78.981766,43.100601],[-78.981746,43.100932],[-78.981746,43.101261],[-78.981784,43.101591],[-78.981822,43.10181],[-78.981946,43.102267],[-78.982063,43.102581],[-78.982223,43.102931],[-78.982307,43.103088],[-78.982507,43.103412],[-78.982703,43.103687],[-78.982941,43.103976],[-78.983117,43.104169],[-78.983171,43.104227],[-78.983344,43.104394],[-78.983767,43.104757],[-78.9842,43.105066],[-78.98452,43.105264],[-78.984872,43.105462],[-78.985252,43.105644],[-78.985784,43.105869],[-78.986128,43.105994],[-78.98619,43.106016],[-78.986377,43.106084],[-78.98644,43.106107]]},"properties":{"name":"I- 190","road_class":"Highway"}},{"type":"Feature","geometry":{"type":"LineString","coordinates":[[-79.017807,43.12804],[-79.017624,43.12753],[-79.017486,43.127204],[-79.017294,43.126826],[-79.016956,43.126291],[-79.016801,43.126046],[-79.016548,43.12572],[-79.01627,43.125393],[-79.015977,43.125075],[-79.015691,43.124782],[-79.015308,43.124431],[-79.014933,43.124113],[-79.014354,43.123713],[-79.014019,43.123501],[-79.013505,43.123224],[-79.012943,43.122914],[-79.012453,43.122694],[-79.011222,43.122255]]},"properties":{"name":"I- 190","road_class":"Highway"}},{"type":"Feature","geometry":{"type":"LineString","coordinates":[[-78.989022,43.106772],[-78.989445,43.106893]]},"properties":{"name":"I- 190","road_class":"Highway"}},{"type":"Feature","geometry":{"type":"LineString","coordinates":[[-79.039487,43.13036],[-79.039601,43.130675],[-79.039632,43.130776],[-79.039799,43.131308],[-79.039962,43.131767],[-79.040197,43.132148]]},"properties":{"name":"Hyde Park Blvd","road_class":"Arterial"}},{"type":"Feature","geometry":{"type":"LineString","coordinates":[[-79.037716,43.126081],[-79.037781,43.126221]]},"properties":{"name":"Hyde Park Blvd","road_class":"Arterial"}},{"type":"Feature","geometry":{"type":"LineString","coordinates":[[-79.037781,43.126221],[-79.038073,43.126586],[-79.03823,43.12681],[-79.038328,43.126934]]},"properties":{"name":"Hyde Park Blvd","road_class":"Arterial"}},{"type":"Feature","geometry":{"type":"LineString","coordinates":[[-79.038328,43.126934],[-79.039239,43.12811]]},"properties":{"name":"Hyde Park Blvd","road_class":"Arterial"}},{"type":"Feature","geometry":{"type":"LineString","coordinates":[[-78.838186,43.059099],[-78.83844,43.059205],[-78.838809,43.059359],[-78.839091,43.059513],[-78.83918,43.059566],[-78.839417,43.059708]]},"properties":{"name":"Niagara Falls Blvd","road_class":"Arterial"}},{"type":"Feature","geometry":{"type":"LineString","coordinates":[[-78.835897,43.058448],[-78.837224,43.058823]]},"properties":{"name":"Niagara Falls Blvd","road_class":"Arterial"}},{"type":"Feature","geometry":{"type":"LineString","coordinates":[[-79.03452,43.11835],[-79.034591,43.118526],[-79.034805,43.119055],[-79.034877,43.119232]]},"properties":{"name":"Hyde Park Blvd","road_class":"Arterial"}},{"type":"Feature","geometry":{"type":"LineString","coordinates":[[-79.033826,43.116713],[-79.034155,43.117528]]},"properties":{"name":"Hyde Park Blvd","road_class":"Arterial"}},{"type":"Feature","geometry":{"type":"LineString","coordinates":[[-79.029962,43.10789],[-79.030025,43.108032],[-79.030076,43.108147]]},"properties":{"name":"Hyde Park Blvd","road_class":"Arterial"}},{"type":"Feature","geometry":{"type":"LineString","coordinates":[[-79.029331,43.106455],[-79.029361,43.106521],[-79.029451,43.106719],[-79.029481,43.106785]]},"properties":{"name":"Hyde Park Blvd","road_class":"Arterial"}},{"type":"Feature","geometry":{"type":"LineString","coordinates":[[-78.990634,43.080779],[-78.990638,43.080939],[-78.990641,43.08128],[-78.990641,43.081462],[-78.990642,43.081674],[-78.990643,43.082201],[-78.99065,43.083214]]},"properties":{"name":"I- 190","road_class":"Highway"}},{"type":"Feature","geometry":{"type":"LineString","coordinates":[[-79.020649,43.086925],[-79.02069,43.087014],[-79.020776,43.087201],[-79.021064,43.087838]]},"properties":{"name":"Hyde Park Blvd","road_class":"Arterial"}},{"type":"Feature","geometry":{"type":"LineString","coordinates":[[-78.94996,43.096634],[-78.949539,43.09679],[-78.948278,43.097259],[-78.947858,43.097416]]},"properties":{"name":"Niagara Falls Blvd","road_class":"Arterial"}},{"type":"Feature","geometry":{"type":"LineString","coordinates":[[-78.976351,43.088339],[-78.976313,43.088348],[-78.976202,43.088376],[-78.976166,43.088386]]},"properties":{"name":"Niagara Falls Blvd","road_class":"Arterial"}},{"type":"Feature","geometry":{"type":"LineString","coordinates":[[-78.979477,43.087885],[-78.979355,43.087888],[-78.97899,43.087897],[-78.978869,43.087901],[-78.978793,43.087903],[-78.97859,43.08792],[-78.978373,43.087939],[-78.977981,43.088007],[-78.977764,43.088048],[-78.97749,43.0881]]},"properties":{"name":"Niagara Falls Blvd","road_class":"Arterial"}},{"type":"Feature","geometry":{"type":"LineString","coordinates":[[-78.982969,43.08836],[-78.982727,43.088312],[-78.982003,43.088168],[-78.981762,43.088121]]},"properties":{"name":"Niagara Falls Blvd","road_class":"Arterial"}},{"type":"Feature","geometry":{"type":"LineString","coordinates":[[-79.026917,43.101157],[-79.027066,43.101503],[-79.027148,43.101694]]},"properties":{"name":"Hyde Park Blvd","road_class":"Arterial"}},{"type":"Feature","geometry":{"type":"LineString","coordinates":[[-79.008922,43.093403],[-79.008781,43.093366]]},"properties":{"name":"Niagara Falls Blvd","road_class":"Arterial"}},{"type":"Feature","geometry":{"type":"LineString","coordinates":[[-78.990927,43.075563],[-78.990926,43.075615],[-78.990926,43.075668],[-78.990923,43.07575]]},"properties":{"name":"I- 190","road_class":"Highway"}},{"type":"Feature","geometry":{"type":"LineString","coordinates":[[-78.990964,43.083218],[-78.990966,43.0834],[-78.99097,43.08382],[-78.990971,43.084107]]},"properties":{"name":"I- 190","road_class":"Highway"}},{"type":"Feature","geometry":{"type":"LineString","coordinates":[[-78.990634,43.080628],[-78.990635,43.080668],[-78.990635,43.080707],[-78.990635,43.08073],[-78.990634,43.080779]]},"properties":{"name":"I- 190","road_class":"Highway"}},{"type":"Feature","geometry":{"type":"LineString","coordinates":[[-79.039685,43.12919],[-79.039685,43.129424],[-79.039687,43.130029],[-79.039697,43.130129],[-79.039711,43.130258]]},"properties":{"name":"Hyde Park Blvd","road_class":"Arterial"}},{"type":"Feature","geometry":{"type":"LineString","coordinates":[[-79.039451,43.130256],[-79.039487,43.13036]]},"properties":{"name":"Hyde Park Blvd","road_class":"Arterial"}},{"type":"Feature","geometry":{"type":"LineString","coordinates":[[-79.039719,43.130363],[-79.039774,43.130673],[-79.039894,43.131231],[-79.040079,43.13173],[-79.040197,43.132148]]},"properties":{"name":"Hyde Park Blvd","road_class":"Arterial"}},{"type":"Feature","geometry":{"type":"LineString","coordinates":[[-78.990925,43.074047],[-78.990925,43.074072],[-78.990925,43.074098],[-78.990926,43.074219]]},"properties":{"name":"I- 190","road_class":"Highway"}},{"type":"Feature","geometry":{"type":"LineString","coordinates":[[-79.041881,43.15276],[-79.042024,43.152777]]},"properties":{"name":"I- 190","road_class":"Highway"}},{"type":"Feature","geometry":{"type":"LineString","coordinates":[[-79.032754,43.1516],[-79.03365,43.151706]]},"properties":{"name":"I- 190","road_class":"Highway"}},{"type":"Feature","geometry":{"type":"LineString","coordinates":[[-79.041782,43.135669],[-79.041618,43.135551]]},"properties":{"name":"Hyde Park Blvd","road_class":"Arterial"}},{"type":"Feature","geometry":{"type":"LineString","coordinates":[[-79.044414,43.15297],[-79.04381,43.152841]]},"properties":{"name":"I- 190","road_class":"Highway"}},{"type":"Feature","geometry":{"type":"LineString","coordinates":[[-79.030139,43.151174],[-79.030969,43.151448]]},"properties":{"name":"I- 190","road_class":"Highway"}},{"type":"Feature","geometry":{"type":"LineString","coordinates":[[-79.020462,43.135189],[-79.020834,43.136096]]},"properties":{"name":"I- 190","road_class":"Highway"}},{"type":"Feature","geometry":{"type":"LineString","coordinates":[[-79.018399,43.130158],[-79.018461,43.130309],[-79.019005,43.131645]]},"properties":{"name":"I- 190","road_class":"Highway"}},{"type":"Feature","geometry":{"type":"LineString","coordinates":[[-79.009395,43.121967],[-79.009431,43.121977],[-79.010186,43.122185],[-79.011111,43.122461]]},"properties":{"name":"I- 190","road_class":"Highway"}},{"type":"Feature","geometry":{"type":"LineString","coordinates":[[-79.009533,43.121758],[-79.010845,43.122138],[-79.011222,43.122255]]},"properties":{"name":"I- 190","road_class":"Highway"}},{"type":"Feature","geometry":{"type":"LineString","coordinates":[[-79.011111,43.122461],[-79.01167,43.122646],[-79.012291,43.122879],[-79.012728,43.123076],[-79.013262,43.123331],[-79.013828,43.123653],[-79.014034,43.123783],[-79.014729,43.124263],[-79.015133,43.124589],[-79.015587,43.125],[-79.016009,43.125447],[-79.016363,43.125884],[-79.016674,43.126323],[-79.016805,43.126531],[-79.017039,43.126945]]},"properties":{"name":"I- 190","road_class":"Highway"}},{"type":"Feature","geometry":{"type":"LineString","coordinates":[[-79.039151,43.129419],[-79.039192,43.129566],[-79.039208,43.12961],[-79.039419,43.130172],[-79.039451,43.130256]]},"properties":{"name":"Hyde Park Blvd","road_class":"Arterial"}},{"type":"Feature","geometry":{"type":"LineString","coordinates":[[-79.03848,43.127767],[-79.038615,43.128096],[-79.038967,43.128953],[-79.03902,43.129087],[-79.039151,43.129419]]},"properties":{"name":"Hyde Park Blvd","road_class":"Arterial"}},{"type":"Feature","geometry":{"type":"LineString","coordinates":[[-78.831197,43.056578],[-78.83146,43.056685],[-78.832251,43.057008],[-78.832515,43.057116]]},"properties":{"name":"Niagara Falls Blvd","road_class":"Arterial"}},{"type":"Feature","geometry":{"type":"LineString","coordinates":[[-78.920778,43.09776],[-78.920624,43.097719],[-78.917228,43.096566],[-78.914408,43.09558],[-78.9132,43.095138]]},"properties":{"name":"Niagara Falls Blvd","road_class":"Arterial"}},{"type":"Feature","geometry":{"type":"LineString","coordinates":[[-78.85423,43.07115],[-78.851729,43.070147],[-78.851194,43.069902]]},"properties":{"name":"Niagara Falls Blvd","road_class":"Arterial"}},{"type":"Feature","geometry":{"type":"LineString","coordinates":[[-79.036978,43.124354],[-79.03705,43.124525],[-79.037266,43.125038],[-79.037339,43.125209]]},"properties":{"name":"Hyde Park Blvd","road_class":"Arterial"}},{"type":"Feature","geometry":{"type":"LineString","coordinates":[[-79.034155,43.117528],[-79.034228,43.117692],[-79.034447,43.118185],[-79.03452,43.11835]]},"properties":{"name":"Hyde Park Blvd","road_class":"Arterial"}},{"type":"Feature","geometry":{"type":"LineString","coordinates":[[-79.032316,43.11303],[-79.032595,43.113688]]},"properties":{"name":"Hyde Park Blvd","road_class":"Arterial"}},{"type":"Feature","geometry":{"type":"LineString","coordinates":[[-79.031035,43.110205],[-79.031115,43.110372],[-79.031357,43.110877],[-79.031438,43.111045]]},"properties":{"name":"Hyde Park Blvd","road_class":"Arterial"}},{"type":"Feature","geometry":{"type":"LineString","coordinates":[[-79.029481,43.106785],[-79.029509,43.106853],[-79.029593,43.107058],[-79.029621,43.107127]]},"properties":{"name":"Hyde Park Blvd","road_class":"Arterial"}},{"type":"Feature","geometry":{"type":"LineString","coordinates":[[-78.839417,43.059708],[-78.839582,43.059829],[-78.839747,43.059961],[-78.840318,43.06049],[-78.840662,43.060802]]},"properties":{"name":"Niagara Falls Blvd","road_class":"Arterial"}},{"type":"Feature","geometry":{"type":"LineString","coordinates":[[-79.025934,43.098939],[-79.026012,43.099115],[-79.026115,43.099347]]},"properties":{"name":"Hyde Park Blvd","road_class":"Arterial"}},{"type":"Feature","geometry":{"type":"LineString","coordinates":[[-79.022373,43.090792],[-79.022439,43.090931],[-79.022465,43.090985],[-79.022614,43.09136],[-79.022672,43.091504]]},"properties":{"name":"Hyde Park Blvd","road_class":"Arterial"}},{"type":"Feature","geometry":{"type":"LineString","coordinates":[[-79.021748,43.089415],[-79.021808,43.089551],[-79.02199,43.089962],[-79.022051,43.090099]]},"properties":{"name":"Hyde Park Blvd","road_class":"Arterial"}},{"type":"Feature","geometry":{"type":"LineString","coordinates":[[-78.990597,43.074049],[-78.990616,43.074224]]},"properties":{"name":"I- 190","road_class":"Highway"}},{"type":"Feature","geometry":{"type":"LineString","coordinates":[[-78.990845,43.06878],[-78.990925,43.074047]]},"properties":{"name":"I- 190","road_class":"Highway"}},{"type":"Feature","geometry":{"type":"LineString","coordinates":[[-78.990616,43.074224],[-78.990616,43.074322]]},"properties":{"name":"I- 190","road_class":"Highway"}},{"type":"Feature","geometry":{"type":"LineString","coordinates":[[-78.990947,43.080251],[-78.990931,43.079796],[-78.990944,43.079715]]},"properties":{"name":"I- 190","road_class":"Highway"}},{"type":"Feature","geometry":{"type":"LineString","coordinates":[[-78.990617,43.075045],[-78.990619,43.07543],[-78.990619,43.075523],[-78.990616,43.075606],[-78.990619,43.075696]]},"properties":{"name":"I- 190","road_class":"Highway"}},{"type":"Feature","geometry":{"type":"LineString","coordinates":[[-78.973886,43.088851],[-78.973647,43.088898],[-78.972932,43.089041],[-78.972694,43.089089]]},"properties":{"name":"Niagara Falls Blvd","road_class":"Arterial"}},{"type":"Feature","geometry":{"type":"LineString","coordinates":[[-79.029651,43.107192],[-79.029669,43.107232],[-79.029813,43.107548],[-79.029862,43.107654]]},"properties":{"name":"Hyde Park Blvd","road_class":"Arterial"}},{"type":"Feature","geometry":{"type":"LineString","coordinates":[[-78.990971,43.084107],[-78.990975,43.084963]]},"properties":{"name":"I- 190","road_class":"Highway"}},{"type":"Feature","geometry":{"type":"LineString","coordinates":[[-78.990948,43.080358],[-78.990949,43.080552]]},"properties":{"name":"I- 190","road_class":"Highway"}},{"type":"Feature","geometry":{"type":"LineString","coordinates":[[-79.000858,43.117947],[-79.000969,43.118048],[-79.001045,43.118114]]},"properties":{"name":"I- 190","road_class":"Highway"}},{"type":"Feature","geometry":{"type":"LineString","coordinates":[[-78.999129,43.115976],[-78.999181,43.116055],[-78.999321,43.116247],[-78.999386,43.116335],[-78.999457,43.11643],[-79.000003,43.1171],[-79.000217,43.117324],[-79.00024,43.117347],[-79.000456,43.117569]]},"properties":{"name":"I- 190","road_class":"Highway"}},{"type":"Feature","geometry":{"type":"LineString","coordinates":[[-78.990577,43.073688],[-78.990587,43.073868],[-78.990597,43.074049]]},"properties":{"name":"I- 190","road_class":"Highway"}},{"type":"Feature","geometry":{"type":"LineString","coordinates":[[-79.031841,43.111963],[-79.031959,43.11223],[-79.032049,43.112447],[-79.032073,43.112501]]},"properties":{"name":"Hyde Park Blvd","road_class":"Arterial"}},{"type":"Feature","geometry":{"type":"LineString","coordinates":[[-79.031383,43.151543],[-79.031096,43.151476]]},"properties":{"name":"I- 190","road_class":"Highway"}},{"type":"Feature","geometry":{"type":"LineString","coordinates":[[-79.041618,43.135551],[-79.041498,43.135221],[-79.041032,43.134075]]},"properties":{"name":"Hyde Park Blvd","road_class":"Arterial"}},{"type":"Feature","geometry":{"type":"LineString","coordinates":[[-79.041987,43.152692],[-79.04381,43.152841]]},"properties":{"name":"I- 190","road_class":"Highway"}},{"type":"Feature","geometry":{"type":"LineString","coordinates":[[-79.022234,43.143937],[-79.022256,43.144429],[-79.022269,43.144707],[-79.022371,43.145198],[-79.022457,43.145457],[-79.022506,43.145608],[-79.022668,43.145996],[-79.022786,43.146166],[-79.023038,43.146547],[-79.023275,43.146846],[-79.023697,43.147288],[-79.02422,43.147767],[-79.024696,43.148181],[-79.025365,43.14865],[-79.025742,43.148894],[-79.026123,43.149137],[-79.026653,43.149474],[-79.027592,43.150006]]},"properties":{"name":"I- 190","road_class":"Highway"}},{"type":"Feature","geometry":{"type":"LineString","coordinates":[[-79.03128,43.151289],[-79.030896,43.15119],[-79.030539,43.151069],[-79.028915,43.150434]]},"properties":{"name":"I- 190","road_class":"Highway"}},{"type":"Feature","geometry":{"type":"LineString","coordinates":[[-78.997851,43.114037],[-78.99792,43.114144],[-78.998129,43.114468],[-78.998199,43.114576],[-78.998341,43.114796],[-78.998382,43.114857],[-78.998942,43.115696],[-78.999129,43.115976]]},"properties":{"name":"I- 190","road_class":"Highway"}},{"type":"Feature","geometry":{"type":"LineString","coordinates":[[-79.002928,43.119495],[-79.003246,43.119695],[-79.003476,43.119827],[-79.004254,43.120235],[-79.004462,43.120327],[-79.004964,43.12055],[-79.005691,43.120843],[-79.006526,43.121138],[-79.006795,43.121222],[-79.007599,43.121449],[-79.009395,43.121967]]},"properties":{"name":"I- 190","road_class":"Highway"}},{"type":"Feature","geometry":{"type":"LineString","coordinates":[[-78.845135,43.06573],[-78.845278,43.066019],[-78.845408,43.066281],[-78.845489,43.066435],[-78.845711,43.066755],[-78.845788,43.066836],[-78.84601,43.067071]]},"properties":{"name":"Niagara Falls Blvd","road_class":"Arterial"}},{"type":"Feature","geometry":{"type":"LineString","coordinates":[[-78.832515,43.057116],[-78.832892,43.057269],[-78.834025,43.057729],[-78.834403,43.057883]]},"properties":{"name":"Niagara Falls Blvd","road_class":"Arterial"}},{"type":"Feature","geometry":{"type":"LineString","coordinates":[[-78.84601,43.067071],[-78.84621,43.067248],[-78.846281,43.0673],[-78.846405,43.067393],[-78.847176,43.067881],[-78.847306,43.067964],[-78.847482,43.068064]]},"properties":{"name":"Niagara Falls Blvd","road_class":"Arterial"}},{"type":"Feature","geometry":{"type":"LineString","coordinates":[[-78.843317,43.06341],[-78.843512,43.063607],[-78.843905,43.064006],[-78.844091,43.064205],[-78.844281,43.064409]]},"properties":{"name":"Niagara Falls Blvd","road_class":"Arterial"}},{"type":"Feature","geometry":{"type":"LineString","coordinates":[[-78.826809,43.051965],[-78.826755,43.05165]]},"properties":{"name":"Niagara Falls Blvd","road_class":"Arterial"}},{"type":"Feature","geometry":{"type":"LineString","coordinates":[[-78.828939,43.055368],[-78.828656,43.055156],[-78.828508,43.05504],[-78.82826,43.054846],[-78.828006,43.054592],[-78.82783,43.054384]]},"properties":{"name":"Niagara Falls Blvd","road_class":"Arterial"}},{"type":"Feature","geometry":{"type":"LineString","coordinates":[[-79.036622,43.123498],[-79.036978,43.124354]]},"properties":{"name":"Hyde Park Blvd","road_class":"Arterial"}},{"type":"Feature","geometry":{"type":"LineString","coordinates":[[-79.033541,43.115935],[-79.033826,43.116713]]},"properties":{"name":"Hyde Park Blvd","road_class":"Arterial"}},{"type":"Feature","geometry":{"type":"LineString","coordinates":[[-79.032659,43.113833],[-79.033025,43.11468]]},"properties":{"name":"Hyde Park Blvd","road_class":"Arterial"}},{"type":"Feature","geometry":{"type":"LineString","coordinates":[[-79.027148,43.101694],[-79.027228,43.101871],[-79.027318,43.102067]]},"properties":{"name":"Hyde Park Blvd","road_class":"Arterial"}},{"type":"Feature","geometry":{"type":"LineString","coordinates":[[-79.025513,43.098023],[-79.025934,43.098939]]},"properties":{"name":"Hyde Park Blvd","road_class":"Arterial"}},{"type":"Feature","geometry":{"type":"LineString","coordinates":[[-79.019359,43.08416],[-79.019783,43.085133]]},"properties":{"name":"Hyde Park Blvd","road_class":"Arterial"}},{"type":"Feature","geometry":{"type":"LineString","coordinates":[[-79.003525,43.09184],[-79.00281,43.091637],[-79.002212,43.091459]]},"properties":{"name":"Niagara Falls Blvd","road_class":"Arterial"}},{"type":"Feature","geometry":{"type":"LineString","coordinates":[[-78.999867,43.090776],[-78.999303,43.090634],[-78.999274,43.090627],[-78.999087,43.090589],[-78.998869,43.090556],[-78.998406,43.090495]]},"properties":{"name":"Niagara Falls Blvd","road_class":"Arterial"}},{"type":"Feature","geometry":{"type":"LineString","coordinates":[[-78.997,43.090353],[-78.996772,43.090329],[-78.996088,43.09026],[-78.995861,43.090238]]},"properties":{"name":"Niagara Falls Blvd","road_class":"Arterial"}},{"type":"Feature","geometry":{"type":"LineString","coordinates":[[-78.994824,43.090131],[-78.994157,43.090059],[-78.993709,43.090012],[-78.992549,43.089873]]},"properties":{"name":"Niagara Falls Blvd","road_class":"Arterial"}},{"type":"Feature","geometry":{"type":"LineString","coordinates":[[-78.990668,43.085753],[-78.990669,43.085878],[-78.990671,43.086017],[-78.990673,43.086253],[-78.990675,43.086379],[-78.990675,43.086404],[-78.990675,43.086479],[-78.990676,43.086505]]},"properties":{"name":"I- 190","road_class":"Highway"}},{"type":"Feature","geometry":{"type":"LineString","coordinates":[[-78.990662,43.084196],[-78.990662,43.084212],[-78.990662,43.084262],[-78.990662,43.084279],[-78.990662,43.084296],[-78.990662,43.084347],[-78.990662,43.084365],[-78.990662,43.084393],[-78.990662,43.08448],[-78.990663,43.084509],[-78.990663,43.084757],[-78.990665,43.085479],[-78.990665,43.085504],[-78.990668,43.085753]]},"properties":{"name":"I- 190","road_class":"Highway"}},{"type":"Feature","geometry":{"type":"LineString","coordinates":[[-78.990616,43.074322],[-78.990617,43.074576],[-78.990617,43.075045]]},"properties":{"name":"I- 190","road_class":"Highway"}},{"type":"Feature","geometry":{"type":"LineString","coordinates":[[-78.97057,43.089527],[-78.970009,43.089654],[-78.969742,43.089716],[-78.969479,43.089781],[-78.968356,43.090144],[-78.967809,43.090322]]},"properties":{"name":"Niagara Falls Blvd","road_class":"Arterial"}},{"type":"Feature","geometry":{"type":"LineString","coordinates":[[-78.981762,43.088121],[-78.981554,43.088087],[-78.98093,43.087987],[-78.980723,43.087954]]},"properties":{"name":"Niagara Falls Blvd","road_class":"Arterial"}},{"type":"Feature","geometry":{"type":"LineString","coordinates":[[-79.027318,43.102067],[-79.027471,43.102403],[-79.027553,43.102581]]},"properties":{"name":"Hyde Park Blvd","road_class":"Arterial"}},{"type":"Feature","geometry":{"type":"LineString","coordinates":[[-79.028705,43.105068],[-79.02872,43.105104],[-79.028768,43.105215],[-79.028785,43.105252]]},"properties":{"name":"Hyde Park Blvd","road_class":"Arterial"}},{"type":"Feature","geometry":{"type":"LineString","coordinates":[[-79.010708,43.093901],[-79.010617,43.093881],[-79.01009,43.093763],[-79.009271,43.093559],[-79.009009,43.093485],[-79.008922,43.093403]]},"properties":{"name":"Niagara Falls Blvd","road_class":"Arterial"}},{"type":"Feature","geometry":{"type":"LineString","coordinates":[[-79.025114,43.097113],[-79.025164,43.097227],[-79.025425,43.097824],[-79.025513,43.098023]]},"properties":{"name":"Hyde Park Blvd","road_class":"Arterial"}},{"type":"Feature","geometry":{"type":"LineString","coordinates":[[-79.001045,43.118114],[-79.001133,43.118189],[-79.001425,43.118438],[-79.00203,43.118898],[-79.00246,43.119194],[-79.002525,43.119239],[-79.002677,43.119341],[-79.002928,43.119495]]},"properties":{"name":"I- 190","road_class":"Highway"}},{"type":"Feature","geometry":{"type":"LineString","coordinates":[[-79.001422,43.118098],[-79.00185,43.118443],[-79.002331,43.118806],[-79.00285,43.11916],[-79.003033,43.119268],[-79.003301,43.119432]]},"properties":{"name":"I- 190","road_class":"Highway"}},{"type":"Feature","geometry":{"type":"LineString","coordinates":[[-79.019796,43.085133],[-79.020007,43.085606],[-79.020167,43.085928]]},"properties":{"name":"Hyde Park Blvd","road_class":"Arterial"}},{"type":"Feature","geometry":{"type":"LineString","coordinates":[[-78.99063,43.080339],[-78.990631,43.08036],[-78.990633,43.080527],[-78.990634,43.080628]]},"properties":{"name":"I- 190","road_class":"Highway"}},{"type":"Feature","geometry":{"type":"LineString","coordinates":[[-78.990949,43.080707],[-78.99095,43.080749],[-78.99095,43.080806]]},"properties":{"name":"I- 190","road_class":"Highway"}},{"type":"Feature","geometry":{"type":"LineString","coordinates":[[-79.042024,43.152777],[-79.04384,43.152969]]},"properties":{"name":"I- 190","road_class":"Highway"}},{"type":"Feature","geometry":{"type":"LineString","coordinates":[[-79.022409,43.143927],[-79.022441,43.144437],[-79.022538,43.144934],[-79.022712,43.145482],[-79.022948,43.145964],[-79.023105,43.146234],[-79.023218,43.146417],[-79.023423,43.146687],[-79.023693,43.146978],[-79.024078,43.147396],[-79.024345,43.147644],[-79.024725,43.14795],[-79.025458,43.14847],[-79.02604,43.148857],[-79.026513,43.149119],[-79.027371,43.149642],[-79.028915,43.150434]]},"properties":{"name":"I- 190","road_class":"Highway"}},{"type":"Feature","geometry":{"type":"LineString","coordinates":[[-79.022402,43.141603],[-79.022409,43.143927]]},"properties":{"name":"I- 190","road_class":"Highway"}},{"type":"Feature","geometry":{"type":"LineString","coordinates":[[-79.032764,43.15182],[-79.034162,43.152149]]},"properties":{"name":"I- 190","road_class":"Highway"}},{"type":"Feature","geometry":{"type":"LineString","coordinates":[[-79.03365,43.151706],[-79.034019,43.15173],[-79.034793,43.151714],[-79.035694,43.151746],[-79.036794,43.151908],[-79.037706,43.152097],[-79.038153,43.152167],[-79.03833,43.152192]]},"properties":{"name":"I- 190","road_class":"Highway"}},{"type":"Feature","geometry":{"type":"LineString","coordinates":[[-78.991747,43.108014],[-78.992154,43.108199],[-78.992284,43.108257],[-78.992404,43.108318],[-78.992833,43.108538],[-78.993161,43.108725],[-78.993652,43.109032],[-78.993775,43.109112],[-78.994249,43.10946],[-78.994334,43.109523],[-78.994806,43.109924]]},"properties":{"name":"I- 190","road_class":"Highway"}},{"type":"Feature","geometry":{"type":"LineString","coordinates":[[-78.988038,43.092663],[-78.987901,43.092807],[-78.985588,43.095236],[-78.983271,43.097671],[-78.982926,43.098049],[-78.982608,43.098463]]},"properties":{"name":"I- 190","road_class":"Highway"}},{"type":"Feature","geometry":{"type":"LineString","coordinates":[[-79.003301,43.119432],[-79.003547,43.119574],[-79.003826,43.119732],[-79.004386,43.120023],[-79.005091,43.120347],[-79.005809,43.120635],[-79.006434,43.120855],[-79.006982,43.121035],[-79.009533,43.121758]]},"properties":{"name":"I- 190","road_class":"Highway"}},{"type":"Feature","geometry":{"type":"LineString","coordinates":[[-78.998043,43.113803],[-78.99849,43.114499],[-78.998527,43.114556],[-78.999181,43.115541]]},"properties":{"name":"I- 190","road_class":"Highway"}},{"type":"Feature","geometry":{"type":"LineString","coordinates":[[-78.989128,43.107063],[-78.989181,43.107082],[-78.989253,43.107106],[-78.989538,43.107207],[-78.989654,43.107247],[-78.990281,43.107464],[-78.991232,43.107799],[-78.991312,43.107828],[-78.991578,43.107941],[-78.991664,43.107978],[-78.991747,43.108014]]},"properties":{"name":"I- 190","road_class":"Highway"}},{"type":"Feature","geometry":{"type":"LineString","coordinates":[[-78.989445,43.106893],[-78.989973,43.107105],[-78.991539,43.107671],[-78.99207,43.10789],[-78.99223,43.107961]]},"properties":{"name":"I- 190","road_class":"Highway"}},{"type":"Feature","geometry":{"type":"LineString","coordinates":[[-78.992994,43.10834],[-78.993584,43.108685],[-78.993835,43.108849],[-78.994087,43.109016],[-78.994398,43.109245],[-78.994812,43.109577],[-78.995042,43.109788],[-78.995079,43.10981]]},"properties":{"name":"I- 190","road_class":"Highway"}},{"type":"Feature","geometry":{"type":"LineString","coordinates":[[-78.982067,43.101339],[-78.982141,43.101822],[-78.982275,43.102284],[-78.982391,43.102585],[-78.982506,43.102837],[-78.982689,43.103165],[-78.982803,43.103344],[-78.983109,43.103745],[-78.983468,43.104134],[-78.983627,43.10429],[-78.983994,43.104599],[-78.984413,43.1049],[-78.984909,43.105167],[-78.985242,43.105343],[-78.985704,43.105551],[-78.986191,43.105744],[-78.986539,43.105883]]},"properties":{"name":"I- 190","road_class":"Highway"}},{"type":"Feature","geometry":{"type":"LineString","coordinates":[[-78.940883,43.099402],[-78.940139,43.099443],[-78.938491,43.09954],[-78.938144,43.099553],[-78.937476,43.09958],[-78.936807,43.099587],[-78.93278,43.099546],[-78.931453,43.099528],[-78.930343,43.099481],[-78.929918,43.09945],[-78.929447,43.099416],[-78.928996,43.099372],[-78.927926,43.099249],[-78.927432,43.099171],[-78.927195,43.099137]]},"properties":{"name":"Niagara Falls Blvd","road_class":"Arterial"}},{"type":"Feature","geometry":{"type":"LineString","coordinates":[[-78.876033,43.082298],[-78.875491,43.081945],[-78.874915,43.081598],[-78.874587,43.081427],[-78.874571,43.081419],[-78.872494,43.080412],[-78.871057,43.079746],[-78.869995,43.07929],[-78.869122,43.078916],[-78.869025,43.078876],[-78.868995,43.078863]]},"properties":{"name":"Niagara Falls Blvd","road_class":"Arterial"}},{"type":"Feature","geometry":{"type":"LineString","coordinates":[[-78.912261,43.094768],[-78.910492,43.094091]]},"properties":{"name":"Niagara Falls Blvd","road_class":"Arterial"}},{"type":"Feature","geometry":{"type":"LineString","coordinates":[[-79.03223,43.112867],[-79.032259,43.112922],[-79.032287,43.112975],[-79.032316,43.11303]]},"properties":{"name":"Hyde Park Blvd","road_class":"Arterial"}},{"type":"Feature","geometry":{"type":"LineString","coordinates":[[-79.03064,43.109399],[-79.030719,43.10956],[-79.030956,43.110043],[-79.031035,43.110205]]},"properties":{"name":"Hyde Park Blvd","road_class":"Arterial"}},{"type":"Feature","geometry":{"type":"LineString","coordinates":[[-79.00055,43.117663],[-79.000583,43.117694],[-79.000684,43.117788],[-79.000718,43.11782]]},"properties":{"name":"I- 190","road_class":"Highway"}},{"type":"Feature","geometry":{"type":"LineString","coordinates":[[-79.027553,43.102581],[-79.02763,43.102734],[-79.027752,43.102975]]},"properties":{"name":"Hyde Park Blvd","road_class":"Arterial"}},{"type":"Feature","geometry":{"type":"LineString","coordinates":[[-79.023432,43.093552],[-79.024222,43.095096],[-79.024248,43.095145]]},"properties":{"name":"Hyde Park Blvd","road_class":"Arterial"}},{"type":"Feature","geometry":{"type":"LineString","coordinates":[[-79.020514,43.086634],[-79.020541,43.086692],[-79.020622,43.086866],[-79.020649,43.086925]]},"properties":{"name":"Hyde Park Blvd","road_class":"Arterial"}},{"type":"Feature","geometry":{"type":"LineString","coordinates":[[-79.019796,43.085133],[-79.019783,43.085133]]},"properties":{"name":"Hyde Park Blvd","road_class":"Arterial"}},{"type":"Feature","geometry":{"type":"LineString","coordinates":[[-78.992549,43.089873],[-78.992161,43.089828],[-78.991496,43.089752]]},"properties":{"name":"Niagara Falls Blvd","road_class":"Arterial"}},{"type":"Feature","geometry":{"type":"LineString","coordinates":[[-78.990676,43.086505],[-78.990672,43.08746],[-78.990651,43.087874],[-78.990626,43.088143],[-78.990592,43.088371],[-78.990538,43.088657],[-78.990445,43.089006],[-78.990243,43.089623]]},"properties":{"name":"I- 190","road_class":"Highway"}},{"type":"Feature","geometry":{"type":"LineString","coordinates":[[-78.986249,43.088979],[-78.985882,43.088909],[-78.984784,43.0887],[-78.984418,43.088631]]},"properties":{"name":"Niagara Falls Blvd","road_class":"Arterial"}},{"type":"Feature","geometry":{"type":"LineString","coordinates":[[-78.9652,43.091143],[-78.965028,43.091187],[-78.964729,43.091266],[-78.964513,43.091325],[-78.964342,43.091372]]},"properties":{"name":"Niagara Falls Blvd","road_class":"Arterial"}},{"type":"Feature","geometry":{"type":"LineString","coordinates":[[-78.971558,43.089324],[-78.97136,43.089364],[-78.970767,43.089486],[-78.97057,43.089527]]},"properties":{"name":"Niagara Falls Blvd","road_class":"Arterial"}},{"type":"Feature","geometry":{"type":"LineString","coordinates":[[-78.980723,43.087954],[-78.980517,43.087934],[-78.980025,43.087887],[-78.979902,43.087884],[-78.979761,43.087881],[-78.979696,43.087882],[-78.979652,43.087882],[-78.97952,43.087884],[-78.979477,43.087885]]},"properties":{"name":"Niagara Falls Blvd","road_class":"Arterial"}},{"type":"Feature","geometry":{"type":"LineString","coordinates":[[-79.024671,43.096121],[-79.024687,43.096157],[-79.024703,43.096192]]},"properties":{"name":"Hyde Park Blvd","road_class":"Arterial"}},{"type":"Feature","geometry":{"type":"LineString","coordinates":[[-79.025077,43.097029],[-79.025095,43.097071],[-79.025114,43.097113]]},"properties":{"name":"Hyde Park Blvd","road_class":"Arterial"}},{"type":"Feature","geometry":{"type":"LineString","coordinates":[[-78.990935,43.076934],[-78.990938,43.079624],[-78.990944,43.079715]]},"properties":{"name":"I- 190","road_class":"Highway"}},{"type":"Feature","geometry":{"type":"LineString","coordinates":[[-78.990989,43.087146],[-78.990977,43.087681],[-78.990945,43.088074],[-78.990921,43.088277],[-78.990883,43.088576],[-78.990846,43.088803],[-78.990795,43.088962],[-78.990551,43.089658]]},"properties":{"name":"I- 190","road_class":"Highway"}},{"type":"Feature","geometry":{"type":"LineString","coordinates":[[-78.990983,43.085743],[-78.990988,43.086012],[-78.990989,43.087079],[-78.990989,43.087146]]},"properties":{"name":"I- 190","road_class":"Highway"}}]}