{"type":"FeatureCollection","features":[{"type":"Feature","geometry":{"type":"Point","coordinates":[-79.014365,43.089088]},"properties":{"zone_id":"Rad Zone 1","site":"Former Mill No. 2 (Greenpac Mill)","program_number":"C932150","medium":"Soil / fill (radioactive slag)","coord_precision":"georeferenced_figure3_approx (~12 m RMS)","hazard":"Radioactive slag: uranium, thorium, radium","gamma_cpm":">10,000 cpm (background 6,000–8,000)","desc":"Radioactive slag / slag-like material in historic fill. Gamma survey (Ludlum 2221) measured >10,000 cpm here vs 6,000–8,000 cpm site background; gamma/alpha spectroscopy identified uranium, thorium and radium as the contributing radionuclides. Delineated in the 2012 Revised RI (Figure 3) as a soil-excavation target — a soil/slag hot zone, not a groundwater plume.","source":"NYSDEC BCP C932150 Revised RI Report (ERM, 2012), Figure 3 & §3.2.7","source_url":"https://extapps.dec.ny.gov/data/DecDocs/C932150/"}},{"type":"Feature","geometry":{"type":"Point","coordinates":[-79.013647,43.088803]},"properties":{"zone_id":"Rad Zone 2","site":"Former Mill No. 2 (Greenpac Mill)","program_number":"C932150","medium":"Soil / fill (radioactive slag)","coord_precision":"georeferenced_figure3_approx (~12 m RMS)","hazard":"Radioactive slag: uranium, thorium, radium","gamma_cpm":">10,000 cpm (background 6,000–8,000)","desc":"Radioactive slag / slag-like material in historic fill. Gamma survey (Ludlum 2221) measured >10,000 cpm here vs 6,000–8,000 cpm site background; gamma/alpha spectroscopy identified uranium, thorium and radium as the contributing radionuclides. Delineated in the 2012 Revised RI (Figure 3) as a soil-excavation target — a soil/slag hot zone, not a groundwater plume.","source":"NYSDEC BCP C932150 Revised RI Report (ERM, 2012), Figure 3 & §3.2.7","source_url":"https://extapps.dec.ny.gov/data/DecDocs/C932150/"}},{"type":"Feature","geometry":{"type":"Point","coordinates":[-79.013172,43.089091]},"properties":{"zone_id":"Rad Zone 3","site":"Former Mill No. 2 (Greenpac Mill)","program_number":"C932150","medium":"Soil / fill (radioactive slag)","coord_precision":"georeferenced_figure3_approx (~12 m RMS)","hazard":"Radioactive slag: uranium, thorium, radium","gamma_cpm":">10,000 cpm (background 6,000–8,000)","desc":"Radioactive slag / slag-like material in historic fill. Gamma survey (Ludlum 2221) measured >10,000 cpm here vs 6,000–8,000 cpm site background; gamma/alpha spectroscopy identified uranium, thorium and radium as the contributing radionuclides. Delineated in the 2012 Revised RI (Figure 3) as a soil-excavation target — a soil/slag hot zone, not a groundwater plume.","source":"NYSDEC BCP C932150 Revised RI Report (ERM, 2012), Figure 3 & §3.2.7","source_url":"https://extapps.dec.ny.gov/data/DecDocs/C932150/"}},{"type":"Feature","geometry":{"type":"Point","coordinates":[-79.013899,43.087385]},"properties":{"zone_id":"Rad Zone 4","site":"Former Mill No. 2 (Greenpac Mill)","program_number":"C932150","medium":"Soil / fill (radioactive slag)","coord_precision":"georeferenced_figure3_approx (~12 m RMS)","hazard":"Radioactive slag: uranium, thorium, radium","gamma_cpm":">10,000 cpm (background 6,000–8,000)","desc":"Radioactive slag / slag-like material in historic fill. Gamma survey (Ludlum 2221) measured >10,000 cpm here vs 6,000–8,000 cpm site background; gamma/alpha spectroscopy identified uranium, thorium and radium as the contributing radionuclides. Delineated in the 2012 Revised RI (Figure 3) as a soil-excavation target — a soil/slag hot zone, not a groundwater plume.","source":"NYSDEC BCP C932150 Revised RI Report (ERM, 2012), Figure 3 & §3.2.7","source_url":"https://extapps.dec.ny.gov/data/DecDocs/C932150/"}},{"type":"Feature","geometry":{"type":"Point","coordinates":[-79.012595,43.087408]},"properties":{"zone_id":"Rad Zone 5","site":"Former Mill No. 2 (Greenpac Mill)","program_number":"C932150","medium":"Soil / fill (radioactive slag)","coord_precision":"georeferenced_figure3_approx (~12 m RMS)","hazard":"Radioactive slag: uranium, thorium, radium","gamma_cpm":">10,000 cpm (background 6,000–8,000)","desc":"Radioactive slag / slag-like material in historic fill. Gamma survey (Ludlum 2221) measured >10,000 cpm here vs 6,000–8,000 cpm site background; gamma/alpha spectroscopy identified uranium, thorium and radium as the contributing radionuclides. Delineated in the 2012 Revised RI (Figure 3) as a soil-excavation target — a soil/slag hot zone, not a groundwater plume.","source":"NYSDEC BCP C932150 Revised RI Report (ERM, 2012), Figure 3 & §3.2.7","source_url":"https://extapps.dec.ny.gov/data/DecDocs/C932150/"}},{"type":"Feature","geometry":{"type":"Point","coordinates":[-79.01203,43.088927]},"properties":{"zone_id":"Rad Zone 6","site":"Former Mill No. 2 (Greenpac Mill)","program_number":"C932150","medium":"Soil / fill (radioactive slag)","coord_precision":"georeferenced_figure3_approx (~12 m RMS)","hazard":"Radioactive slag: uranium, thorium, radium","gamma_cpm":">10,000 cpm (background 6,000–8,000)","desc":"Radioactive slag / slag-like material in historic fill. Gamma survey (Ludlum 2221) measured >10,000 cpm here vs 6,000–8,000 cpm site background; gamma/alpha spectroscopy identified uranium, thorium and radium as the contributing radionuclides. Delineated in the 2012 Revised RI (Figure 3) as a soil-excavation target — a soil/slag hot zone, not a groundwater plume.","source":"NYSDEC BCP C932150 Revised RI Report (ERM, 2012), Figure 3 & §3.2.7","source_url":"https://extapps.dec.ny.gov/data/DecDocs/C932150/"}},{"type":"Feature","geometry":{"type":"Point","coordinates":[-79.010576,43.088446]},"properties":{"zone_id":"Rad Zone 7","site":"Former Mill No. 2 (Greenpac Mill)","program_number":"C932150","medium":"Soil / fill (radioactive slag)","coord_precision":"georeferenced_figure3_approx (~12 m RMS)","hazard":"Radioactive slag: uranium, thorium, radium","gamma_cpm":">10,000 cpm (background 6,000–8,000)","desc":"Radioactive slag / slag-like material in historic fill. Gamma survey (Ludlum 2221) measured >10,000 cpm here vs 6,000–8,000 cpm site background; gamma/alpha spectroscopy identified uranium, thorium and radium as the contributing radionuclides. Delineated in the 2012 Revised RI (Figure 3) as a soil-excavation target — a soil/slag hot zone, not a groundwater plume.","source":"NYSDEC BCP C932150 Revised RI Report (ERM, 2012), Figure 3 & §3.2.7","source_url":"https://extapps.dec.ny.gov/data/DecDocs/C932150/"}}]}