{"type":"FeatureCollection","features":[{"type":"Feature","geometry":{"type":"Point","coordinates":[-79.03666,43.131294]},"properties":{"well_id":"ABP-7-09","site":"Hooker (Hyde Park) Landfill","well_role":"bedrock piezometer","data_type":"legacy","n_found":1,"chemicals_found":"Chlorendic acid","latest_year":2018,"latest_detect":2018,"coord_precision":"site_centroid_approx","program_number":"932021","well_desc":"","source":"2018 Annual Periodic Review Report, Hyde Park Landfill","source_url":"https://extapps.dec.ny.gov/data/DecDocs/932021/Report.HW.932021.2019-04-30.2018%20Periodic%20Review%20with%20ICEC.pdf","chems":["Chlorendic acid"],"src":"LEGACY","chems_years":{"Chlorendic acid":[2018]},"conc_series":{"Chlorobenzoic acids":{"2018":[30.0,"nondetect"]},"Benzoic acid":{"2018":[100.0,"nondetect"]},"Chlorendic acid":{"2018":[75.0,"detect"]}}}},{"type":"Feature","geometry":{"type":"Point","coordinates":[-79.036365,43.130875]},"properties":{"well_id":"AGW-1M-07","site":"Hooker (Hyde Park) Landfill","well_role":"bedrock piezometer","data_type":"legacy","n_found":1,"chemicals_found":"Chlorendic acid","latest_year":2018,"latest_detect":2018,"coord_precision":"site_centroid_approx","program_number":"932021","well_desc":"","source":"2018 Annual Periodic Review Report, Hyde Park Landfill","source_url":"https://extapps.dec.ny.gov/data/DecDocs/932021/Report.HW.932021.2019-04-30.2018%20Periodic%20Review%20with%20ICEC.pdf","chems":["Chlorendic acid"],"src":"LEGACY","chems_years":{"Chlorendic acid":[2018]},"conc_series":{"Chlorobenzoic acids":{"2018":[30.0,"nondetect"]},"Benzoic acid":{"2018":[100.0,"nondetect"]},"Chlorendic acid":{"2018":[40.0,"detect"]}}}},{"type":"Feature","geometry":{"type":"Point","coordinates":[-79.037221,43.131146]},"properties":{"well_id":"AGW-1M-09","site":"Hooker (Hyde Park) Landfill","well_role":"bedrock piezometer","data_type":"legacy","n_found":1,"chemicals_found":"Chlorendic acid","latest_year":2018,"latest_detect":2018,"coord_precision":"site_centroid_approx","program_number":"932021","well_desc":"","source":"2018 Annual Periodic Review Report, Hyde Park Landfill","source_url":"https://extapps.dec.ny.gov/data/DecDocs/932021/Report.HW.932021.2019-04-30.2018%20Periodic%20Review%20with%20ICEC.pdf","chems":["Chlorendic acid"],"src":"LEGACY","chems_years":{"Chlorendic acid":[2018]},"conc_series":{"Chlorobenzoic acids":{"2018":[30.0,"nondetect"]},"Benzoic acid":{"2018":[100.0,"nondetect"]},"Chlorendic acid":{"2018":[160.0,"detect"]}}}},{"type":"Feature","geometry":{"type":"Point","coordinates":[-79.036131,43.131406]},"properties":{"well_id":"AGW-1U-06","site":"Hooker (Hyde Park) Landfill","well_role":"bedrock piezometer","data_type":"legacy","n_found":1,"chemicals_found":"Chlorendic acid","latest_year":2018,"latest_detect":2018,"coord_precision":"site_centroid_approx","program_number":"932021","well_desc":"","source":"2018 Annual Periodic Review Report, Hyde Park Landfill","source_url":"https://extapps.dec.ny.gov/data/DecDocs/932021/Report.HW.932021.2019-04-30.2018%20Periodic%20Review%20with%20ICEC.pdf","chems":["Chlorendic acid"],"src":"LEGACY","chems_years":{"Chlorendic acid":[2018]},"conc_series":{"Chlorobenzoic acids":{"2018":[30.0,"nondetect"]},"Benzoic acid":{"2018":[100.0,"nondetect"]},"Chlorendic acid":{"2018":[150.0,"detect"]}}}},{"type":"Feature","geometry":{"type":"Point","coordinates":[-79.036792,43.130567]},"properties":{"well_id":"B2L-11","site":"Hooker (Hyde Park) Landfill","well_role":"bedrock piezometer","data_type":"legacy","n_found":2,"chemicals_found":"2-Chlorobenzoic acid; Chlorendic acid","latest_year":2018,"latest_detect":2018,"coord_precision":"site_centroid_approx","program_number":"932021","well_desc":"","source":"2018 Annual Periodic Review Report, Hyde Park Landfill","source_url":"https://extapps.dec.ny.gov/data/DecDocs/932021/Report.HW.932021.2019-04-30.2018%20Periodic%20Review%20with%20ICEC.pdf","chems":["Chlorobenzoic acids","Chlorendic acid"],"src":"LEGACY","chems_years":{"Chlorobenzoic acids":[2018],"Chlorendic acid":[2018]},"conc_series":{"Chlorobenzoic acids":{"2018":[13.0,"detect"]},"Benzoic acid":{"2018":[100.0,"nondetect"]},"Chlorendic acid":{"2018":[160.0,"detect"]}}}},{"type":"Feature","geometry":{"type":"Point","coordinates":[-79.037108,43.131624]},"properties":{"well_id":"C3-07","site":"Hooker (Hyde Park) Landfill","well_role":"bedrock piezometer","data_type":"legacy","n_found":1,"chemicals_found":"Chlorendic acid","latest_year":2018,"latest_detect":2018,"coord_precision":"site_centroid_approx","program_number":"932021","well_desc":"","source":"2018 Annual Periodic Review Report, Hyde Park Landfill","source_url":"https://extapps.dec.ny.gov/data/DecDocs/932021/Report.HW.932021.2019-04-30.2018%20Periodic%20Review%20with%20ICEC.pdf","chems":["Chlorendic acid"],"src":"LEGACY","chems_years":{"Chlorendic acid":[2018]},"conc_series":{"Chlorobenzoic acids":{"2018":[30.0,"nondetect"]},"Benzoic acid":{"2018":[100.0,"nondetect"]},"Chlorendic acid":{"2018":[10.0,"detect"]}}}},{"type":"Feature","geometry":{"type":"Point","coordinates":[-79.035783,43.130938]},"properties":{"well_id":"C3-09","site":"Hooker (Hyde Park) Landfill","well_role":"bedrock piezometer","data_type":"legacy","n_found":1,"chemicals_found":"Chlorendic acid","latest_year":2018,"latest_detect":2018,"coord_precision":"site_centroid_approx","program_number":"932021","well_desc":"","source":"2018 Annual Periodic Review Report, Hyde Park Landfill","source_url":"https://extapps.dec.ny.gov/data/DecDocs/932021/Report.HW.932021.2019-04-30.2018%20Periodic%20Review%20with%20ICEC.pdf","chems":["Chlorendic acid"],"src":"LEGACY","chems_years":{"Chlorendic acid":[2018]},"conc_series":{"Chlorobenzoic acids":{"2018":[30.0,"nondetect"]},"Benzoic acid":{"2018":[100.0,"nondetect"]},"Chlorendic acid":{"2018":[21.0,"detect"]}}}},{"type":"Feature","geometry":{"type":"Point","coordinates":[-79.037526,43.130782]},"properties":{"well_id":"D1M-09","site":"Hooker (Hyde Park) Landfill","well_role":"bedrock piezometer","data_type":"legacy","n_found":2,"chemicals_found":"2-Chlorobenzoic acid; Chlorendic acid","latest_year":2018,"latest_detect":2018,"coord_precision":"site_centroid_approx","program_number":"932021","well_desc":"","source":"2018 Annual Periodic Review Report, Hyde Park Landfill","source_url":"https://extapps.dec.ny.gov/data/DecDocs/932021/Report.HW.932021.2019-04-30.2018%20Periodic%20Review%20with%20ICEC.pdf","chems":["Chlorobenzoic acids","Chlorendic acid"],"src":"LEGACY","chems_years":{"Chlorobenzoic acids":[2018],"Chlorendic acid":[2018]},"conc_series":{"Chlorobenzoic acids":{"2018":[3.4,"detect"]},"Benzoic acid":{"2018":[100.0,"nondetect"]},"Chlorendic acid":{"2018":[200.0,"detect"]}}}},{"type":"Feature","geometry":{"type":"Point","coordinates":[-79.036304,43.131822]},"properties":{"well_id":"D1U-04","site":"Hooker (Hyde Park) Landfill","well_role":"bedrock piezometer","data_type":"legacy","n_found":1,"chemicals_found":"Chlorendic acid","latest_year":2018,"latest_detect":2018,"coord_precision":"site_centroid_approx","program_number":"932021","well_desc":"","source":"2018 Annual Periodic Review Report, Hyde Park Landfill","source_url":"https://extapps.dec.ny.gov/data/DecDocs/932021/Report.HW.932021.2019-04-30.2018%20Periodic%20Review%20with%20ICEC.pdf","chems":["Chlorendic acid"],"src":"LEGACY","chems_years":{"Chlorendic acid":[2018]},"conc_series":{"Chlorobenzoic acids":{"2018":[30.0,"nondetect"]},"Benzoic acid":{"2018":[100.0,"nondetect"]},"Chlorendic acid":{"2018":[40.0,"detect"]}}}},{"type":"Feature","geometry":{"type":"Point","coordinates":[-79.036241,43.130369]},"properties":{"well_id":"D1U-05","site":"Hooker (Hyde Park) Landfill","well_role":"bedrock piezometer","data_type":"legacy","n_found":1,"chemicals_found":"Chlorendic acid","latest_year":2018,"latest_detect":2018,"coord_precision":"site_centroid_approx","program_number":"932021","well_desc":"","source":"2018 Annual Periodic Review Report, Hyde Park Landfill","source_url":"https://extapps.dec.ny.gov/data/DecDocs/932021/Report.HW.932021.2019-04-30.2018%20Periodic%20Review%20with%20ICEC.pdf","chems":["Chlorendic acid"],"src":"LEGACY","chems_years":{"Chlorendic acid":[2018]},"conc_series":{"Chlorobenzoic acids":{"2018":[30.0,"nondetect"]},"Benzoic acid":{"2018":[100.0,"nondetect"]},"Chlorendic acid":{"2018":[150.0,"detect"]}}}},{"type":"Feature","geometry":{"type":"Point","coordinates":[-79.037706,43.131467]},"properties":{"well_id":"F2M-09","site":"Hooker (Hyde Park) Landfill","well_role":"bedrock piezometer","data_type":"legacy","n_found":3,"chemicals_found":"3-Chlorobenzoic acid; 4-Chlorobenzoic acid; Chlorendic acid","latest_year":2018,"latest_detect":2018,"coord_precision":"site_centroid_approx","program_number":"932021","well_desc":"","source":"2018 Annual Periodic Review Report, Hyde Park Landfill","source_url":"https://extapps.dec.ny.gov/data/DecDocs/932021/Report.HW.932021.2019-04-30.2018%20Periodic%20Review%20with%20ICEC.pdf","chems":["Chlorobenzoic acids","Chlorendic acid"],"src":"LEGACY","chems_years":{"Chlorendic acid":[2018],"Chlorobenzoic acids":[2018]},"conc_series":{"Chlorobenzoic acids":{"2018":[10.0,"detect"]},"Benzoic acid":{"2018":[100.0,"nondetect"]},"Chlorendic acid":{"2018":[20.0,"detect"]}}}},{"type":"Feature","geometry":{"type":"Point","coordinates":[-79.035507,43.131374]},"properties":{"well_id":"F2U-02","site":"Hooker (Hyde Park) Landfill","well_role":"bedrock piezometer","data_type":"legacy","n_found":1,"chemicals_found":"Chlorendic acid","latest_year":2018,"latest_detect":2018,"coord_precision":"site_centroid_approx","program_number":"932021","well_desc":"","source":"2018 Annual Periodic Review Report, Hyde Park Landfill","source_url":"https://extapps.dec.ny.gov/data/DecDocs/932021/Report.HW.932021.2019-04-30.2018%20Periodic%20Review%20with%20ICEC.pdf","chems":["Chlorendic acid"],"src":"LEGACY","chems_years":{"Chlorendic acid":[2018]},"conc_series":{"Chlorobenzoic acids":{"2018":[30.0,"nondetect"]},"Benzoic acid":{"2018":[100.0,"nondetect"]},"Chlorendic acid":{"2018":[270.0,"detect"]}}}},{"type":"Feature","geometry":{"type":"Point","coordinates":[-79.037291,43.130315]},"properties":{"well_id":"F2U-04","site":"Hooker (Hyde Park) Landfill","well_role":"bedrock piezometer","data_type":"legacy","n_found":1,"chemicals_found":"Chlorendic acid","latest_year":2018,"latest_detect":2018,"coord_precision":"site_centroid_approx","program_number":"932021","well_desc":"","source":"2018 Annual Periodic Review Report, Hyde Park Landfill","source_url":"https://extapps.dec.ny.gov/data/DecDocs/932021/Report.HW.932021.2019-04-30.2018%20Periodic%20Review%20with%20ICEC.pdf","chems":["Chlorendic acid"],"src":"LEGACY","chems_years":{"Chlorendic acid":[2018]},"conc_series":{"Chlorobenzoic acids":{"2018":[30.0,"nondetect"]},"Benzoic acid":{"2018":[100.0,"nondetect"]},"Chlorendic acid":{"2018":[360.0,"detect"]}}}},{"type":"Feature","geometry":{"type":"Point","coordinates":[-79.036941,43.132043]},"properties":{"well_id":"G1U-01","site":"Hooker (Hyde Park) Landfill","well_role":"bedrock piezometer","data_type":"legacy","n_found":1,"chemicals_found":"Chlorendic acid","latest_year":2018,"latest_detect":2018,"coord_precision":"site_centroid_approx","program_number":"932021","well_desc":"","source":"2018 Annual Periodic Review Report, Hyde Park Landfill","source_url":"https://extapps.dec.ny.gov/data/DecDocs/932021/Report.HW.932021.2019-04-30.2018%20Periodic%20Review%20with%20ICEC.pdf","chems":["Chlorendic acid"],"src":"LEGACY","chems_years":{"Chlorendic acid":[2018]},"conc_series":{"Chlorobenzoic acids":{"2018":[30.0,"nondetect"]},"Benzoic acid":{"2018":[100.0,"nondetect"]},"Chlorendic acid":{"2018":[10.0,"detect"]}}}},{"type":"Feature","geometry":{"type":"Point","coordinates":[-79.03555,43.130541]},"properties":{"well_id":"G6-01","site":"Hooker (Hyde Park) Landfill","well_role":"bedrock piezometer","data_type":"legacy","n_found":0,"chemicals_found":"","latest_year":2018,"latest_detect":null,"coord_precision":"site_centroid_approx","program_number":"932021","well_desc":"","source":"2018 Annual Periodic Review Report, Hyde Park Landfill","source_url":"https://extapps.dec.ny.gov/data/DecDocs/932021/Report.HW.932021.2019-04-30.2018%20Periodic%20Review%20with%20ICEC.pdf","chems":[],"src":"LEGACY","conc_series":{"Chlorobenzoic acids":{"2018":[30.0,"nondetect"]},"Benzoic acid":{"2018":[100.0,"nondetect"]},"Chlorendic acid":{"2018":[250.0,"nondetect"]}}}},{"type":"Feature","geometry":{"type":"Point","coordinates":[-79.038051,43.130978]},"properties":{"well_id":"G6-04","site":"Hooker (Hyde Park) Landfill","well_role":"bedrock piezometer","data_type":"legacy","n_found":4,"chemicals_found":"2-Chlorobenzoic acid; 3-Chlorobenzoic acid; 4-Chlorobenzoic acid; Chlorendic acid","latest_year":2018,"latest_detect":2018,"coord_precision":"site_centroid_approx","program_number":"932021","well_desc":"","source":"2018 Annual Periodic Review Report, Hyde Park Landfill","source_url":"https://extapps.dec.ny.gov/data/DecDocs/932021/Report.HW.932021.2019-04-30.2018%20Periodic%20Review%20with%20ICEC.pdf","chems":["Chlorobenzoic acids","Chlorendic acid"],"src":"LEGACY","chems_years":{"Chlorobenzoic acids":[2018],"Chlorendic acid":[2018]},"conc_series":{"Chlorobenzoic acids":{"2018":[2800.0,"detect"]},"Benzoic acid":{"2018":[100.0,"nondetect"]},"Chlorendic acid":{"2018":[110.0,"detect"]}}}},{"type":"Feature","geometry":{"type":"Point","coordinates":[-79.035728,43.131918]},"properties":{"well_id":"G6-06","site":"Hooker (Hyde Park) Landfill","well_role":"bedrock piezometer","data_type":"legacy","n_found":0,"chemicals_found":"","latest_year":2018,"latest_detect":null,"coord_precision":"site_centroid_approx","program_number":"932021","well_desc":"","source":"2018 Annual Periodic Review Report, Hyde Park Landfill","source_url":"https://extapps.dec.ny.gov/data/DecDocs/932021/Report.HW.932021.2019-04-30.2018%20Periodic%20Review%20with%20ICEC.pdf","chems":[],"src":"LEGACY","conc_series":{"Chlorobenzoic acids":{"2018":[30.0,"nondetect"]},"Benzoic acid":{"2018":[100.0,"nondetect"]},"Chlorendic acid":{"2018":[250.0,"nondetect"]}}}},{"type":"Feature","geometry":{"type":"Point","coordinates":[-79.036598,43.130023]},"properties":{"well_id":"H2U-02","site":"Hooker (Hyde Park) Landfill","well_role":"bedrock piezometer","data_type":"legacy","n_found":2,"chemicals_found":"2-Chlorobenzoic acid; Chlorendic acid","latest_year":2018,"latest_detect":2018,"coord_precision":"site_centroid_approx","program_number":"932021","well_desc":"","source":"2018 Annual Periodic Review Report, Hyde Park Landfill","source_url":"https://extapps.dec.ny.gov/data/DecDocs/932021/Report.HW.932021.2019-04-30.2018%20Periodic%20Review%20with%20ICEC.pdf","chems":["Chlorobenzoic acids","Chlorendic acid"],"src":"LEGACY","chems_years":{"Chlorobenzoic acids":[2018],"Chlorendic acid":[2018]},"conc_series":{"Chlorobenzoic acids":{"2018":[11.0,"detect"]},"Benzoic acid":{"2018":[100.0,"nondetect"]},"Chlorendic acid":{"2018":[130.0,"detect"]}}}},{"type":"Feature","geometry":{"type":"Point","coordinates":[-79.037741,43.131902]},"properties":{"well_id":"H5-09","site":"Hooker (Hyde Park) Landfill","well_role":"bedrock piezometer","data_type":"legacy","n_found":2,"chemicals_found":"2-Chlorobenzoic acid; Chlorendic acid","latest_year":2018,"latest_detect":2018,"coord_precision":"site_centroid_approx","program_number":"932021","well_desc":"","source":"2018 Annual Periodic Review Report, Hyde Park Landfill","source_url":"https://extapps.dec.ny.gov/data/DecDocs/932021/Report.HW.932021.2019-04-30.2018%20Periodic%20Review%20with%20ICEC.pdf","chems":["Chlorobenzoic acids","Chlorendic acid"],"src":"LEGACY","chems_years":{"Chlorobenzoic acids":[2018],"Chlorendic acid":[2018]},"conc_series":{"Chlorobenzoic acids":{"2018":[33.0,"detect"]},"Benzoic acid":{"2018":[100.0,"nondetect"]},"Chlorendic acid":{"2018":[110.0,"detect"]}}}},{"type":"Feature","geometry":{"type":"Point","coordinates":[-78.90611,43.060734]},"properties":{"well_id":"NCR-13S","site":"Niagara County Refuse Disposal Site","well_role":"shallow overburden perimeter monitoring well","data_type":"legacy","n_found":10,"chemicals_found":"Barium; Beryllium; Cadmium; Chromium; Cobalt; Copper; Lead; Nickel; Vanadium; Zinc","latest_year":2018,"latest_detect":2018,"coord_precision":"site_centroid_approx","program_number":"932026","well_desc":"West perimeter of the landfill, near Wet Well A and the western access boundary","source":"Third Five-Year Review Report for the Niagara County Refuse Site","source_url":"https://extapps.dec.ny.gov/data/DecDocs/932026/Report.HW.932026.2014-09-04.EPA%20Third%205%20Year%20Review.pdf","chems":["Lead","Chromium","Cadmium","Nickel","Copper","Zinc","Barium","Beryllium","Cobalt","Vanadium"],"src":"LEGACY","chems_years":{"Barium":[2008,2009,2010,2011,2012,2013,2014,2015,2016,2017,2018],"Chromium":[2008,2009,2010,2011,2012,2013,2014,2015,2016,2018],"Copper":[2008,2009,2010,2012,2013,2014,2015,2016,2017,2018],"Zinc":[2008,2009,2010,2011,2012,2013,2014,2015,2016,2017,2018],"Beryllium":[2009],"Cadmium":[2009,2010,2012,2013,2014,2015],"Cobalt":[2009],"Nickel":[2009,2010,2012,2013,2014,2015,2016,2017,2018],"Vanadium":[2009,2010],"Lead":[2013,2017,2018]},"conc_series":{"Barium":{"2008":[84.9,"detect"],"2009":[98.0,"detect"],"2010":[53.9,"detect"],"2011":[59.0,"detect"],"2012":[42.0,"detect"],"2013":[88.0,"detect"],"2014":[48.0,"detect"],"2015":[55.0,"detect"],"2016":[55.0,"detect"],"2017":[130.0,"detect"],"2018":[53.0,"detect"]},"Chromium":{"2008":[5.8,"detect"],"2009":[21.5,"detect"],"2010":[16.1,"detect"],"2011":[4.6,"detect"],"2012":[3.3,"detect"],"2013":[24.0,"detect"],"2014":[2.1,"detect"],"2015":[1.5,"detect"],"2016":[2.9,"detect"],"2018":[3.3,"detect"]},"Copper":{"2008":[10.0,"detect"],"2009":[9.9,"detect"],"2010":[12.4,"detect"],"2012":[5.0,"detect"],"2013":[12.0,"detect"],"2014":[4.2,"detect"],"2015":[6.0,"detect"],"2016":[6.2,"detect"],"2017":[2.8,"detect"],"2018":[1.6,"detect"]},"Zinc":{"2008":[35.2,"detect"],"2009":[30.2,"detect"],"2010":[47.3,"detect"],"2011":[47.0,"detect"],"2012":[30.0,"detect"],"2013":[410.0,"detect"],"2014":[110.0,"detect"],"2015":[36.0,"detect"],"2016":[19.0,"detect"],"2017":[2.7,"detect"],"2018":[5.1,"detect"]},"Beryllium":{"2009":[0.3,"detect"]},"Cadmium":{"2009":[0.3,"detect"],"2010":[1.1,"detect"],"2012":[0.6,"detect"],"2013":[1.5,"detect"],"2014":[0.53,"detect"],"2015":[0.78,"detect"]},"Cobalt":{"2009":[1.0,"detect"]},"Nickel":{"2009":[11.4,"detect"],"2010":[8.2,"detect"],"2012":[3.9,"detect"],"2013":[13.0,"detect"],"2014":[2.8,"detect"],"2015":[3.3,"detect"],"2016":[6.6,"detect"],"2017":[2.7,"detect"],"2018":[2.5,"detect"]},"Vanadium":{"2009":[9.1,"detect"],"2010":[3.7,"detect"]},"Lead":{"2013":[8.7,"detect"],"2017":[4.6,"detect"],"2018":[4.7,"detect"]}}}},{"type":"Feature","geometry":{"type":"Point","coordinates":[-78.905816,43.060315]},"properties":{"well_id":"NCR-3S","site":"Niagara County Refuse Disposal Site","well_role":"shallow overburden perimeter monitoring well","data_type":"legacy","n_found":10,"chemicals_found":"Barium; Beryllium; Cadmium; Chromium; Cobalt; Copper; Lead; Nickel; Vanadium; Zinc","latest_year":2018,"latest_detect":2018,"coord_precision":"site_centroid_approx","program_number":"932026","well_desc":"East/northeast perimeter of the landfill, near Wet Well C and surface-water station SW-3","source":"Third Five-Year Review Report for the Niagara County Refuse Site","source_url":"https://extapps.dec.ny.gov/data/DecDocs/932026/Report.HW.932026.2014-09-04.EPA%20Third%205%20Year%20Review.pdf","chems":["Lead","Chromium","Cadmium","Nickel","Copper","Zinc","Barium","Beryllium","Cobalt","Vanadium"],"src":"LEGACY","chems_years":{"Barium":[2008,2009,2010,2011,2012,2013,2014,2015,2016,2017,2018],"Chromium":[2008,2009,2010,2011,2012,2013,2014,2016,2017,2018],"Nickel":[2008,2009,2010,2011,2012,2013,2014,2015,2016,2017,2018],"Zinc":[2008,2009,2010,2011,2012,2013,2014,2015,2016,2017,2018],"Beryllium":[2009],"Cadmium":[2009,2010,2012,2014,2015,2016,2018],"Cobalt":[2009],"Copper":[2009,2010,2011,2012,2013,2014,2015,2016,2017,2018],"Vanadium":[2009,2010],"Lead":[2010,2012,2013,2014,2017]},"conc_series":{"Barium":{"2008":[59.9,"detect"],"2009":[57.3,"detect"],"2010":[50.4,"detect"],"2011":[49.0,"detect"],"2012":[51.0,"detect"],"2013":[57.0,"detect"],"2014":[53.0,"detect"],"2015":[43.0,"detect"],"2016":[48.0,"detect"],"2017":[37.0,"detect"],"2018":[41.0,"detect"]},"Chromium":{"2008":[16.8,"detect"],"2009":[14.1,"detect"],"2010":[6.0,"detect"],"2011":[18.0,"detect"],"2012":[3.5,"detect"],"2013":[13.0,"detect"],"2014":[31.0,"detect"],"2016":[8.3,"detect"],"2017":[3.7,"detect"],"2018":[3.0,"detect"]},"Nickel":{"2008":[14.2,"detect"],"2009":[25.3,"detect"],"2010":[6.8,"detect"],"2011":[26.0,"detect"],"2012":[6.8,"detect"],"2013":[25.0,"detect"],"2014":[34.0,"detect"],"2015":[2.1,"detect"],"2016":[11.0,"detect"],"2017":[8.6,"detect"],"2018":[5.4,"detect"]},"Zinc":{"2008":[37.9,"detect"],"2009":[28.2,"detect"],"2010":[20.6,"detect"],"2011":[340.0,"detect"],"2012":[38.0,"detect"],"2013":[250.0,"detect"],"2014":[380.0,"detect"],"2015":[33.0,"detect"],"2016":[130.0,"detect"],"2017":[35.0,"detect"],"2018":[23.0,"detect"]},"Beryllium":{"2009":[0.2,"detect"]},"Cadmium":{"2009":[0.4,"detect"],"2010":[0.5,"detect"],"2012":[0.7,"detect"],"2014":[0.98,"detect"],"2015":[0.9,"detect"],"2016":[0.73,"detect"],"2018":[0.51,"detect"]},"Cobalt":{"2009":[1.2,"detect"]},"Copper":{"2009":[11.9,"detect"],"2010":[6.0,"detect"],"2011":[10.0,"detect"],"2012":[7.0,"detect"],"2013":[10.0,"detect"],"2014":[16.0,"detect"],"2015":[7.6,"detect"],"2016":[5.0,"detect"],"2017":[3.8,"detect"],"2018":[4.2,"detect"]},"Vanadium":{"2009":[4.6,"detect"],"2010":[2.5,"detect"]},"Lead":{"2010":[3.7,"detect"],"2012":[3.8,"detect"],"2013":[5.1,"detect"],"2014":[4.1,"detect"],"2017":[3.1,"detect"]}}}},{"type":"Feature","geometry":{"type":"Point","coordinates":[-78.906671,43.060586]},"properties":{"well_id":"NCR-4S","site":"Niagara County Refuse Disposal Site","well_role":"shallow overburden perimeter monitoring well","data_type":"legacy","n_found":12,"chemicals_found":"Arsenic; Barium; Beryllium; Cadmium; Chromium; Cobalt; Copper; Lead; Nickel; Selenium; Vanadium; Zinc","latest_year":2018,"latest_detect":2018,"coord_precision":"site_centroid_approx","program_number":"932026","well_desc":"South/southeast perimeter of the landfill, east of Wet Well B","source":"Third Five-Year Review Report for the Niagara County Refuse Site","source_url":"https://extapps.dec.ny.gov/data/DecDocs/932026/Report.HW.932026.2014-09-04.EPA%20Third%205%20Year%20Review.pdf","chems":["Arsenic","Lead","Chromium","Cadmium","Nickel","Copper","Zinc","Barium","Beryllium","Cobalt","Selenium","Vanadium"],"src":"LEGACY","chems_years":{"Barium":[2008,2009,2010,2011,2012,2013,2014,2015,2016,2017,2018],"Zinc":[2008,2009,2010,2011,2012,2013,2014,2015,2016,2017,2018],"Beryllium":[2009],"Cadmium":[2009,2010,2014,2015,2016,2017],"Chromium":[2009,2010,2011,2012,2013,2014,2016,2017,2018],"Cobalt":[2009,2010],"Copper":[2009,2010,2011,2012,2013,2014,2015,2016,2017,2018],"Lead":[2009,2010,2011,2013,2014,2016,2017,2018],"Nickel":[2009,2010,2012,2013,2014,2015,2016,2017,2018],"Vanadium":[2009,2010],"Selenium":[2010],"Arsenic":[2016,2017]},"conc_series":{"Barium":{"2008":[76.8,"detect"],"2009":[125.0,"detect"],"2010":[56.7,"detect"],"2011":[93.0,"detect"],"2012":[61.0,"detect"],"2013":[78.0,"detect"],"2014":[97.0,"detect"],"2015":[62.0,"detect"],"2016":[120.0,"detect"],"2017":[90.0,"detect"],"2018":[81.0,"detect"]},"Zinc":{"2008":[58.5,"detect"],"2009":[1340.0,"detect"],"2010":[268.0,"detect"],"2011":[400.0,"detect"],"2012":[63.0,"detect"],"2013":[91.0,"detect"],"2014":[640.0,"detect"],"2015":[53.0,"detect"],"2016":[1200.0,"detect"],"2017":[940.0,"detect"],"2018":[370.0,"detect"]},"Beryllium":{"2009":[0.7,"detect"]},"Cadmium":{"2009":[0.9,"detect"],"2010":[0.9,"detect"],"2014":[0.81,"detect"],"2015":[0.53,"detect"],"2016":[0.98,"detect"],"2017":[0.79,"detect"]},"Chromium":{"2009":[10.6,"detect"],"2010":[3.2,"detect"],"2011":[5.6,"detect"],"2012":[2.1,"detect"],"2013":[2.0,"detect"],"2014":[5.7,"detect"],"2016":[11.0,"detect"],"2017":[11.0,"detect"],"2018":[6.7,"detect"]},"Cobalt":{"2009":[2.6,"detect"],"2010":[0.6,"detect"]},"Copper":{"2009":[19.3,"detect"],"2010":[6.6,"detect"],"2011":[10.0,"detect"],"2012":[2.5,"detect"],"2013":[1.9,"detect"],"2014":[12.0,"detect"],"2015":[3.0,"detect"],"2016":[35.0,"detect"],"2017":[29.0,"detect"],"2018":[11.0,"detect"]},"Lead":{"2009":[28.3,"detect"],"2010":[6.7,"detect"],"2011":[9.4,"detect"],"2013":[4.0,"detect"],"2014":[18.0,"detect"],"2016":[20.0,"detect"],"2017":[46.0,"detect"],"2018":[14.0,"detect"]},"Nickel":{"2009":[11.8,"detect"],"2010":[4.4,"detect"],"2012":[1.6,"detect"],"2013":[1.8,"detect"],"2014":[8.2,"detect"],"2015":[1.7,"detect"],"2016":[12.0,"detect"],"2017":[12.0,"detect"],"2018":[5.2,"detect"]},"Vanadium":{"2009":[7.1,"detect"],"2010":[2.1,"detect"]},"Selenium":{"2010":[9.4,"detect"]},"Arsenic":{"2016":[8.1,"detect"],"2017":[6.6,"detect"]}}}},{"type":"Feature","geometry":{"type":"Point","coordinates":[-78.905582,43.060846]},"properties":{"well_id":"NCR-5S","site":"Niagara County Refuse Disposal Site","well_role":"shallow overburden perimeter monitoring well","data_type":"legacy","n_found":10,"chemicals_found":"Barium; Beryllium; Cadmium; Chromium; Cobalt; Copper; Lead; Nickel; Vanadium; Zinc","latest_year":2018,"latest_detect":2018,"coord_precision":"site_centroid_approx","program_number":"932026","well_desc":"North perimeter of the landfill, immediately north of the capped landfill area","source":"Third Five-Year Review Report for the Niagara County Refuse Site","source_url":"https://extapps.dec.ny.gov/data/DecDocs/932026/Report.HW.932026.2014-09-04.EPA%20Third%205%20Year%20Review.pdf","chems":["Lead","Chromium","Cadmium","Nickel","Copper","Zinc","Barium","Beryllium","Cobalt","Vanadium"],"src":"LEGACY","chems_years":{"Barium":[2008,2009,2011,2013,2014,2015,2016,2017,2018],"Chromium":[2008,2009,2011,2013,2014,2015,2016,2018],"Nickel":[2008,2009,2011,2013,2014,2015,2016,2017,2018],"Zinc":[2008,2009,2011,2013,2014,2015,2016,2017,2018],"Beryllium":[2009],"Cobalt":[2009],"Copper":[2009,2011,2013,2014,2015,2016,2017,2018],"Lead":[2009,2011,2013,2014,2018],"Vanadium":[2009,2011],"Cadmium":[2013,2014,2015]},"conc_series":{"Barium":{"2008":[113.0,"detect"],"2009":[140.0,"detect"],"2011":[180.0,"detect"],"2013":[310.0,"detect"],"2014":[250.0,"detect"],"2015":[130.0,"detect"],"2016":[140.0,"detect"],"2017":[130.0,"detect"],"2018":[200.0,"detect"]},"Chromium":{"2008":[15.8,"detect"],"2009":[17.8,"detect"],"2011":[24.0,"detect"],"2013":[30.0,"detect"],"2014":[19.0,"detect"],"2015":[1.2,"detect"],"2016":[8.9,"detect"],"2018":[9.8,"detect"]},"Nickel":{"2008":[13.0,"detect"],"2009":[13.8,"detect"],"2011":[21.0,"detect"],"2013":[29.0,"detect"],"2014":[15.0,"detect"],"2015":[2.3,"detect"],"2016":[9.5,"detect"],"2017":[3.4,"detect"],"2018":[8.2,"detect"]},"Zinc":{"2008":[23.6,"detect"],"2009":[56.3,"detect"],"2011":[88.0,"detect"],"2013":[190.0,"detect"],"2014":[56.0,"detect"],"2015":[34.0,"detect"],"2016":[13.0,"detect"],"2017":[3.0,"detect"],"2018":[14.0,"detect"]},"Beryllium":{"2009":[0.2,"detect"]},"Cobalt":{"2009":[1.6,"detect"]},"Copper":{"2009":[15.5,"detect"],"2011":[24.0,"detect"],"2013":[36.0,"detect"],"2014":[15.0,"detect"],"2015":[6.6,"detect"],"2016":[4.1,"detect"],"2017":[2.8,"detect"],"2018":[4.8,"detect"]},"Lead":{"2009":[6.7,"detect"],"2011":[13.0,"detect"],"2013":[27.0,"detect"],"2014":[9.2,"detect"],"2018":[6.9,"detect"]},"Vanadium":{"2009":[11.0,"detect"],"2011":[15.0,"detect"]},"Cadmium":{"2013":[1.5,"detect"],"2014":[1.0,"detect"],"2015":[0.56,"detect"]}}}},{"type":"Feature","geometry":{"type":"Point","coordinates":[-78.99969,43.092024]},"properties":{"well_id":"165","site":"CECOS International, Inc.","well_role":"","data_type":"legacy","n_found":3,"chemicals_found":"2,4,5-Trichlorophenol; Benzene; Phenol","latest_year":1986,"latest_detect":1986,"coord_precision":"site_centroid_approx","program_number":"932046","well_desc":"Adjacent to Secure Chemical Management Facility 4 (SCMF 4)","source":"Hazardous Waste Groundwater Task Force Evaluation of CECOS International, Niagara Falls, New York","source_url":"https://nepis.epa.gov/Exe/ZyPURL.cgi?Dockey=2000H96Z.TXT","chems":["Benzene","Chlorophenols","Phenols"],"src":"LEGACY","chems_years":{"Chlorophenols":[1986],"Phenols":[1986],"Benzene":[1986]},"conc_series":{"Chlorophenols":{"1986":[null,"detect"]},"Phenols":{"1986":[null,"detect"]},"Benzene":{"1986":[null,"detect"]}}}},{"type":"Feature","geometry":{"type":"Point","coordinates":[-78.999395,43.091605]},"properties":{"well_id":"169","site":"CECOS International, Inc.","well_role":"","data_type":"legacy","n_found":3,"chemicals_found":"2-Methylphenol; 4-Methylphenol; Phenol","latest_year":1986,"latest_detect":1986,"coord_precision":"site_centroid_approx","program_number":"932046","well_desc":"Adjacent to Secure Chemical Management Facility 4 (SCMF 4)","source":"Hazardous Waste Groundwater Task Force Evaluation of CECOS International, Niagara Falls, New York","source_url":"https://nepis.epa.gov/Exe/ZyPURL.cgi?Dockey=2000H96Z.TXT","chems":["Phenols"],"src":"LEGACY","chems_years":{"Phenols":[1986]},"conc_series":{"Phenols":{"1986":[null,"detect"]}}}},{"type":"Feature","geometry":{"type":"Point","coordinates":[-79.000251,43.091876]},"properties":{"well_id":"413","site":"CECOS International, Inc.","well_role":"","data_type":"legacy","n_found":4,"chemicals_found":"2-Methylphenol; 4-Methylphenol; Benzene; Phenol","latest_year":1986,"latest_detect":1986,"coord_precision":"site_centroid_approx","program_number":"932046","well_desc":"Adjacent to Secure Chemical Management Facility 4 (SCMF 4)","source":"Hazardous Waste Groundwater Task Force Evaluation of CECOS International, Niagara Falls, New York","source_url":"https://nepis.epa.gov/Exe/ZyPURL.cgi?Dockey=2000H96Z.TXT","chems":["Benzene","Phenols"],"src":"LEGACY","chems_years":{"Phenols":[1986],"Benzene":[1986]},"conc_series":{"Phenols":{"1986":[null,"detect"]},"Benzene":{"1986":[null,"detect"]}}}},{"type":"Feature","geometry":{"type":"Point","coordinates":[-78.999161,43.092136]},"properties":{"well_id":"CENTRAL-AREA-WELLS-NOT-IDENTIFIED","site":"CECOS International, Inc.","well_role":"","data_type":"legacy","n_found":8,"chemicals_found":"2-Butanone; Acetone; Benzene; Chlorobenzene; Chloroform; Methylene chloride; Tetrachlorethane; Toluene","latest_year":1991,"latest_detect":1991,"coord_precision":"site_centroid_approx","program_number":"932046","well_desc":"Central interior portion of CECOS, principally around the former Phase I wastewater-treatment impoundments","source":"Reduction of Toxics Loadings to the Niagara River from Hazardous Waste Sites in the United States","source_url":"https://www.epa.gov/sites/default/files/2015-11/documents/niagara-river-reduction-toxics-loadings-report-200709-108pp.pdf","chems":["Tetrachloroethane","Methylene chloride","Acetone / ketones","Benzene","Toluene","Chlorobenzene","Chloroform / THMs"],"src":"LEGACY","chems_years":{"Tetrachloroethane":[1991],"Acetone / ketones":[1991],"Benzene":[1991],"Chlorobenzene":[1991],"Chloroform / THMs":[1991],"Methylene chloride":[1991],"Toluene":[1991]},"conc_series":{"Tetrachloroethane":{"1991":[null,"detect"]},"Acetone / ketones":{"1991":[null,"detect"]},"Benzene":{"1991":[null,"detect"]},"Chlorobenzene":{"1991":[null,"detect"]},"Chloroform / THMs":{"1991":[null,"detect"]},"Methylene chloride":{"1991":[null,"detect"]},"Toluene":{"1991":[null,"detect"]}}}},{"type":"Feature","geometry":{"type":"Point","coordinates":[-78.999822,43.091297]},"properties":{"well_id":"SCMF5-WELL-ID-NOT-PUBLIC","site":"CECOS International, Inc.","well_role":"","data_type":"legacy","n_found":4,"chemicals_found":"2,4-Dimethylphenol; 2-Methylphenol; 4-Methylphenol; Phenol","latest_year":1986,"latest_detect":1986,"coord_precision":"site_centroid_approx","program_number":"932046","well_desc":"Groundwater monitoring location near Secure Chemical Management Facility 5","source":"Hazardous Waste Groundwater Task Force Evaluation of CECOS International, Niagara Falls, New York","source_url":"https://nepis.epa.gov/Exe/ZyPURL.cgi?Dockey=2000H96Z.TXT","chems":["Phenols"],"src":"LEGACY","chems_years":{"Phenols":[1986]},"conc_series":{"Phenols":{"1986":[null,"detect"]}}}},{"type":"Feature","geometry":{"type":"Point","coordinates":[-78.998228,43.113668]},"properties":{"well_id":"MW-10S","site":"Forest Glen Mobile Home Subdivision Superfund Site","well_role":"groundwater monitoring well","data_type":"legacy","n_found":2,"chemicals_found":"Vinyl chloride; cis-1,2-Dichloroethene","latest_year":2023,"latest_detect":2023,"coord_precision":"georeferenced_from_Fig01_aerial_~0.1mi","program_number":"932097","well_desc":"Sentinel location along the southern edge of the on-property monitoring network","source":"Forest Glen Site, Third Quarter 2023 Groundwater Monitoring Results \u2014 Table 1, 2021\u20132023 Groundwater Data","source_url":"https://extapps.dec.ny.gov/data/DecDocs/932097/Report.HW.932097.2023-11-09.Third%20Quarter%202023%20Groundwater%20Sampling%20Report%20.pdf","chems":["Vinyl chloride","1,2-Dichloroethene (DCE)"],"src":"LEGACY","chems_years":{"1,2-Dichloroethene (DCE)":[2021,2022,2023],"Vinyl chloride":[2021,2022,2023]},"conc_series":{"1,2-Dichloroethene (DCE)":{"2021":[9.1,"detect"],"2022":[32.0,"detect"],"2023":[51.0,"detect"]},"Vinyl chloride":{"2021":[1.4,"detect"],"2022":[4.7,"detect"],"2023":[10.0,"detect"]}}}},{"type":"Feature","geometry":{"type":"Point","coordinates":[-79.001815,43.113796]},"properties":{"well_id":"MW-4S","site":"Forest Glen Mobile Home Subdivision Superfund Site","well_role":"groundwater monitoring well","data_type":"legacy","n_found":1,"chemicals_found":"Acetone","latest_year":2021,"latest_detect":2021,"coord_precision":"georeferenced_from_Fig01_aerial_~0.1mi","program_number":"932097","well_desc":"On-property; west side of the engineered cap area","source":"Forest Glen Site, Third Quarter 2023 Groundwater Monitoring Results \u2014 Table 1, 2021\u20132023 Groundwater Data","source_url":"https://extapps.dec.ny.gov/data/DecDocs/932097/Report.HW.932097.2023-11-09.Third%20Quarter%202023%20Groundwater%20Sampling%20Report%20.pdf","chems":["Acetone / ketones"],"src":"LEGACY","chems_years":{"Acetone / ketones":[2021]},"conc_series":{"Acetone / ketones":{"2021":[3.7,"detect"]}}}},{"type":"Feature","geometry":{"type":"Point","coordinates":[-79.000025,43.11365]},"properties":{"well_id":"MW-5D","site":"Forest Glen Mobile Home Subdivision Superfund Site","well_role":"groundwater monitoring well","data_type":"legacy","n_found":1,"chemicals_found":"1,1-Dichloroethane","latest_year":2022,"latest_detect":2022,"coord_precision":"georeferenced_from_Fig01_aerial_~0.1mi","program_number":"932097","well_desc":"On-property; central cap area near recovery wells RW-1 and RW-2","source":"Forest Glen Site, Third Quarter 2023 Groundwater Monitoring Results \u2014 Table 1, 2021\u20132023 Groundwater Data","source_url":"https://extapps.dec.ny.gov/data/DecDocs/932097/Report.HW.932097.2023-11-09.Third%20Quarter%202023%20Groundwater%20Sampling%20Report%20.pdf","chems":["1,1-Dichloroethane"],"src":"LEGACY","chems_years":{"1,1-Dichloroethane":[2022]},"conc_series":{"1,1-Dichloroethane":{"2022":[0.48,"detect"]}}}},{"type":"Feature","geometry":{"type":"Point","coordinates":[-79.000624,43.113367]},"properties":{"well_id":"MW-5S","site":"Forest Glen Mobile Home Subdivision Superfund Site","well_role":"groundwater monitoring well","data_type":"legacy","n_found":8,"chemicals_found":"1,1,1-Trichloroethane; 1,1-Dichloroethane; 1,1-Dichloroethene; Tetrachloroethene; Trichloroethene; Vinyl chloride; cis-1,2-Dichloroethene; trans-1,2-Dichloroethene","latest_year":2023,"latest_detect":2023,"coord_precision":"georeferenced_from_Fig01_aerial_~0.1mi","program_number":"932097","well_desc":"On-property; central cap area adjacent to recovery well RW-1","source":"Forest Glen Site, Third Quarter 2023 Groundwater Monitoring Results \u2014 Table 1, 2021\u20132023 Groundwater Data","source_url":"https://extapps.dec.ny.gov/data/DecDocs/932097/Report.HW.932097.2023-11-09.Third%20Quarter%202023%20Groundwater%20Sampling%20Report%20.pdf","chems":["Trichloroethene (TCE)","Tetrachloroethene (PCE)","Vinyl chloride","1,1,1-Trichloroethane","1,1-Dichloroethane","1,1-Dichloroethene","1,2-Dichloroethene (DCE)"],"src":"LEGACY","chems_years":{"1,1,1-Trichloroethane":[2021,2022,2023],"1,1-Dichloroethane":[2021,2022,2023],"1,1-Dichloroethene":[2021,2022,2023],"Tetrachloroethene (PCE)":[2021,2022],"Trichloroethene (TCE)":[2021,2022,2023],"1,2-Dichloroethene (DCE)":[2021,2022,2023],"Vinyl chloride":[2021,2022,2023]},"conc_series":{"1,1,1-Trichloroethane":{"2021":[25.0,"detect"],"2022":[6.8,"detect"],"2023":[5.1,"detect"]},"1,1-Dichloroethane":{"2021":[37.0,"detect"],"2022":[40.0,"detect"],"2023":[44.0,"detect"]},"1,1-Dichloroethene":{"2021":[3.3,"detect"],"2022":[3.7,"detect"],"2023":[3.7,"detect"]},"Tetrachloroethene (PCE)":{"2021":[0.8,"detect"],"2022":[0.55,"detect"]},"Trichloroethene (TCE)":{"2021":[57.0,"detect"],"2022":[30.0,"detect"],"2023":[8.6,"detect"]},"1,2-Dichloroethene (DCE)":{"2021":[50.0,"detect"],"2022":[110.0,"detect"],"2023":[59.0,"detect"]},"Vinyl chloride":{"2021":[1.9,"detect"],"2022":[7.7,"detect"],"2023":[4.7,"detect"]}}}},{"type":"Feature","geometry":{"type":"Point","coordinates":[-78.998957,43.113583]},"properties":{"well_id":"MW-6D","site":"Forest Glen Mobile Home Subdivision Superfund Site","well_role":"groundwater monitoring well","data_type":"legacy","n_found":3,"chemicals_found":"1,1-Dichloroethane; Vinyl chloride; cis-1,2-Dichloroethene","latest_year":2023,"latest_detect":2023,"coord_precision":"georeferenced_from_Fig01_aerial_~0.1mi","program_number":"932097","well_desc":"On-property; south/southeast edge of the cap near the railroad yard","source":"Forest Glen Site, Third Quarter 2023 Groundwater Monitoring Results \u2014 Table 1, 2021\u20132023 Groundwater Data","source_url":"https://extapps.dec.ny.gov/data/DecDocs/932097/Report.HW.932097.2023-11-09.Third%20Quarter%202023%20Groundwater%20Sampling%20Report%20.pdf","chems":["Vinyl chloride","1,1-Dichloroethane","1,2-Dichloroethene (DCE)"],"src":"LEGACY","chems_years":{"1,1-Dichloroethane":[2022,2023],"Vinyl chloride":[2022,2023],"1,2-Dichloroethene (DCE)":[2022,2023]},"conc_series":{"1,1-Dichloroethane":{"2022":[0.51,"detect"],"2023":[0.59,"detect"]},"Vinyl chloride":{"2022":[2.6,"detect"],"2023":[3.2,"detect"]},"1,2-Dichloroethene (DCE)":{"2022":[1.4,"detect"],"2023":[2.2,"detect"]}}}},{"type":"Feature","geometry":{"type":"Point","coordinates":[-78.99888,43.113336]},"properties":{"well_id":"MW-6DD","site":"Forest Glen Mobile Home Subdivision Superfund Site","well_role":"groundwater monitoring well","data_type":"legacy","n_found":3,"chemicals_found":"1,1-Dichloroethane; Vinyl chloride; cis-1,2-Dichloroethene","latest_year":2023,"latest_detect":2023,"coord_precision":"georeferenced_from_Fig01_aerial_~0.1mi","program_number":"932097","well_desc":"On-property; south/southeast edge of the cap near the railroad yard","source":"Forest Glen Site, Third Quarter 2023 Groundwater Monitoring Results \u2014 Table 1, 2021\u20132023 Groundwater Data","source_url":"https://extapps.dec.ny.gov/data/DecDocs/932097/Report.HW.932097.2023-11-09.Third%20Quarter%202023%20Groundwater%20Sampling%20Report%20.pdf","chems":["Vinyl chloride","1,1-Dichloroethane","1,2-Dichloroethene (DCE)"],"src":"LEGACY","chems_years":{"1,1-Dichloroethane":[2021,2023],"Vinyl chloride":[2021,2022,2023],"1,2-Dichloroethene (DCE)":[2021,2022,2023]},"conc_series":{"1,1-Dichloroethane":{"2021":[0.39,"detect"],"2023":[0.38,"detect"]},"Vinyl chloride":{"2021":[5.7,"detect"],"2022":[10.0,"detect"],"2023":[5.7,"detect"]},"1,2-Dichloroethene (DCE)":{"2021":[19.0,"detect"],"2022":[32.0,"detect"],"2023":[19.0,"detect"]}}}},{"type":"Feature","geometry":{"type":"Point","coordinates":[-78.999564,43.113376]},"properties":{"well_id":"MW-6S","site":"Forest Glen Mobile Home Subdivision Superfund Site","well_role":"groundwater monitoring well","data_type":"legacy","n_found":4,"chemicals_found":"1,1-Dichloroethane; Trichloroethene; Vinyl chloride; cis-1,2-Dichloroethene","latest_year":2023,"latest_detect":2023,"coord_precision":"georeferenced_from_Fig01_aerial_~0.1mi","program_number":"932097","well_desc":"On-property; south/southeast edge of the cap near the railroad yard","source":"Forest Glen Site, Third Quarter 2023 Groundwater Monitoring Results \u2014 Table 1, 2021\u20132023 Groundwater Data","source_url":"https://extapps.dec.ny.gov/data/DecDocs/932097/Report.HW.932097.2023-11-09.Third%20Quarter%202023%20Groundwater%20Sampling%20Report%20.pdf","chems":["Trichloroethene (TCE)","Vinyl chloride","1,1-Dichloroethane","1,2-Dichloroethene (DCE)"],"src":"LEGACY","chems_years":{"Vinyl chloride":[2021,2022,2023],"1,2-Dichloroethene (DCE)":[2021,2022,2023],"1,1-Dichloroethane":[2023],"Trichloroethene (TCE)":[2023]},"conc_series":{"Vinyl chloride":{"2021":[26.0,"detect"],"2022":[56.0,"detect"],"2023":[22.0,"detect"]},"1,2-Dichloroethene (DCE)":{"2021":[11.0,"detect"],"2022":[33.0,"detect"],"2023":[17.0,"detect"]},"1,1-Dichloroethane":{"2023":[0.58,"detect"]},"Trichloroethene (TCE)":{"2023":[4.8,"detect"]}}}},{"type":"Feature","geometry":{"type":"Point","coordinates":[-79.000044,43.112367]},"properties":{"well_id":"MW-7D","site":"Forest Glen Mobile Home Subdivision Superfund Site","well_role":"groundwater monitoring well","data_type":"legacy","n_found":2,"chemicals_found":"Tetrachloroethene; Trichloroethene","latest_year":2023,"latest_detect":2023,"coord_precision":"georeferenced_from_Fig01_aerial_~0.1mi","program_number":"932097","well_desc":"Off-property plume; southwest of the site, south of the railroad yard","source":"Forest Glen Site, Third Quarter 2023 Groundwater Monitoring Results \u2014 Table 1, 2021\u20132023 Groundwater Data","source_url":"https://extapps.dec.ny.gov/data/DecDocs/932097/Report.HW.932097.2023-11-09.Third%20Quarter%202023%20Groundwater%20Sampling%20Report%20.pdf","chems":["Trichloroethene (TCE)","Tetrachloroethene (PCE)"],"src":"LEGACY","chems_years":{"Tetrachloroethene (PCE)":[2021,2022],"Trichloroethene (TCE)":[2021,2022,2023]},"conc_series":{"Tetrachloroethene (PCE)":{"2021":[0.57,"detect"],"2022":[0.37,"detect"]},"Trichloroethene (TCE)":{"2021":[1.4,"detect"],"2022":[0.98,"detect"],"2023":[0.9,"detect"]}}}},{"type":"Feature","geometry":{"type":"Point","coordinates":[-78.999872,43.112562]},"properties":{"well_id":"MW-7DD","site":"Forest Glen Mobile Home Subdivision Superfund Site","well_role":"groundwater monitoring well","data_type":"legacy","n_found":3,"chemicals_found":"Acetone; Toluene; Trichloroethene","latest_year":2021,"latest_detect":2021,"coord_precision":"georeferenced_from_Fig01_aerial_~0.1mi","program_number":"932097","well_desc":"Off-property plume; southwest of the site, south of the railroad yard","source":"Forest Glen Site, Third Quarter 2023 Groundwater Monitoring Results \u2014 Table 1, 2021\u20132023 Groundwater Data","source_url":"https://extapps.dec.ny.gov/data/DecDocs/932097/Report.HW.932097.2023-11-09.Third%20Quarter%202023%20Groundwater%20Sampling%20Report%20.pdf","chems":["Trichloroethene (TCE)","Acetone / ketones","Toluene"],"src":"LEGACY","chems_years":{"Acetone / ketones":[2021],"Toluene":[2021],"Trichloroethene (TCE)":[2021]},"conc_series":{"Acetone / ketones":{"2021":[7.6,"detect"]},"Toluene":{"2021":[1.9,"detect"]},"Trichloroethene (TCE)":{"2021":[0.55,"detect"]}}}},{"type":"Feature","geometry":{"type":"Point","coordinates":[-79.0009,43.11205]},"properties":{"well_id":"MW-7S","site":"Forest Glen Mobile Home Subdivision Superfund Site","well_role":"groundwater monitoring well","data_type":"legacy","n_found":3,"chemicals_found":"Methylene chloride; Tetrachloroethene; Trichloroethene","latest_year":2023,"latest_detect":2023,"coord_precision":"georeferenced_from_Fig01_aerial_~0.1mi","program_number":"932097","well_desc":"Off-property plume; southwest of the site, south of the railroad yard","source":"Forest Glen Site, Third Quarter 2023 Groundwater Monitoring Results \u2014 Table 1, 2021\u20132023 Groundwater Data","source_url":"https://extapps.dec.ny.gov/data/DecDocs/932097/Report.HW.932097.2023-11-09.Third%20Quarter%202023%20Groundwater%20Sampling%20Report%20.pdf","chems":["Trichloroethene (TCE)","Tetrachloroethene (PCE)","Methylene chloride"],"src":"LEGACY","chems_years":{"Trichloroethene (TCE)":[2021,2022,2023],"Tetrachloroethene (PCE)":[2021,2022],"Methylene chloride":[2023]},"conc_series":{"Trichloroethene (TCE)":{"2021":[1.3,"detect"],"2022":[1.4,"detect"],"2023":[0.6,"detect"]},"Tetrachloroethene (PCE)":{"2021":[0.44,"detect"],"2022":[0.6,"detect"]},"Methylene chloride":{"2023":[1.2,"detect"]}}}},{"type":"Feature","geometry":{"type":"Point","coordinates":[-78.99918,43.112348]},"properties":{"well_id":"MW-8D","site":"Forest Glen Mobile Home Subdivision Superfund Site","well_role":"groundwater monitoring well","data_type":"legacy","n_found":2,"chemicals_found":"1,1-Dichloroethane; Vinyl chloride","latest_year":2023,"latest_detect":2023,"coord_precision":"georeferenced_from_Fig01_aerial_~0.1mi","program_number":"932097","well_desc":"Off-property plume; southeast of the site, south of the railroad yard","source":"Forest Glen Site, Third Quarter 2023 Groundwater Monitoring Results \u2014 Table 1, 2021\u20132023 Groundwater Data","source_url":"https://extapps.dec.ny.gov/data/DecDocs/932097/Report.HW.932097.2023-11-09.Third%20Quarter%202023%20Groundwater%20Sampling%20Report%20.pdf","chems":["Vinyl chloride","1,1-Dichloroethane"],"src":"LEGACY","chems_years":{"1,1-Dichloroethane":[2021,2022,2023],"Vinyl chloride":[2022]},"conc_series":{"1,1-Dichloroethane":{"2021":[0.55,"detect"],"2022":[0.71,"detect"],"2023":[0.61,"detect"]},"Vinyl chloride":{"2022":[1.4,"detect"]}}}},{"type":"Feature","geometry":{"type":"Point","coordinates":[-78.999948,43.112145]},"properties":{"well_id":"MW-8DD","site":"Forest Glen Mobile Home Subdivision Superfund Site","well_role":"groundwater monitoring well","data_type":"legacy","n_found":1,"chemicals_found":"Vinyl chloride","latest_year":2022,"latest_detect":2022,"coord_precision":"georeferenced_from_Fig01_aerial_~0.1mi","program_number":"932097","well_desc":"Off-property plume; southeast of the site, south of the railroad yard","source":"Forest Glen Site, Third Quarter 2023 Groundwater Monitoring Results \u2014 Table 1, 2021\u20132023 Groundwater Data","source_url":"https://extapps.dec.ny.gov/data/DecDocs/932097/Report.HW.932097.2023-11-09.Third%20Quarter%202023%20Groundwater%20Sampling%20Report%20.pdf","chems":["Vinyl chloride"],"src":"LEGACY","chems_years":{"Vinyl chloride":[2022]},"conc_series":{"Vinyl chloride":{"2022":[0.9,"detect"]}}}},{"type":"Feature","geometry":{"type":"Point","coordinates":[-78.999941,43.11201]},"properties":{"well_id":"MW-8S","site":"Forest Glen Mobile Home Subdivision Superfund Site","well_role":"groundwater monitoring well","data_type":"legacy","n_found":3,"chemicals_found":"Tetrachloroethene; Trichloroethene; cis-1,2-Dichloroethene","latest_year":2023,"latest_detect":2023,"coord_precision":"georeferenced_from_Fig01_aerial_~0.1mi","program_number":"932097","well_desc":"Off-property plume; southeast of the site, south of the railroad yard","source":"Forest Glen Site, Third Quarter 2023 Groundwater Monitoring Results \u2014 Table 1, 2021\u20132023 Groundwater Data","source_url":"https://extapps.dec.ny.gov/data/DecDocs/932097/Report.HW.932097.2023-11-09.Third%20Quarter%202023%20Groundwater%20Sampling%20Report%20.pdf","chems":["Trichloroethene (TCE)","Tetrachloroethene (PCE)","1,2-Dichloroethene (DCE)"],"src":"LEGACY","chems_years":{"Tetrachloroethene (PCE)":[2021,2022,2023],"Trichloroethene (TCE)":[2021,2022,2023],"1,2-Dichloroethene (DCE)":[2021,2022,2023]},"conc_series":{"Tetrachloroethene (PCE)":{"2021":[0.48,"detect"],"2022":[0.77,"detect"],"2023":[0.38,"detect"]},"Trichloroethene (TCE)":{"2021":[2.7,"detect"],"2022":[3.5,"detect"],"2023":[2.1,"detect"]},"1,2-Dichloroethene (DCE)":{"2021":[2.3,"detect"],"2022":[3.4,"detect"],"2023":[1.9,"detect"]}}}},{"type":"Feature","geometry":{"type":"Point","coordinates":[-78.69097,43.183424]},"properties":{"well_id":"MW-01","site":"Eighteenmile Creek Superfund Site","well_role":"existing monitoring well; completion type unresolved","data_type":"legacy","n_found":0,"chemicals_found":"","latest_year":2019,"latest_detect":null,"coord_precision":"site_centroid_approx","program_number":"932156","well_desc":"Existing east-side Creek Corridor well; exact property label not tabulated in the public report","source":"OU3 Phase II Data Evaluation Report","source_url":"https://extapps.dec.ny.gov/data/DecDocs/932156/Report.HW.932156.2020-04-21.Phase_II_Data_Evaluation_Report_for_OU3.pdf","chems":[],"src":"LEGACY"}},{"type":"Feature","geometry":{"type":"Point","coordinates":[-78.690675,43.183005]},"properties":{"well_id":"MW-02","site":"Eighteenmile Creek Superfund Site","well_role":"existing monitoring well; completion type unresolved","data_type":"legacy","n_found":1,"chemicals_found":"Chloroform","latest_year":2019,"latest_detect":2019,"coord_precision":"site_centroid_approx","program_number":"932156","well_desc":"Existing east-side Creek Corridor well; exact property label not tabulated in the public report","source":"OU3 Phase II Data Evaluation Report","source_url":"https://extapps.dec.ny.gov/data/DecDocs/932156/Report.HW.932156.2020-04-21.Phase_II_Data_Evaluation_Report_for_OU3.pdf","chems":["Chloroform / THMs"],"src":"LEGACY","chems_years":{"Chloroform / THMs":[2019]},"conc_series":{"Chloroform / THMs":{"2019":[2.9,"detect"]}}}},{"type":"Feature","geometry":{"type":"Point","coordinates":[-78.691532,43.183276]},"properties":{"well_id":"MW-04","site":"Eighteenmile Creek Superfund Site","well_role":"existing monitoring well; completion type unresolved","data_type":"legacy","n_found":0,"chemicals_found":"","latest_year":2019,"latest_detect":null,"coord_precision":"site_centroid_approx","program_number":"932156","well_desc":"Existing east-side Creek Corridor well; exact property label not tabulated in the public report","source":"OU3 Phase II Data Evaluation Report","source_url":"https://extapps.dec.ny.gov/data/DecDocs/932156/Report.HW.932156.2020-04-21.Phase_II_Data_Evaluation_Report_for_OU3.pdf","chems":[],"src":"LEGACY"}},{"type":"Feature","geometry":{"type":"Point","coordinates":[-78.690441,43.183536]},"properties":{"well_id":"MW-05","site":"Eighteenmile Creek Superfund Site","well_role":"overburden monitoring well","data_type":"legacy","n_found":4,"chemicals_found":"Arsenic; M,P-Xylene; Vinyl chloride; cis-1,2-Dichloroethene","latest_year":2019,"latest_detect":2019,"coord_precision":"site_centroid_approx","program_number":"932156","well_desc":"United Paperboard property","source":"OU3 Phase I Data Evaluation Report","source_url":"https://extapps.dec.ny.gov/data/DecDocs/932156/Report.HW.932156.2019-03-15.Draft_Final_OU3_Phase_I_Data_Evaluation_Report%20-%20Text%2C%20Tables%2C%20Figures.pdf","chems":["Vinyl chloride","1,2-Dichloroethene (DCE)","Xylene","Arsenic"],"src":"LEGACY","chems_years":{"Xylene":[2018],"Vinyl chloride":[2018],"1,2-Dichloroethene (DCE)":[2018,2019],"Arsenic":[2019]},"conc_series":{"Xylene":{"2018":[0.21,"detect"]},"Vinyl chloride":{"2018":[0.24,"detect"]},"1,2-Dichloroethene (DCE)":{"2018":[14.0,"detect"],"2019":[8.4,"detect"]},"Arsenic":{"2019":[1.8,"detect"]}}}},{"type":"Feature","geometry":{"type":"Point","coordinates":[-78.691102,43.182697]},"properties":{"well_id":"MW-06","site":"Eighteenmile Creek Superfund Site","well_role":"overburden monitoring well","data_type":"legacy","n_found":0,"chemicals_found":"","latest_year":2019,"latest_detect":null,"coord_precision":"site_centroid_approx","program_number":"932156","well_desc":"United Paperboard property","source":"OU3 Phase II Data Evaluation Report","source_url":"https://extapps.dec.ny.gov/data/DecDocs/932156/Report.HW.932156.2020-04-21.Phase_II_Data_Evaluation_Report_for_OU3.pdf","chems":[],"src":"LEGACY"}},{"type":"Feature","geometry":{"type":"Point","coordinates":[-78.691419,43.183754]},"properties":{"well_id":"MW-08","site":"Eighteenmile Creek Superfund Site","well_role":"overburden monitoring well","data_type":"legacy","n_found":0,"chemicals_found":"","latest_year":2019,"latest_detect":null,"coord_precision":"site_centroid_approx","program_number":"932156","well_desc":"United Paperboard property","source":"OU3 Phase II Data Evaluation Report","source_url":"https://extapps.dec.ny.gov/data/DecDocs/932156/Report.HW.932156.2020-04-21.Phase_II_Data_Evaluation_Report_for_OU3.pdf","chems":[],"src":"LEGACY"}},{"type":"Feature","geometry":{"type":"Point","coordinates":[-78.690092,43.183068]},"properties":{"well_id":"MW-09","site":"Eighteenmile Creek Superfund Site","well_role":"bedrock monitoring well","data_type":"legacy","n_found":3,"chemicals_found":"Acetone; Benzene; Carbon disulfide","latest_year":2019,"latest_detect":2018,"coord_precision":"site_centroid_approx","program_number":"932156","well_desc":"Water Street area","source":"OU3 Phase I Data Evaluation Report","source_url":"https://extapps.dec.ny.gov/data/DecDocs/932156/Report.HW.932156.2019-03-15.Draft_Final_OU3_Phase_I_Data_Evaluation_Report%20-%20Text%2C%20Tables%2C%20Figures.pdf","chems":["Carbon disulfide","Acetone / ketones","Benzene"],"src":"LEGACY","chems_years":{"Acetone / ketones":[2018],"Benzene":[2018],"Carbon disulfide":[2018]},"conc_series":{"Acetone / ketones":{"2018":[32.0,"detect"]},"Benzene":{"2018":[0.21,"detect"]},"Carbon disulfide":{"2018":[0.54,"detect"]}}}},{"type":"Feature","geometry":{"type":"Point","coordinates":[-78.691837,43.182912]},"properties":{"well_id":"MW-12","site":"Eighteenmile Creek Superfund Site","well_role":"overburden monitoring well","data_type":"legacy","n_found":1,"chemicals_found":"Carbon disulfide","latest_year":2019,"latest_detect":2019,"coord_precision":"site_centroid_approx","program_number":"932156","well_desc":"White Transportation property","source":"OU3 Phase II Data Evaluation Report","source_url":"https://extapps.dec.ny.gov/data/DecDocs/932156/Report.HW.932156.2020-04-21.Phase_II_Data_Evaluation_Report_for_OU3.pdf","chems":["Carbon disulfide"],"src":"LEGACY","chems_years":{"Carbon disulfide":[2019]},"conc_series":{"Carbon disulfide":{"2019":[0.73,"detect"]}}}},{"type":"Feature","geometry":{"type":"Point","coordinates":[-78.690613,43.183952]},"properties":{"well_id":"MW-13","site":"Eighteenmile Creek Superfund Site","well_role":"overburden monitoring well","data_type":"legacy","n_found":2,"chemicals_found":"Arsenic; Carbon disulfide","latest_year":2019,"latest_detect":2019,"coord_precision":"site_centroid_approx","program_number":"932156","well_desc":"White Transportation property","source":"OU3 Phase II Data Evaluation Report","source_url":"https://extapps.dec.ny.gov/data/DecDocs/932156/Report.HW.932156.2020-04-21.Phase_II_Data_Evaluation_Report_for_OU3.pdf","chems":["Carbon disulfide","Arsenic"],"src":"LEGACY","chems_years":{"Arsenic":[2019],"Carbon disulfide":[2019]},"conc_series":{"Arsenic":{"2019":[5.1,"detect"]},"Carbon disulfide":{"2019":[0.56,"detect"]}}}},{"type":"Feature","geometry":{"type":"Point","coordinates":[-78.690551,43.182499]},"properties":{"well_id":"MW-14","site":"Eighteenmile Creek Superfund Site","well_role":"bedrock monitoring well","data_type":"legacy","n_found":7,"chemicals_found":"1,1-Dichloroethane; Chloroform; M,P-Xylene; Tetrachloroethene; Trichloroethene; cis-1,2-Dichloroethene; trans-1,2-Dichloroethene","latest_year":2019,"latest_detect":2019,"coord_precision":"site_centroid_approx","program_number":"932156","well_desc":"Clinton Street / Upson Park area","source":"Eighteenmile Creek OU3 Revised Proposed Plan","source_url":"https://semspub.epa.gov/work/02/744490.pdf","chems":["Trichloroethene (TCE)","Tetrachloroethene (PCE)","1,1-Dichloroethane","1,2-Dichloroethene (DCE)","Xylene","Chloroform / THMs"],"src":"LEGACY","chems_years":{"Trichloroethene (TCE)":[2007,2018,2019],"1,1-Dichloroethane":[2018],"Chloroform / THMs":[2018,2019],"Xylene":[2018],"Tetrachloroethene (PCE)":[2018,2019],"1,2-Dichloroethene (DCE)":[2018,2019]},"conc_series":{"Trichloroethene (TCE)":{"2007":[20.0,"detect"],"2018":[13.0,"detect"],"2019":[11.0,"detect"]},"1,1-Dichloroethane":{"2018":[0.15,"detect"]},"Chloroform / THMs":{"2018":[0.11,"detect"],"2019":[1.2,"detect"]},"Xylene":{"2018":[0.23,"detect"]},"Tetrachloroethene (PCE)":{"2018":[2.6,"detect"],"2019":[2.2,"detect"]},"1,2-Dichloroethene (DCE)":{"2018":[10.0,"detect"],"2019":[9.2,"detect"]}}}},{"type":"Feature","geometry":{"type":"Point","coordinates":[-78.692017,43.183597]},"properties":{"well_id":"MW-15","site":"Eighteenmile Creek Superfund Site","well_role":"bedrock monitoring well","data_type":"legacy","n_found":3,"chemicals_found":"1,1,1-Trichloroethane; Trichloroethene; cis-1,2-Dichloroethene","latest_year":2019,"latest_detect":2019,"coord_precision":"site_centroid_approx","program_number":"932156","well_desc":"Upson Park","source":"OU3 Phase I Data Evaluation Report","source_url":"https://extapps.dec.ny.gov/data/DecDocs/932156/Report.HW.932156.2019-03-15.Draft_Final_OU3_Phase_I_Data_Evaluation_Report%20-%20Text%2C%20Tables%2C%20Figures.pdf","chems":["Trichloroethene (TCE)","1,1,1-Trichloroethane","1,2-Dichloroethene (DCE)"],"src":"LEGACY","chems_years":{"1,1,1-Trichloroethane":[2018],"Trichloroethene (TCE)":[2018,2019],"1,2-Dichloroethene (DCE)":[2018]},"conc_series":{"1,1,1-Trichloroethane":{"2018":[0.17,"detect"]},"Trichloroethene (TCE)":{"2018":[0.46,"detect"],"2019":[0.57,"detect"]},"1,2-Dichloroethene (DCE)":{"2018":[0.12,"detect"]}}}},{"type":"Feature","geometry":{"type":"Point","coordinates":[-78.689816,43.183504]},"properties":{"well_id":"MW-18","site":"Eighteenmile Creek Superfund Site","well_role":"bedrock monitoring well","data_type":"legacy","n_found":1,"chemicals_found":"Carbon disulfide","latest_year":2019,"latest_detect":2019,"coord_precision":"site_centroid_approx","program_number":"932156","well_desc":"Jackson Street area","source":"OU3 Phase II Data Evaluation Report","source_url":"https://extapps.dec.ny.gov/data/DecDocs/932156/Report.HW.932156.2020-04-21.Phase_II_Data_Evaluation_Report_for_OU3.pdf","chems":["Carbon disulfide"],"src":"LEGACY","chems_years":{"Carbon disulfide":[2019]},"conc_series":{"Carbon disulfide":{"2019":[0.9,"detect"]}}}},{"type":"Feature","geometry":{"type":"Point","coordinates":[-78.691602,43.182445]},"properties":{"well_id":"MW-19","site":"Eighteenmile Creek Superfund Site","well_role":"bedrock monitoring well","data_type":"legacy","n_found":21,"chemicals_found":"2-Butanone; 2-Hexanone; Acetone; Arsenic; Barium; Benzene; Beryllium; Cadmium; Carbon disulfide; Chloroethane; Chloroform; Chloromethane; Chromium; Cobalt; Copper; Lead; Nickel; Selenium; Thallium; Vanadium; Zinc","latest_year":2019,"latest_detect":2019,"coord_precision":"site_centroid_approx","program_number":"932156","well_desc":"Clinton Street area","source":"OU3 Phase I Data Evaluation Report","source_url":"https://extapps.dec.ny.gov/data/DecDocs/932156/Report.HW.932156.2019-03-15.Draft_Final_OU3_Phase_I_Data_Evaluation_Report%20-%20Text%2C%20Tables%2C%20Figures.pdf","chems":["Chloroethane / -methane","Carbon disulfide","Acetone / ketones","Benzene","Chloroform / THMs","Arsenic","Lead","Chromium","Cadmium","Nickel","Copper","Zinc","Barium","Beryllium","Cobalt","Selenium","Thallium","Vanadium"],"src":"LEGACY","chems_years":{"Acetone / ketones":[2018,2019],"Benzene":[2018],"Carbon disulfide":[2018],"Chloroethane / -methane":[2018],"Chloroform / THMs":[2018],"Arsenic":[2018,2019],"Barium":[2018],"Beryllium":[2018],"Cadmium":[2018],"Chromium":[2018],"Cobalt":[2018],"Copper":[2018],"Lead":[2018],"Nickel":[2018],"Selenium":[2018],"Thallium":[2018],"Zinc":[2018],"Vanadium":[2018]},"conc_series":{"Acetone / ketones":{"2018":[290.0,"detect"],"2019":[970.0,"detect"]},"Benzene":{"2018":[0.3,"detect"]},"Carbon disulfide":{"2018":[0.56,"detect"]},"Chloroethane / -methane":{"2018":[0.43,"detect"]},"Chloroform / THMs":{"2018":[0.7,"detect"]},"Arsenic":{"2018":[25.5,"detect"],"2019":[5.8,"detect"]},"Barium":{"2018":[242.0,"detect"]},"Beryllium":{"2018":[0.5,"detect"]},"Cadmium":{"2018":[1.0,"detect"]},"Chromium":{"2018":[54.6,"detect"]},"Cobalt":{"2018":[3.6,"detect"]},"Copper":{"2018":[44.7,"detect"]},"Lead":{"2018":[300.0,"detect"]},"Nickel":{"2018":[34.9,"detect"]},"Selenium":{"2018":[3.2,"detect"]},"Thallium":{"2018":[0.24,"detect"]},"Zinc":{"2018":[48.0,"detect"]},"Vanadium":{"2018":[13.5,"detect"]}}}},{"type":"Feature","geometry":{"type":"Point","coordinates":[-78.691252,43.184173]},"properties":{"well_id":"MW-20","site":"Eighteenmile Creek Superfund Site","well_role":"overburden monitoring well","data_type":"legacy","n_found":13,"chemicals_found":"1,1-Dichloroethene; Arsenic; Barium; Benzene; Carbon disulfide; Chromium; Cobalt; Gamma-BHC (Lindane); Nickel; Vinyl chloride; Zinc; cis-1,2-Dichloroethene; trans-1,2-Dichloroethene","latest_year":2019,"latest_detect":2019,"coord_precision":"site_centroid_approx","program_number":"932156","well_desc":"New York State Canal Corporation property, contaminant-pathway area","source":"OU3 Phase I Data Evaluation Report","source_url":"https://extapps.dec.ny.gov/data/DecDocs/932156/Report.HW.932156.2019-03-15.Draft_Final_OU3_Phase_I_Data_Evaluation_Report%20-%20Text%2C%20Tables%2C%20Figures.pdf","chems":["Vinyl chloride","1,1-Dichloroethene","1,2-Dichloroethene (DCE)","Carbon disulfide","Benzene","Lindane / BHC","Arsenic","Chromium","Nickel","Zinc","Barium","Cobalt"],"src":"LEGACY","chems_years":{"1,1-Dichloroethene":[2018],"Arsenic":[2018,2019],"Barium":[2018],"Benzene":[2018],"Carbon disulfide":[2018],"Chromium":[2018],"Cobalt":[2018],"Lindane / BHC":[2018],"Nickel":[2018],"Vinyl chloride":[2018,2019],"Zinc":[2018],"1,2-Dichloroethene (DCE)":[2018,2019]},"conc_series":{"1,1-Dichloroethene":{"2018":[0.1,"detect"]},"Arsenic":{"2018":[3.3,"detect"],"2019":[3.0,"detect"]},"Barium":{"2018":[90.4,"detect"]},"Benzene":{"2018":[0.13,"detect"]},"Carbon disulfide":{"2018":[0.16,"detect"]},"Chromium":{"2018":[0.24,"detect"]},"Cobalt":{"2018":[0.97,"detect"]},"Lindane / BHC":{"2018":[0.006,"detect"]},"Nickel":{"2018":[3.0,"detect"]},"Vinyl chloride":{"2018":[2.2,"detect"],"2019":[5.2,"detect"]},"Zinc":{"2018":[2.2,"detect"]},"1,2-Dichloroethene (DCE)":{"2018":[8.6,"detect"],"2019":[14.0,"detect"]}}}},{"type":"Feature","geometry":{"type":"Point","coordinates":[-78.689859,43.182671]},"properties":{"well_id":"MW-21","site":"Eighteenmile Creek Superfund Site","well_role":"overburden monitoring well","data_type":"legacy","n_found":4,"chemicals_found":"Acenaphthene; Arsenic; Barium; Zinc","latest_year":2019,"latest_detect":2019,"coord_precision":"site_centroid_approx","program_number":"932156","well_desc":"New York State Canal Corporation property, pathway/tip area","source":"OU3 Phase I Data Evaluation Report","source_url":"https://extapps.dec.ny.gov/data/DecDocs/932156/Report.HW.932156.2019-03-15.Draft_Final_OU3_Phase_I_Data_Evaluation_Report%20-%20Text%2C%20Tables%2C%20Figures.pdf","chems":["PAHs (other)","Arsenic","Zinc","Barium"],"src":"LEGACY","chems_years":{"PAHs (other)":[2018],"Arsenic":[2018,2019],"Barium":[2018],"Zinc":[2018]},"conc_series":{"PAHs (other)":{"2018":[0.19,"detect"]},"Arsenic":{"2018":[1.5,"detect"],"2019":[1.4,"detect"]},"Barium":{"2018":[107.0,"detect"]},"Zinc":{"2018":[2.2,"detect"]}}}},{"type":"Feature","geometry":{"type":"Point","coordinates":[-78.692362,43.183108]},"properties":{"well_id":"MW-22","site":"Eighteenmile Creek Superfund Site","well_role":"overburden monitoring well","data_type":"legacy","n_found":8,"chemicals_found":"Arsenic; Barium; Carbon disulfide; Cobalt; Copper; Gamma-BHC (Lindane); Nickel; Phenanthrene","latest_year":2019,"latest_detect":2018,"coord_precision":"site_centroid_approx","program_number":"932156","well_desc":"New York State Canal Corporation property, upgradient area","source":"OU3 Phase I Data Evaluation Report","source_url":"https://extapps.dec.ny.gov/data/DecDocs/932156/Report.HW.932156.2019-03-15.Draft_Final_OU3_Phase_I_Data_Evaluation_Report%20-%20Text%2C%20Tables%2C%20Figures.pdf","chems":["Carbon disulfide","PAHs (other)","Lindane / BHC","Arsenic","Nickel","Copper","Barium","Cobalt"],"src":"LEGACY","chems_years":{"Arsenic":[2018],"Barium":[2018],"Carbon disulfide":[2018],"Cobalt":[2018],"Copper":[2018],"Lindane / BHC":[2018],"Nickel":[2018],"PAHs (other)":[2018]},"conc_series":{"Arsenic":{"2018":[0.59,"detect"]},"Barium":{"2018":[225.0,"detect"]},"Carbon disulfide":{"2018":[0.32,"detect"]},"Cobalt":{"2018":[0.77,"detect"]},"Copper":{"2018":[2.2,"detect"]},"Lindane / BHC":{"2018":[0.0088,"detect"]},"Nickel":{"2018":[3.2,"detect"]},"PAHs (other)":{"2018":[0.03,"detect"]}}}},{"type":"Feature","geometry":{"type":"Point","coordinates":[-78.690037,43.184048]},"properties":{"well_id":"MW-23","site":"Eighteenmile Creek Superfund Site","well_role":"overburden monitoring well","data_type":"legacy","n_found":8,"chemicals_found":"1,1-Dichloroethane; Arsenic; Barium; Cobalt; Lead; Nickel; Vinyl chloride; cis-1,2-Dichloroethene","latest_year":2019,"latest_detect":2019,"coord_precision":"site_centroid_approx","program_number":"932156","well_desc":"New York State Canal Corporation property, pathway/dry-dock area","source":"OU3 Phase I Data Evaluation Report","source_url":"https://extapps.dec.ny.gov/data/DecDocs/932156/Report.HW.932156.2019-03-15.Draft_Final_OU3_Phase_I_Data_Evaluation_Report%20-%20Text%2C%20Tables%2C%20Figures.pdf","chems":["Vinyl chloride","1,1-Dichloroethane","1,2-Dichloroethene (DCE)","Arsenic","Lead","Nickel","Barium","Cobalt"],"src":"LEGACY","chems_years":{"1,1-Dichloroethane":[2018],"Arsenic":[2018,2019],"Barium":[2018],"Cobalt":[2018],"Lead":[2018],"Nickel":[2018],"Vinyl chloride":[2018,2019],"1,2-Dichloroethene (DCE)":[2018,2019]},"conc_series":{"1,1-Dichloroethane":{"2018":[0.27,"detect"]},"Arsenic":{"2018":[7.5,"detect"],"2019":[17.0,"detect"]},"Barium":{"2018":[141.0,"detect"]},"Cobalt":{"2018":[0.38,"detect"]},"Lead":{"2018":[0.15,"detect"]},"Nickel":{"2018":[1.6,"detect"]},"Vinyl chloride":{"2018":[0.72,"detect"],"2019":[1.4,"detect"]},"1,2-Dichloroethene (DCE)":{"2018":[2.4,"detect"],"2019":[2.1,"detect"]}}}},{"type":"Feature","geometry":{"type":"Point","coordinates":[-78.985832,43.211388]},"properties":{"well_id":"MW921","site":"Niagara Falls Storage Site","well_role":"permanent monitoring well","data_type":"legacy","n_found":11,"chemicals_found":"Antimony; Arsenic; Barium; Chromium; Nickel; Selenium; Thallium; Uranium-233/234; Uranium-235/236; Uranium-238; Zinc","latest_year":2009,"latest_detect":2009,"coord_precision":"site_map_relative_~0.2mi","program_number":"LOOW","well_desc":"Northwest edge of NFSS, west side of Evaluation Unit 1","source":"Niagara Falls Storage Site Remedial Investigation Report Addendum: Validated Radiological & Chemical Data","source_url":"https://usace.contentdm.oclc.org/utils/getfile/collection/p16021coll7/id/27306","chems":["Arsenic","Chromium","Nickel","Zinc","Antimony","Barium","Selenium","Thallium","Uranium"],"src":"LEGACY","chems_years":{"Antimony":[2009],"Arsenic":[2009],"Barium":[2009],"Chromium":[2009],"Nickel":[2009],"Selenium":[2009],"Thallium":[2009],"Zinc":[2009],"Uranium":[2009]},"conc_series":{"Antimony":{"2009":[4.98,"detect"]},"Arsenic":{"2009":[9.05,"detect"]},"Barium":{"2009":[5.97,"detect"]},"Chromium":{"2009":[3.09,"detect"]},"Nickel":{"2009":[8.45,"detect"]},"Selenium":{"2009":[1.31,"detect"]},"Thallium":{"2009":[0.393,"detect"]},"Zinc":{"2009":[14.5,"detect"]},"Uranium":{"2009":[14.5,"detect"]}},"conc_units":{"Uranium":"pCi/L"}}},{"type":"Feature","geometry":{"type":"Point","coordinates":[-78.985184,43.21125]},"properties":{"well_id":"MW922","site":"Niagara Falls Storage Site","well_role":"permanent monitoring well","data_type":"legacy","n_found":13,"chemicals_found":"Barium; Chromium; Lead; Nickel; Radium-226; Selenium; Thorium-228; Thorium-230; Thorium-232; Uranium-233/234; Uranium-235/236; Uranium-238; Zinc","latest_year":2009,"latest_detect":2009,"coord_precision":"site_map_relative_~0.2mi","program_number":"LOOW","well_desc":"Northern edge of Evaluation Unit 1, east of MW921","source":"Niagara Falls Storage Site Remedial Investigation Report Addendum: Validated Radiological & Chemical Data","source_url":"https://usace.contentdm.oclc.org/utils/getfile/collection/p16021coll7/id/27306","chems":["Lead","Chromium","Nickel","Zinc","Barium","Selenium","Uranium","Thorium","Radium / Radon"],"src":"LEGACY","chems_years":{"Barium":[2009],"Chromium":[2009],"Lead":[2009],"Nickel":[2009],"Selenium":[2009],"Zinc":[2009],"Radium / Radon":[2009],"Thorium":[2009],"Uranium":[2009]},"conc_series":{"Barium":{"2009":[12.7,"detect"]},"Chromium":{"2009":[2.55,"detect"]},"Lead":{"2009":[1.69,"detect"]},"Nickel":{"2009":[9.77,"detect"]},"Selenium":{"2009":[1.71,"detect"]},"Zinc":{"2009":[53.4,"detect"]},"Radium / Radon":{"2009":[0.623,"detect"]},"Thorium":{"2009":[0.323,"detect"]},"Uranium":{"2009":[12.3,"detect"]}},"conc_units":{"Radium / Radon":"pCi/L","Thorium":"pCi/L","Uranium":"pCi/L"}}},{"type":"Feature","geometry":{"type":"Point","coordinates":[-78.984625,43.211246]},"properties":{"well_id":"MW923","site":"Niagara Falls Storage Site","well_role":"permanent monitoring well","data_type":"legacy","n_found":10,"chemicals_found":"Arsenic; Barium; Chromium; Lead; Nickel; Selenium; Uranium-233/234; Uranium-235/236; Uranium-238; Zinc","latest_year":2009,"latest_detect":2009,"coord_precision":"site_map_relative_~0.2mi","program_number":"LOOW","well_desc":"Northern edge of Evaluation Unit 1, east of MW922","source":"Niagara Falls Storage Site Remedial Investigation Report Addendum: Validated Radiological & Chemical Data","source_url":"https://usace.contentdm.oclc.org/utils/getfile/collection/p16021coll7/id/27306","chems":["Arsenic","Lead","Chromium","Nickel","Zinc","Barium","Selenium","Uranium"],"src":"LEGACY","chems_years":{"Arsenic":[2009],"Barium":[2009],"Chromium":[2009],"Lead":[2009],"Nickel":[2009],"Selenium":[2009],"Zinc":[2009],"Uranium":[2009]},"conc_series":{"Arsenic":{"2009":[8.35,"detect"]},"Barium":{"2009":[14.6,"detect"]},"Chromium":{"2009":[4.39,"detect"]},"Lead":{"2009":[0.617,"detect"]},"Nickel":{"2009":[10.5,"detect"]},"Selenium":{"2009":[1.62,"detect"]},"Zinc":{"2009":[16.5,"detect"]},"Uranium":{"2009":[13.7,"detect"]}},"conc_units":{"Uranium":"pCi/L"}}},{"type":"Feature","geometry":{"type":"Point","coordinates":[-78.977385,43.210618]},"properties":{"well_id":"MW930","site":"Niagara Falls Storage Site","well_role":"permanent monitoring well","data_type":"legacy","n_found":10,"chemicals_found":"Barium; Nickel; Radium-226; Tetrachloroethylene; Trichloroethylene; Uranium-233/234; Uranium-235/236; Uranium-238; Zinc; cis-1,2-Dichloroethylene","latest_year":2009,"latest_detect":2009,"coord_precision":"site_map_relative_~0.2mi","program_number":"LOOW","well_desc":"North-central NFSS, former-building cluster within Evaluation Unit 4","source":"Niagara Falls Storage Site Remedial Investigation Report Addendum: Validated Radiological & Chemical Data","source_url":"https://usace.contentdm.oclc.org/utils/getfile/collection/p16021coll7/id/27306","chems":["Trichloroethene (TCE)","Tetrachloroethene (PCE)","1,2-Dichloroethene (DCE)","Nickel","Zinc","Barium","Uranium","Radium / Radon"],"src":"LEGACY","chems_years":{"Barium":[2009],"Nickel":[2009],"Zinc":[2009],"Radium / Radon":[2009],"Uranium":[2009],"Tetrachloroethene (PCE)":[2009],"Trichloroethene (TCE)":[2009],"1,2-Dichloroethene (DCE)":[2009]},"conc_series":{"Barium":{"2009":[20.1,"detect"]},"Nickel":{"2009":[5.4,"detect"]},"Zinc":{"2009":[4.32,"detect"]},"Radium / Radon":{"2009":[0.562,"detect"]},"Uranium":{"2009":[6.39,"detect"]},"Tetrachloroethene (PCE)":{"2009":[64200.0,"detect"]},"Trichloroethene (TCE)":{"2009":[9860.0,"detect"]},"1,2-Dichloroethene (DCE)":{"2009":[670.0,"detect"]}},"conc_units":{"Radium / Radon":"pCi/L","Uranium":"pCi/L"}}},{"type":"Feature","geometry":{"type":"Point","coordinates":[-78.977252,43.211029]},"properties":{"well_id":"MW934","site":"Niagara Falls Storage Site","well_role":"permanent monitoring well","data_type":"legacy","n_found":12,"chemicals_found":"Arsenic; Barium; Chloroform; Chromium; Lead; Nickel; Radium-226; Radium-228; Uranium-233/234; Uranium-235/236; Uranium-238; Zinc","latest_year":2009,"latest_detect":2009,"coord_precision":"site_map_relative_~0.2mi","program_number":"LOOW","well_desc":"North-central NFSS boundary, west of MW930","source":"Niagara Falls Storage Site Remedial Investigation Report Addendum: Validated Radiological & Chemical Data","source_url":"https://usace.contentdm.oclc.org/utils/getfile/collection/p16021coll7/id/27306","chems":["Chloroform / THMs","Arsenic","Lead","Chromium","Nickel","Zinc","Barium","Uranium","Radium / Radon"],"src":"LEGACY","chems_years":{"Arsenic":[2009],"Barium":[2009],"Chromium":[2009],"Lead":[2009],"Nickel":[2009],"Zinc":[2009],"Radium / Radon":[2009],"Uranium":[2009],"Chloroform / THMs":[2009]},"conc_series":{"Arsenic":{"2009":[2.68,"detect"]},"Barium":{"2009":[17.0,"detect"]},"Chromium":{"2009":[2.19,"detect"]},"Lead":{"2009":[0.678,"detect"]},"Nickel":{"2009":[8.27,"detect"]},"Zinc":{"2009":[30.5,"detect"]},"Radium / Radon":{"2009":[1.6,"detect"]},"Uranium":{"2009":[11.7,"detect"]},"Chloroform / THMs":{"2009":[3.61,"detect"]}},"conc_units":{"Radium / Radon":"pCi/L","Uranium":"pCi/L"}}},{"type":"Feature","geometry":{"type":"Point","coordinates":[-78.984259,43.208385]},"properties":{"well_id":"MW935","site":"Niagara Falls Storage Site","well_role":"permanent monitoring well","data_type":"legacy","n_found":12,"chemicals_found":"Aldrin; Barium; Chromium; Endosulfan I; Nickel; Radium-226; Thallium; Thorium-232; Uranium-233/234; Uranium-235/236; Uranium-238; Zinc","latest_year":2009,"latest_detect":2009,"coord_precision":"site_map_relative_~0.2mi","program_number":"LOOW","well_desc":"Western NFSS boundary near Evaluation Units 7 and 9","source":"Niagara Falls Storage Site Remedial Investigation Report Addendum: Validated Radiological & Chemical Data","source_url":"https://usace.contentdm.oclc.org/utils/getfile/collection/p16021coll7/id/27306","chems":["Aldrin","Endosulfan","Chromium","Nickel","Zinc","Barium","Thallium","Uranium","Thorium","Radium / Radon"],"src":"LEGACY","chems_years":{"Barium":[2009],"Chromium":[2009],"Nickel":[2009],"Thallium":[2009],"Zinc":[2009],"Aldrin":[2009],"Endosulfan":[2009],"Radium / Radon":[2009],"Thorium":[2009],"Uranium":[2009]},"conc_series":{"Barium":{"2009":[5.98,"detect"]},"Chromium":{"2009":[4.05,"detect"]},"Nickel":{"2009":[9.75,"detect"]},"Thallium":{"2009":[0.39,"detect"]},"Zinc":{"2009":[34.2,"detect"]},"Aldrin":{"2009":[0.0238,"detect"]},"Endosulfan":{"2009":[0.0409,"detect"]},"Radium / Radon":{"2009":[0.392,"detect"]},"Thorium":{"2009":[0.0964,"detect"]},"Uranium":{"2009":[12.6,"detect"]}},"conc_units":{"Radium / Radon":"pCi/L","Thorium":"pCi/L","Uranium":"pCi/L"}}},{"type":"Feature","geometry":{"type":"Point","coordinates":[-78.98383,43.208096]},"properties":{"well_id":"MW936","site":"Niagara Falls Storage Site","well_role":"permanent monitoring well","data_type":"legacy","n_found":9,"chemicals_found":"Barium; Cadmium; Chromium; Nickel; Radium-226; Uranium-233/234; Uranium-235/236; Uranium-238; Zinc","latest_year":2009,"latest_detect":2009,"coord_precision":"site_map_relative_~0.2mi","program_number":"LOOW","well_desc":"West side of NFSS near Evaluation Unit 7","source":"Niagara Falls Storage Site Remedial Investigation Report Addendum: Validated Radiological & Chemical Data","source_url":"https://usace.contentdm.oclc.org/utils/getfile/collection/p16021coll7/id/27306","chems":["Chromium","Cadmium","Nickel","Zinc","Barium","Uranium","Radium / Radon"],"src":"LEGACY","chems_years":{"Barium":[2009],"Cadmium":[2009],"Chromium":[2009],"Nickel":[2009],"Zinc":[2009],"Radium / Radon":[2009],"Uranium":[2009]},"conc_series":{"Barium":{"2009":[10.8,"detect"]},"Cadmium":{"2009":[0.152,"detect"]},"Chromium":{"2009":[4.6,"detect"]},"Nickel":{"2009":[16.6,"detect"]},"Zinc":{"2009":[21.3,"detect"]},"Radium / Radon":{"2009":[0.48,"detect"]},"Uranium":{"2009":[20.9,"detect"]}},"conc_units":{"Radium / Radon":"pCi/L","Uranium":"pCi/L"}}},{"type":"Feature","geometry":{"type":"Point","coordinates":[-78.984283,43.207018]},"properties":{"well_id":"MW938","site":"Niagara Falls Storage Site","well_role":"permanent monitoring well","data_type":"legacy","n_found":12,"chemicals_found":"Antimony; Arsenic; Barium; Cadmium; Chromium; Lead; Nickel; Radium-226; Uranium-233/234; Uranium-235/236; Uranium-238; Zinc","latest_year":2009,"latest_detect":2009,"coord_precision":"site_map_relative_~0.2mi","program_number":"LOOW","well_desc":"Western NFSS boundary, central portion of Evaluation Unit 9","source":"Niagara Falls Storage Site Remedial Investigation Report Addendum: Validated Radiological & Chemical Data","source_url":"https://usace.contentdm.oclc.org/utils/getfile/collection/p16021coll7/id/27306","chems":["Arsenic","Lead","Chromium","Cadmium","Nickel","Zinc","Antimony","Barium","Uranium","Radium / Radon"],"src":"LEGACY","chems_years":{"Antimony":[2009],"Arsenic":[2009],"Barium":[2009],"Cadmium":[2009],"Chromium":[2009],"Lead":[2009],"Nickel":[2009],"Zinc":[2009],"Radium / Radon":[2009],"Uranium":[2009]},"conc_series":{"Antimony":{"2009":[5.71,"detect"]},"Arsenic":{"2009":[3.48,"detect"]},"Barium":{"2009":[18.2,"detect"]},"Cadmium":{"2009":[0.361,"detect"]},"Chromium":{"2009":[7.38,"detect"]},"Lead":{"2009":[0.622,"detect"]},"Nickel":{"2009":[10.9,"detect"]},"Zinc":{"2009":[10.8,"detect"]},"Radium / Radon":{"2009":[0.565,"detect"]},"Uranium":{"2009":[9.4,"detect"]}},"conc_units":{"Radium / Radon":"pCi/L","Uranium":"pCi/L"}}},{"type":"Feature","geometry":{"type":"Point","coordinates":[-78.984324,43.205192]},"properties":{"well_id":"MW941","site":"Niagara Falls Storage Site","well_role":"permanent monitoring well","data_type":"legacy","n_found":10,"chemicals_found":"Barium; Chromium; Lead; Nickel; Radium-228; Thallium; Uranium-233/234; Uranium-235/236; Uranium-238; Zinc","latest_year":2009,"latest_detect":2009,"coord_precision":"site_map_relative_~0.2mi","program_number":"LOOW","well_desc":"Western NFSS boundary, south of the Interim Waste Containment Structure","source":"Niagara Falls Storage Site Remedial Investigation Report Addendum: Validated Radiological & Chemical Data","source_url":"https://usace.contentdm.oclc.org/utils/getfile/collection/p16021coll7/id/27306","chems":["Lead","Chromium","Nickel","Zinc","Barium","Thallium","Uranium","Radium / Radon"],"src":"LEGACY","chems_years":{"Barium":[2009],"Chromium":[2009],"Lead":[2009],"Nickel":[2009],"Thallium":[2009],"Zinc":[2009],"Radium / Radon":[2009],"Uranium":[2009]},"conc_series":{"Barium":{"2009":[9.92,"detect"]},"Chromium":{"2009":[3.93,"detect"]},"Lead":{"2009":[0.552,"detect"]},"Nickel":{"2009":[4.99,"detect"]},"Thallium":{"2009":[0.303,"detect"]},"Zinc":{"2009":[5.44,"detect"]},"Radium / Radon":{"2009":[0.624,"detect"]},"Uranium":{"2009":[4.08,"detect"]}},"conc_units":{"Radium / Radon":"pCi/L","Uranium":"pCi/L"}}},{"type":"Feature","geometry":{"type":"Point","coordinates":[-78.983026,43.204778]},"properties":{"well_id":"MW943","site":"Niagara Falls Storage Site","well_role":"permanent monitoring well","data_type":"legacy","n_found":10,"chemicals_found":"Arsenic; Barium; Chromium; Nickel; Radium-226; Thorium-232; Uranium-233/234; Uranium-235/236; Uranium-238; Zinc","latest_year":2009,"latest_detect":2009,"coord_precision":"site_map_relative_~0.2mi","program_number":"LOOW","well_desc":"Southwestern/central NFSS near former Building 409, east of MW941","source":"Niagara Falls Storage Site Remedial Investigation Report Addendum: Validated Radiological & Chemical Data","source_url":"https://usace.contentdm.oclc.org/utils/getfile/collection/p16021coll7/id/27306","chems":["Arsenic","Chromium","Nickel","Zinc","Barium","Uranium","Thorium","Radium / Radon"],"src":"LEGACY","chems_years":{"Arsenic":[2009],"Barium":[2009],"Chromium":[2009],"Nickel":[2009],"Zinc":[2009],"Radium / Radon":[2009],"Thorium":[2009],"Uranium":[2009]},"conc_series":{"Arsenic":{"2009":[3.3,"detect"]},"Barium":{"2009":[19.2,"detect"]},"Chromium":{"2009":[4.05,"detect"]},"Nickel":{"2009":[7.98,"detect"]},"Zinc":{"2009":[19.9,"detect"]},"Radium / Radon":{"2009":[1.34,"detect"]},"Thorium":{"2009":[0.0634,"detect"]},"Uranium":{"2009":[8.23,"detect"]}},"conc_units":{"Radium / Radon":"pCi/L","Thorium":"pCi/L","Uranium":"pCi/L"}}}]}