{"type":"FeatureCollection","features":[{"type":"Feature","geometry":{"type":"Point","coordinates":[-78.949705,43.081935]},"properties":{"well_id":"PC-2A","kind":"Pump Chamber","site":"Love Canal","src":"LC_INFRA"}},{"type":"Feature","geometry":{"type":"Point","coordinates":[-78.949028,43.081925]},"properties":{"well_id":"PC-1A","kind":"Pump Chamber","site":"Love Canal","src":"LC_INFRA"}},{"type":"Feature","geometry":{"type":"Point","coordinates":[-78.949717,43.079635]},"properties":{"well_id":"PC-3A","kind":"Leachate Tank","site":"Love Canal","src":"LC_INFRA"}},{"type":"Feature","geometry":{"type":"Point","coordinates":[-78.949766,43.077368]},"properties":{"well_id":"PC-2","kind":"Pump Chamber","site":"Love Canal","src":"LC_INFRA"}},{"type":"Feature","geometry":{"type":"Point","coordinates":[-78.949776,43.077219]},"properties":{"well_id":"PC-3","kind":"Leachate Tank","site":"Love Canal","src":"LC_INFRA"}},{"type":"Feature","geometry":{"type":"Point","coordinates":[-78.948723,43.077306]},"properties":{"well_id":"PC-1","kind":"Pump Chamber","site":"Love Canal","src":"LC_INFRA"}}]}