{"type":"FeatureCollection","features":[{"type":"Feature","geometry":{"type":"Point","coordinates":[-78.948936,43.085075]},"properties":{"well_id":"1183","kind":"Piezometer","site":"Love Canal","src":"LC_PIEZO","water_series":{"Glacial Till":{"2015-03-02":563.42,"2015-06-01":563.87,"2015-09-02":564.26,"2015-12-01":564.11,"2016-03-02":564.27,"2016-06-08":564.13,"2016-09-06":563.53,"2016-12-05":563.02,"2017-03-02":563.55,"2017-06-09":564.54,"2017-09-07":564.61,"2017-12-07":564.75,"2019-03-05":564.62,"2019-06-04":564.52,"2019-09-03":564.2,"2019-11-19":564.33,"2022-06-01":564.33,"2022-09-15":564.02,"2022-12-02":564.25},"Fractured Clay":{"2015-03-02":567.62,"2015-06-01":567.44,"2015-09-02":567.21,"2015-12-01":567.43,"2016-03-02":567.64,"2016-06-08":567.04,"2016-09-06":565.6,"2016-12-05":565.9,"2017-03-02":567.55,"2017-06-09":567.65,"2017-09-07":567.29,"2017-12-07":567.44,"2019-03-05":567.92,"2019-06-04":567.23,"2019-09-03":566.4,"2019-11-19":566.81,"2022-03-03":567.61,"2022-06-01":566.26,"2022-09-15":566.08,"2022-12-02":566.7},"Silty Sand/Fill":{"2015-03-02":566.69,"2015-06-01":566.83,"2015-09-02":566.67,"2015-12-01":566.84,"2016-03-02":566.82,"2016-06-08":566.74,"2016-09-06":566.66,"2016-12-05":566.77,"2017-03-02":566.79,"2017-06-09":566.83,"2017-09-07":566.92,"2017-12-07":566.83,"2019-03-05":566.96,"2019-06-04":566.76,"2019-11-19":566.8,"2022-03-03":566.83,"2022-06-01":566.84,"2022-09-15":566.71,"2022-12-02":566.9}},"n_readings":58,"media":["Fractured Clay","Glacial Till","Silty Sand/Fill"]}},{"type":"Feature","geometry":{"type":"Point","coordinates":[-78.94841,43.085572]},"properties":{"well_id":"1184","kind":"Piezometer","site":"Love Canal","src":"LC_PIEZO","water_series":{"Glacial Till":{"2015-03-02":563.48,"2015-06-01":564.28,"2015-09-02":564.05,"2015-12-01":563.54,"2016-03-02":564.49,"2016-06-08":564.15,"2016-09-06":563.33,"2016-12-05":563.11,"2017-03-02":564.02,"2017-06-09":564.31,"2017-09-07":564.43,"2017-12-07":564.5,"2019-03-05":564.69,"2019-06-04":565.04,"2019-09-03":564.4,"2019-11-19":564.25,"2022-06-01":564.43,"2022-09-15":563.74,"2022-12-02":564.29},"Soft Clay":{"2015-03-02":564.39,"2015-06-01":564.46,"2015-09-02":563.76,"2015-12-01":563.56,"2016-03-02":564.86,"2016-06-08":564.25,"2016-09-06":562.98,"2016-12-05":562.65,"2017-03-02":564.14,"2017-06-09":564.53,"2017-09-07":564.4,"2017-12-07":564.5,"2019-03-05":565.0,"2019-06-04":564.97,"2019-09-03":564.17,"2019-11-19":564.36,"2022-03-03":565.07,"2022-06-01":564.71,"2022-09-15":563.96,"2022-12-02":564.59},"Fractured Clay":{"2015-03-02":567.77,"2015-06-01":567.92,"2015-09-02":567.27,"2015-12-01":567.28,"2016-03-02":568.93,"2016-06-08":567.57,"2016-09-06":560.0,"2016-12-05":560.0,"2017-03-02":569.33,"2017-06-09":567.98,"2017-09-07":560.0,"2017-12-07":568.02,"2019-03-05":568.49,"2019-06-04":568.05,"2019-09-03":560.0,"2019-11-19":560.0,"2022-03-03":568.22,"2022-06-01":562.7,"2022-09-15":560.0,"2022-12-02":582.8}},"n_readings":59,"media":["Fractured Clay","Glacial Till","Soft Clay"]}},{"type":"Feature","geometry":{"type":"Point","coordinates":[-78.949181,43.084802]},"properties":{"well_id":"1180","kind":"Piezometer","site":"Love Canal","src":"LC_PIEZO","water_series":{"Glacial Till":{"2015-03-02":562.86,"2015-06-01":563.06,"2015-09-02":563.04,"2015-12-01":562.86,"2016-03-02":563.04,"2016-06-08":563.12,"2016-09-06":562.75,"2016-12-05":562.55,"2017-03-02":562.65,"2017-06-09":563.24,"2017-09-07":563.22,"2017-12-07":563.31,"2019-03-05":563.26,"2019-06-04":563.48,"2019-09-03":563.27,"2019-11-19":563.41,"2022-06-01":563.41,"2022-09-15":563.11,"2022-12-02":563.12},"Soft Clay":{"2015-03-02":561.0,"2015-06-01":560.89,"2015-09-02":561.04,"2015-12-01":561.02,"2016-03-02":561.09,"2016-06-08":560.98,"2016-09-06":561.0,"2016-12-05":560.98,"2017-03-02":561.01,"2017-06-09":561.05,"2017-09-07":561.16,"2017-12-07":561.27,"2019-03-05":561.05,"2019-06-04":561.05,"2019-09-03":561.04,"2019-11-19":561.25,"2022-03-03":561.34,"2022-06-01":561.02,"2022-09-15":561.06,"2022-12-02":561.23}},"n_readings":39,"media":["Glacial Till","Soft Clay"]}},{"type":"Feature","geometry":{"type":"Point","coordinates":[-78.948959,43.084945]},"properties":{"well_id":"1181","kind":"Piezometer","site":"Love Canal","src":"LC_PIEZO","water_series":{"Glacial Till":{"2015-03-02":568.02,"2015-06-01":567.52,"2015-09-02":566.99,"2015-12-01":567.67,"2016-03-02":569.18,"2016-06-08":567.31,"2016-09-06":566.26,"2016-12-05":567.72,"2017-03-02":568.78,"2017-06-09":567.75,"2017-09-07":567.57,"2017-12-07":568.36,"2019-03-05":568.24,"2019-06-04":568.29,"2019-09-03":566.83,"2019-11-19":569.1,"2022-06-01":567.11,"2022-09-15":566.16,"2022-12-02":569.08},"Soft Clay":{"2015-03-02":566.17,"2015-06-01":566.27,"2015-09-02":566.22,"2015-12-01":566.44,"2016-03-02":567.26,"2016-06-08":566.21,"2016-09-06":565.68,"2016-12-05":565.71,"2017-03-02":566.77,"2017-06-09":566.73,"2017-09-07":566.7,"2017-12-07":567.07,"2019-03-05":566.78,"2019-06-04":567.01,"2019-09-03":566.22,"2019-11-19":567.31,"2022-03-03":567.37,"2022-06-01":566.4,"2022-09-15":565.79,"2022-12-02":567.26},"Fractured Clay":{"2015-03-02":568.01,"2015-06-01":567.9,"2015-09-02":567.2,"2015-12-01":568.08,"2016-03-02":569.96,"2016-06-08":567.56,"2016-09-06":566.57,"2016-12-05":567.97,"2017-03-02":569.68,"2017-06-09":568.13,"2017-09-07":567.88,"2017-12-07":569.55,"2019-03-05":569.07,"2019-06-04":568.83,"2019-09-03":567.35,"2019-11-19":569.93,"2022-03-03":569.74,"2022-06-01":567.79,"2022-09-15":566.77,"2022-12-02":570.32}},"n_readings":59,"media":["Fractured Clay","Glacial Till","Soft Clay"]}},{"type":"Feature","geometry":{"type":"Point","coordinates":[-78.948189,43.077913]},"properties":{"well_id":"1144","kind":"Piezometer","site":"Love Canal","src":"LC_PIEZO","water_series":{"Silty Sand/Fill":{"2015-03-02":570.45,"2015-06-01":571.34,"2015-09-02":570.18,"2015-12-01":569.78,"2016-03-02":572.59,"2016-06-08":571.3,"2016-09-06":569.16,"2016-12-05":568.04,"2017-03-02":572.15,"2017-06-09":572.08,"2017-09-07":570.97,"2017-12-07":572.33,"2019-03-05":572.79,"2019-06-04":572.06,"2019-09-03":570.21,"2019-11-19":571.75,"2022-03-03":572.66,"2022-06-01":572.3,"2022-09-15":569.44,"2022-12-02":572.11},"Fractured Clay":{"2015-03-02":570.58,"2015-06-01":571.46,"2015-09-02":570.15,"2015-12-01":569.72,"2016-03-02":572.67,"2016-06-08":571.32,"2016-09-06":568.71,"2016-12-05":568.12,"2017-03-02":572.09,"2017-06-09":572.16,"2017-09-07":571.09,"2017-12-07":572.37,"2019-03-05":572.91,"2019-06-04":572.16,"2019-09-03":570.34,"2019-11-19":571.72,"2022-03-03":572.88,"2022-06-01":571.76,"2022-09-15":569.37,"2022-12-02":572.48},"Soft Clay":{"2015-03-02":570.27,"2015-06-01":571.28,"2015-09-02":570.02,"2015-12-01":569.52,"2016-03-02":572.01,"2016-06-08":571.2,"2016-09-06":568.79,"2016-12-05":567.82,"2017-03-02":570.8,"2017-06-09":571.99,"2017-09-07":570.97,"2017-12-07":571.9,"2019-03-05":572.05,"2019-06-04":572.08,"2019-09-03":570.18,"2019-11-19":571.13,"2022-03-03":572.57,"2022-06-01":571.57,"2022-09-15":569.36,"2022-12-02":571.03},"Glacial Till":{"2015-03-02":569.19,"2015-06-01":570.08,"2015-09-02":569.61,"2015-12-01":568.76,"2016-03-02":568.87,"2016-06-08":570.27,"2016-09-06":568.79,"2016-12-05":567.39,"2017-03-02":567.77,"2017-06-09":570.15,"2017-09-07":570.04,"2017-12-07":570.1,"2019-03-05":570.04,"2019-06-04":570.72,"2019-09-03":569.97,"2019-11-19":569.5,"2022-03-03":570.97,"2022-06-01":570.68,"2022-09-15":569.18,"2022-12-02":568.94}},"n_readings":80,"media":["Fractured Clay","Glacial Till","Silty Sand/Fill","Soft Clay"]}},{"type":"Feature","geometry":{"type":"Point","coordinates":[-78.948362,43.077913]},"properties":{"well_id":"1143","kind":"Piezometer","site":"Love Canal","src":"LC_PIEZO","water_series":{"Fractured Clay":{"2015-03-02":569.98,"2015-06-01":571.13,"2015-09-02":569.91,"2015-12-01":569.26,"2016-03-02":571.23,"2016-06-08":571.1,"2016-09-06":569.46,"2016-12-05":568.7,"2017-03-02":569.76,"2017-06-09":571.58,"2017-09-07":570.43,"2017-12-07":571.15,"2019-03-05":571.56,"2019-06-04":571.63,"2019-09-03":570.02,"2019-11-19":570.16,"2022-03-03":571.68,"2022-06-01":571.49,"2022-09-15":569.45,"2022-12-02":569.55},"Soft Clay":{"2015-03-02":568.74,"2015-06-01":569.74,"2015-09-02":569.21,"2015-12-01":568.43,"2016-03-02":568.96,"2016-06-08":569.77,"2016-09-06":568.7,"2016-12-05":567.74,"2017-03-02":567.91,"2017-06-09":570.29,"2017-09-07":569.72,"2017-12-07":569.85,"2019-03-05":570.47,"2019-06-04":570.23,"2019-09-03":569.42,"2019-11-19":569.22,"2022-03-03":569.92,"2022-06-01":570.0,"2022-09-15":568.95,"2022-12-02":568.54},"Glacial Till":{"2015-03-02":567.82,"2015-06-01":568.39,"2015-09-02":568.44,"2015-12-01":567.83,"2016-03-02":567.7,"2016-06-08":568.62,"2016-09-06":568.01,"2016-12-05":567.33,"2017-03-02":566.88,"2017-06-09":568.62,"2017-09-07":568.77,"2017-12-07":568.67,"2019-03-05":568.79,"2019-06-04":568.87,"2019-09-03":568.74,"2019-11-19":568.37,"2022-03-03":568.82,"2022-06-01":568.87,"2022-09-15":568.24,"2022-12-02":567.9}},"n_readings":60,"media":["Fractured Clay","Glacial Till","Soft Clay"]}},{"type":"Feature","geometry":{"type":"Point","coordinates":[-78.948578,43.077912]},"properties":{"well_id":"1142","kind":"Piezometer","site":"Love Canal","src":"LC_PIEZO","water_series":{"Fractured Clay":{"2015-03-02":569.57,"2015-06-01":570.63,"2015-09-02":569.78,"2015-12-01":569.14,"2016-03-02":570.23,"2016-06-08":570.65,"2016-09-06":569.57,"2016-12-05":568.99,"2017-03-02":568.76,"2017-06-09":571.13,"2017-09-07":570.16,"2017-12-07":570.38,"2019-03-05":570.73,"2019-06-04":570.92,"2019-09-03":569.84,"2019-11-19":569.77,"2022-03-03":570.9,"2022-06-01":570.8,"2022-09-15":569.58,"2022-12-02":569.17},"Soft Clay":{"2015-03-02":567.47,"2015-06-01":568.01,"2015-09-02":568.01,"2015-12-01":567.47,"2016-03-02":567.47,"2016-06-08":568.13,"2016-09-06":567.77,"2016-12-05":567.25,"2017-03-02":566.67,"2017-06-09":568.59,"2017-09-07":568.34,"2017-12-07":568.26,"2019-03-05":568.15,"2019-06-04":568.45,"2019-09-03":568.29,"2019-11-19":568.04,"2022-03-03":568.21,"2022-06-01":568.3,"2022-09-15":567.98,"2022-12-02":567.56},"Glacial Till":{"2015-03-02":566.07,"2015-06-01":566.29,"2015-09-02":566.48,"2015-12-01":566.17,"2016-03-02":566.01,"2016-06-08":566.49,"2016-09-06":566.25,"2016-12-05":565.94,"2017-03-02":565.55,"2017-06-09":566.52,"2017-09-07":566.8,"2017-12-07":566.73,"2019-03-05":566.49,"2019-06-04":566.72,"2019-09-03":566.75,"2019-11-19":566.66,"2022-03-03":566.75,"2022-06-01":566.73,"2022-09-15":566.46,"2022-12-02":566.29}},"n_readings":60,"media":["Fractured Clay","Glacial Till","Soft Clay"]}},{"type":"Feature","geometry":{"type":"Point","coordinates":[-78.948657,43.077916]},"properties":{"well_id":"1141","kind":"Piezometer","site":"Love Canal","src":"LC_PIEZO","water_series":{"Soft Clay":{"2015-03-02":565.74,"2015-06-01":566.11,"2015-09-02":566.26,"2015-12-01":565.91,"2016-03-02":565.8,"2016-06-08":566.2,"2016-09-06":566.1,"2016-12-05":565.7,"2017-03-02":565.35,"2017-06-09":566.63,"2017-09-07":566.57,"2017-12-07":566.47,"2019-03-05":564.27,"2019-06-04":566.55,"2019-09-03":566.56,"2019-11-19":566.42,"2022-03-03":566.41,"2022-06-01":566.46,"2022-09-15":566.27,"2022-12-02":566.0},"Glacial Till":{"2015-03-02":566.27,"2015-06-01":566.62,"2015-09-02":566.76,"2015-12-01":566.44,"2016-03-02":566.29,"2016-06-08":566.78,"2016-09-06":566.56,"2016-12-05":566.14,"2017-03-02":565.87,"2017-06-09":567.21,"2017-09-07":567.02,"2017-12-07":566.89,"2019-03-05":566.75,"2019-06-04":566.95,"2019-09-03":566.93,"2019-11-19":566.92,"2022-03-03":566.94,"2022-06-01":566.99,"2022-09-15":566.73,"2022-12-02":566.45}},"n_readings":40,"media":["Glacial Till","Soft Clay"]}},{"type":"Feature","geometry":{"type":"Point","coordinates":[-78.948792,43.077936]},"properties":{"well_id":"1140","kind":"Piezometer","site":"Love Canal","src":"LC_PIEZO","water_series":{"Soft Clay":{"2015-03-02":563.85,"2015-06-01":563.71,"2015-09-02":564.15,"2015-12-01":564.19,"2016-03-02":563.94,"2016-06-08":563.79,"2016-09-06":564.04,"2016-12-05":564.08,"2017-03-02":563.58,"2017-06-09":564.09,"2017-09-07":564.34,"2017-12-07":564.45,"2019-03-05":564.08,"2019-06-04":563.95,"2019-09-03":564.32,"2019-11-19":564.54,"2022-03-03":564.16,"2022-06-01":563.94,"2022-09-15":564.27,"2022-12-02":564.27},"Glacial Till":{"2015-03-02":564.22,"2015-06-01":564.13,"2015-09-02":564.51,"2015-12-01":564.56,"2016-03-02":564.36,"2016-06-08":564.25,"2016-09-06":564.35,"2016-12-05":564.36,"2017-03-02":564.0,"2017-06-09":564.56,"2017-09-07":564.71,"2017-12-07":564.89,"2019-03-05":564.54,"2019-06-04":564.5,"2019-09-03":564.7,"2019-11-19":564.96,"2022-03-03":564.67,"2022-06-01":564.63,"2022-09-15":564.65,"2022-12-02":564.67}},"n_readings":40,"media":["Glacial Till","Soft Clay"]}},{"type":"Feature","geometry":{"type":"Point","coordinates":[-78.948251,43.081714]},"properties":{"well_id":"1194","kind":"Piezometer","site":"Love Canal","src":"LC_PIEZO","water_series":{"Glacial Till":{"2015-03-02":563.66,"2015-06-01":564.41,"2015-09-02":563.94,"2015-12-01":563.58,"2016-03-02":564.57,"2016-06-08":564.29,"2016-09-06":563.39,"2016-12-05":563.19,"2017-03-02":564.11,"2017-06-09":564.46,"2017-09-07":564.4,"2017-12-07":564.57,"2019-03-05":564.51,"2019-06-04":564.97,"2019-09-03":564.59,"2019-11-19":564.66,"2022-03-03":564.79,"2022-06-01":564.66,"2022-09-15":563.91,"2022-12-02":564.46},"Soft Clay":{"2015-03-02":571.23,"2015-06-01":571.07,"2015-09-02":569.6,"2015-12-01":571.47,"2016-03-02":554.8,"2016-06-08":554.8,"2016-09-06":554.8,"2016-12-05":554.8,"2017-03-02":554.8,"2017-06-09":554.8,"2017-09-07":554.8,"2017-12-07":554.8,"2019-03-05":554.8,"2019-06-04":554.8,"2019-09-03":554.8,"2019-11-19":554.8,"2022-03-03":554.8,"2022-06-01":554.8,"2022-09-15":554.8,"2022-12-02":554.8},"Fractured Clay":{"2015-03-02":571.91,"2015-06-01":572.48,"2015-09-02":570.6,"2015-12-01":571.64,"2016-03-02":574.04,"2016-06-08":572.47,"2016-09-06":569.48,"2016-12-05":568.85,"2017-03-02":573.53,"2017-06-09":573.55,"2017-09-07":572.5,"2017-12-07":573.79,"2019-03-05":573.65,"2019-06-04":574.16,"2019-09-03":570.26,"2019-11-19":572.66,"2022-03-03":574.31,"2022-06-01":573.18,"2022-09-15":569.49,"2022-12-02":573.08}},"n_readings":60,"media":["Fractured Clay","Glacial Till","Soft Clay"]}},{"type":"Feature","geometry":{"type":"Point","coordinates":[-78.94866,43.081693]},"properties":{"well_id":"1193","kind":"Piezometer","site":"Love Canal","src":"LC_PIEZO","water_series":{"Glacial Till":{"2015-03-02":565.16,"2015-06-01":565.45,"2015-09-02":565.32,"2015-12-01":565.07,"2016-03-02":565.67,"2016-06-08":565.51,"2016-09-06":564.9,"2016-12-05":564.7,"2017-03-02":565.17,"2017-06-09":565.82,"2017-09-07":565.81,"2017-12-07":565.9,"2019-03-05":565.85,"2019-06-04":566.27,"2019-09-03":565.87,"2019-11-19":565.94,"2022-03-03":566.13,"2022-06-01":565.94,"2022-09-15":565.54,"2022-12-02":565.68},"Soft Clay":{"2015-03-02":570.14,"2015-06-01":570.72,"2015-09-02":570.8,"2015-12-01":570.29,"2016-03-02":570.31,"2016-06-08":571.07,"2016-09-06":570.7,"2016-12-05":570.01,"2017-03-02":570.07,"2017-06-09":571.64,"2017-09-07":571.29,"2017-12-07":570.78,"2019-03-05":571.11,"2019-06-04":571.83,"2019-09-03":571.25,"2019-11-19":570.65,"2022-03-03":570.99,"2022-06-01":571.52,"2022-09-15":570.86,"2022-12-02":570.34},"Fractured Clay":{"2015-03-02":570.51,"2015-06-01":571.41,"2015-09-02":571.09,"2015-12-01":570.62,"2016-03-02":570.77,"2016-06-08":571.54,"2016-09-06":570.9,"2016-12-05":570.13,"2017-03-02":570.47,"2017-06-09":572.17,"2017-09-07":571.47,"2017-12-07":571.29,"2019-03-05":571.8,"2019-06-04":572.46,"2019-09-03":571.33,"2019-11-19":570.81,"2022-03-03":571.77,"2022-06-01":572.1,"2022-09-15":570.9,"2022-12-02":570.75}},"n_readings":60,"media":["Fractured Clay","Glacial Till","Soft Clay"]}},{"type":"Feature","geometry":{"type":"Point","coordinates":[-78.948906,43.081672]},"properties":{"well_id":"1192","kind":"Piezometer","site":"Love Canal","src":"LC_PIEZO","water_series":{"Glacial Till":{"2015-03-02":563.69,"2015-06-01":564.42,"2015-09-02":564.02,"2015-12-01":563.6,"2016-03-02":564.61,"2016-06-08":564.32,"2016-09-06":563.49,"2016-12-05":563.29,"2017-03-02":564.15,"2017-06-09":564.5,"2017-09-07":564.44,"2017-12-07":564.64,"2019-03-05":564.43,"2019-06-04":564.99,"2019-09-03":564.59,"2019-11-19":564.68,"2022-03-03":564.83,"2022-06-01":564.73,"2022-09-15":564.01,"2022-12-02":564.48},"Soft Clay":{"2015-03-02":568.17,"2015-06-01":568.02,"2015-09-02":568.37,"2015-12-01":568.32,"2016-03-02":568.04,"2016-06-08":568.36,"2016-09-06":568.39,"2016-12-05":568.12,"2017-03-02":567.82,"2017-06-09":568.56,"2017-09-07":568.94,"2017-12-07":568.68,"2019-03-05":568.44,"2019-06-04":568.83,"2019-09-03":568.92,"2019-11-19":568.71,"2022-03-03":568.69,"2022-06-01":568.99,"2022-09-15":568.72,"2022-12-02":568.47},"Fractured Clay":{"2015-03-02":569.36,"2015-06-01":569.43,"2015-09-02":569.8,"2015-12-01":569.56,"2016-03-02":569.22,"2016-06-08":569.73,"2016-09-06":569.84,"2016-12-05":569.5,"2017-03-02":569.07,"2017-06-09":569.89,"2017-09-07":570.3,"2017-12-07":569.98,"2019-03-05":569.91,"2019-06-04":570.1,"2019-09-03":570.28,"2019-11-19":569.9,"2022-03-03":569.83,"2022-06-01":570.22,"2022-09-15":570.0,"2022-12-02":569.62}},"n_readings":60,"media":["Fractured Clay","Glacial Till","Soft Clay"]}},{"type":"Feature","geometry":{"type":"Point","coordinates":[-78.949035,43.081696]},"properties":{"well_id":"1191","kind":"Piezometer","site":"Love Canal","src":"LC_PIEZO","water_series":{"Glacial Till":{"2015-03-02":565.33,"2015-06-01":565.28,"2015-09-02":565.34,"2015-12-01":565.22,"2016-03-02":565.1,"2016-06-08":565.17,"2016-09-06":565.17,"2016-12-05":564.92,"2017-03-02":564.8,"2017-06-09":565.02,"2017-09-07":565.26,"2017-12-07":565.39,"2019-03-05":565.47,"2019-06-04":565.61,"2019-09-03":565.72,"2019-11-19":565.74,"2022-03-03":565.28,"2022-06-01":565.54,"2022-09-15":565.43,"2022-12-02":565.34},"Soft Clay":{"2015-03-02":564.05,"2015-06-01":563.73,"2015-09-02":563.9,"2015-12-01":563.96,"2016-03-02":565.04,"2016-06-08":565.4,"2016-09-06":565.58,"2016-12-05":565.23,"2017-03-02":564.87,"2017-06-09":565.4,"2017-09-07":565.64,"2017-12-07":565.69,"2019-03-05":565.45,"2019-06-04":566.19,"2019-09-03":566.27,"2019-11-19":565.86,"2022-03-03":565.75,"2022-06-01":566.35,"2022-09-15":566.16,"2022-12-02":565.53}},"n_readings":40,"media":["Glacial Till","Soft Clay"]}},{"type":"Feature","geometry":{"type":"Point","coordinates":[-78.949123,43.081656]},"properties":{"well_id":"1190","kind":"Piezometer","site":"Love Canal","src":"LC_PIEZO","water_series":{"Glacial Till":{"2015-03-02":564.99,"2015-06-01":565.88,"2015-09-02":564.35,"2015-12-01":564.71,"2016-03-02":568.27,"2016-06-08":563.26,"2016-09-06":562.18,"2016-12-05":563.82,"2017-03-02":567.95,"2017-06-09":567.16,"2017-09-07":565.3,"2017-12-07":566.6,"2019-03-05":565.78,"2019-06-04":567.17,"2019-09-03":564.76,"2019-11-19":565.54,"2022-03-03":564.47,"2022-06-01":565.03,"2022-09-15":564.07,"2022-12-02":564.6},"Soft Clay":{"2015-03-02":562.95,"2015-06-01":562.92,"2015-09-02":562.27,"2015-12-01":564.48}},"n_readings":24,"media":["Glacial Till","Soft Clay"]}},{"type":"Feature","geometry":{"type":"Point","coordinates":[-78.949713,43.081655]},"properties":{"well_id":"1170","kind":"Piezometer","site":"Love Canal","src":"LC_PIEZO","water_series":{"Glacial Till":{"2015-03-02":562.5,"2015-06-01":562.18,"2015-09-02":562.02,"2015-12-01":562.26,"2016-03-02":562.43,"2016-06-08":562.19,"2016-09-06":561.82,"2016-12-05":562.14,"2017-03-02":562.28,"2017-06-09":562.39,"2017-09-07":562.41,"2017-12-07":562.63,"2019-03-05":563.06,"2019-06-04":562.52,"2019-09-03":562.28,"2019-11-19":562.58,"2022-03-03":562.73,"2022-06-01":562.5,"2022-09-15":562.22,"2022-12-02":562.52},"Soft Clay":{"2015-03-02":563.15,"2015-06-01":568.1,"2015-09-02":564.11,"2015-12-01":571.75}},"n_readings":24,"media":["Glacial Till","Soft Clay"]}},{"type":"Feature","geometry":{"type":"Point","coordinates":[-78.949793,43.08166]},"properties":{"well_id":"1171","kind":"Piezometer","site":"Love Canal","src":"LC_PIEZO","water_series":{"Glacial Till":{"2015-03-02":563.61,"2015-06-01":563.57,"2015-09-02":563.54,"2015-12-01":563.44,"2016-03-02":563.44,"2016-06-08":563.59,"2016-09-06":563.41,"2016-12-05":563.29,"2017-03-02":563.27,"2017-06-09":563.49,"2017-09-07":563.62,"2017-12-07":563.77,"2019-03-05":563.76,"2019-06-04":563.95,"2019-09-03":564.13,"2019-11-19":564.05,"2022-03-03":563.97,"2022-06-01":564.04,"2022-09-15":563.74,"2022-12-02":563.69},"Soft Clay":{"2015-03-02":561.61,"2015-06-01":561.26,"2015-09-02":561.34,"2015-12-01":561.48}},"n_readings":24,"media":["Glacial Till","Soft Clay"]}},{"type":"Feature","geometry":{"type":"Point","coordinates":[-78.949975,43.081646]},"properties":{"well_id":"1172","kind":"Piezometer","site":"Love Canal","src":"LC_PIEZO","water_series":{"Glacial Till":{"2015-03-02":566.43,"2015-06-01":566.4,"2015-09-02":566.34,"2015-12-01":566.22,"2016-03-02":566.25,"2016-06-08":566.27,"2016-09-06":566.15,"2016-12-05":566.09,"2017-03-02":566.06,"2017-06-09":566.11,"2017-09-07":566.16,"2017-12-07":566.24,"2019-03-05":566.43,"2019-06-04":566.54,"2019-09-03":566.46,"2019-11-19":566.52,"2022-03-03":566.44,"2022-06-01":566.58,"2022-09-15":566.4,"2022-12-02":566.43},"Soft Clay":{"2015-03-02":568.82,"2015-06-01":569.06,"2015-09-02":569.04,"2015-12-01":568.81,"2016-03-02":573.65,"2016-06-08":570.48,"2016-09-06":561.88,"2016-12-05":561.43,"2017-03-02":574.69,"2017-06-09":572.18,"2017-09-07":571.25,"2017-12-07":572.83,"2019-03-05":570.31,"2019-06-04":571.72,"2019-09-03":564.17,"2019-11-19":572.32,"2022-03-03":573.78,"2022-09-15":561.75,"2022-12-02":572.08,"2022-06-01":571.48}},"n_readings":40,"media":["Glacial Till","Soft Clay"]}},{"type":"Feature","geometry":{"type":"Point","coordinates":[-78.950335,43.08163]},"properties":{"well_id":"1173","kind":"Piezometer","site":"Love Canal","src":"LC_PIEZO","water_series":{"Glacial Till":{"2015-03-02":568.17,"2015-06-01":567.43,"2015-09-02":567.76,"2015-12-01":568.14,"2016-03-02":568.15,"2016-06-08":567.82,"2016-09-06":567.48,"2016-12-05":567.86,"2017-03-02":567.67,"2017-06-09":567.74,"2017-09-07":568.87,"2017-12-07":569.44,"2019-03-05":569.06,"2019-06-04":568.74,"2019-09-03":568.04,"2019-11-19":568.5,"2022-03-03":568.39,"2022-06-01":567.94,"2022-09-15":567.92,"2022-12-02":568.29},"Soft Clay":{"2015-03-02":571.05,"2015-06-01":571.67,"2015-09-02":571.16,"2015-12-01":570.75,"2016-03-02":555.6,"2016-06-08":555.6,"2016-09-06":555.6,"2016-12-05":555.6,"2017-03-02":555.6,"2017-06-09":555.6,"2017-09-07":555.6,"2017-12-07":555.6,"2019-03-05":555.6,"2019-06-04":555.6,"2019-09-03":555.6,"2019-11-19":555.6,"2022-03-03":555.6,"2022-09-15":555.6,"2022-12-02":555.6,"2022-06-01":555.6}},"n_readings":40,"media":["Glacial Till","Soft Clay"]}},{"type":"Feature","geometry":{"type":"Point","coordinates":[-78.950558,43.081678]},"properties":{"well_id":"1174","kind":"Piezometer","site":"Love Canal","src":"LC_PIEZO","water_series":{"Glacial Till":{"2015-03-02":570.53,"2015-06-01":571.56,"2015-09-02":570.62,"2015-12-01":570.76,"2016-03-02":570.7,"2016-06-08":570.51,"2016-09-06":570.52,"2016-12-05":570.81,"2017-03-02":570.8,"2017-06-09":570.63,"2017-09-07":570.54,"2017-12-07":570.7,"2019-03-05":570.57,"2019-06-04":570.55,"2019-09-03":570.52,"2019-11-19":570.64,"2022-03-03":570.68,"2022-06-01":570.52,"2022-09-15":570.51,"2022-12-02":571.24},"Soft Clay":{"2015-03-02":570.45,"2015-06-01":569.63,"2015-09-02":570.13,"2015-12-01":570.54,"2016-03-02":562.39,"2016-06-08":562.37,"2016-09-06":562.48,"2016-12-05":562.55,"2017-03-02":562.63,"2017-06-09":562.4,"2017-09-07":562.67,"2017-12-07":562.87,"2019-03-05":562.65,"2019-06-04":562.76,"2019-09-03":562.8,"2019-11-19":562.89,"2022-03-03":563.03,"2022-09-15":562.69,"2022-12-02":562.78,"2022-06-01":562.95}},"n_readings":40,"media":["Glacial Till","Soft Clay"]}},{"type":"Feature","geometry":{"type":"Point","coordinates":[-78.949733,43.077844]},"properties":{"well_id":"1160","kind":"Piezometer","site":"Love Canal","src":"LC_PIEZO","water_series":{"Fractured Clay":{"2015-03-02":565.05,"2015-06-01":564.7,"2015-09-02":566.64,"2015-12-01":566.52,"2016-03-02":565.29,"2016-06-08":564.76,"2016-09-06":566.61,"2016-12-05":567.01,"2017-03-02":564.9,"2017-06-09":566.36,"2017-09-07":566.82,"2017-12-07":566.72,"2019-03-05":566.43,"2019-06-04":566.15,"2019-09-03":566.68,"2019-11-19":566.91,"2022-03-03":565.39,"2022-06-01":566.92,"2022-09-15":566.66,"2022-12-02":566.49}},"n_readings":20,"media":["Fractured Clay"]}},{"type":"Feature","geometry":{"type":"Point","coordinates":[-78.949826,43.077817]},"properties":{"well_id":"1161","kind":"Piezometer","site":"Love Canal","src":"LC_PIEZO","water_series":{"Glacial Till":{"2015-03-02":565.23,"2015-06-01":565.11,"2015-09-02":565.12,"2015-12-01":565.37,"2016-03-02":565.43,"2016-06-08":565.23,"2016-09-06":565.06,"2016-12-05":565.16,"2017-03-02":565.11,"2017-06-09":566.06,"2017-09-07":565.59,"2017-12-07":566.17,"2019-03-05":565.54,"2019-06-04":565.51,"2019-09-03":565.39,"2019-11-19":565.79,"2022-03-03":565.55,"2022-06-01":565.47,"2022-09-15":565.33,"2022-12-02":565.45},"Soft Clay":{"2015-03-02":568.73,"2015-06-01":569.42,"2015-09-02":569.26,"2015-12-01":568.97,"2016-03-02":569.67,"2016-06-08":565.17,"2016-09-06":565.36,"2016-12-05":565.39,"2017-03-02":565.19,"2017-06-09":566.23,"2017-09-07":565.77,"2017-12-07":566.48,"2019-03-05":565.62,"2019-06-04":565.62,"2019-09-03":565.64,"2019-11-19":565.96,"2022-03-03":565.74,"2022-06-01":565.53,"2022-09-15":572.16,"2022-12-02":565.68},"Fractured Clay":{"2015-03-02":569.37,"2015-06-01":570.38,"2015-09-02":570.15,"2015-12-01":569.61,"2016-03-02":569.67,"2016-06-08":570.44,"2016-09-06":570.11,"2016-12-05":569.47,"2017-03-02":569.34,"2017-06-09":571.03,"2017-09-07":570.53,"2017-12-07":569.63,"2019-03-05":569.65,"2019-06-04":570.77,"2019-09-03":570.19,"2019-11-19":569.84,"2022-03-03":569.54,"2022-06-01":571.91,"2022-09-15":570.03,"2022-12-02":569.36}},"n_readings":60,"media":["Fractured Clay","Glacial Till","Soft Clay"]}},{"type":"Feature","geometry":{"type":"Point","coordinates":[-78.94988,43.077873]},"properties":{"well_id":"1162","kind":"Piezometer","site":"Love Canal","src":"LC_PIEZO","water_series":{"Fractured Clay":{"2015-03-02":569.41,"2015-06-01":570.17,"2015-09-02":569.85,"2015-12-01":569.54,"2016-03-02":569.6,"2016-06-08":570.13,"2016-09-06":569.82,"2016-12-05":569.41,"2017-03-02":569.51,"2017-06-09":570.82,"2017-09-07":570.02,"2017-12-07":569.78,"2019-03-05":569.91,"2019-06-04":570.71,"2019-09-03":569.85,"2019-11-19":569.72,"2022-03-03":569.71,"2022-06-01":570.18,"2022-09-15":569.77,"2022-12-02":569.65},"Glacial Till":{"2015-03-02":567.57,"2015-06-01":567.35,"2015-09-02":567.44,"2015-12-01":567.83,"2016-03-02":567.52,"2016-06-08":567.55,"2016-09-06":567.46,"2016-12-05":567.6,"2017-03-02":567.37,"2017-06-09":568.25,"2017-09-07":567.9,"2017-12-07":568.27,"2019-03-05":567.67,"2019-06-04":567.85,"2019-09-03":567.67,"2019-11-19":568.06,"2022-03-03":567.86,"2022-06-01":567.67,"2022-09-15":567.7,"2022-12-02":567.8}},"n_readings":40,"media":["Fractured Clay","Glacial Till"]}},{"type":"Feature","geometry":{"type":"Point","coordinates":[-78.949905,43.077825]},"properties":{"well_id":"1163","kind":"Piezometer","site":"Love Canal","src":"LC_PIEZO","water_series":{"Soft Clay":{"2015-03-02":568.49,"2015-06-01":568.41,"2015-09-02":568.63,"2015-12-01":568.78,"2016-03-02":568.36,"2016-06-08":568.54,"2016-09-06":568.66,"2016-12-05":568.61,"2017-03-02":568.31,"2017-06-09":569.23,"2017-09-07":569.02,"2017-12-07":569.15,"2019-03-05":568.84,"2019-06-04":568.97,"2019-09-03":568.89,"2019-11-19":569.08,"2022-03-03":568.53,"2022-06-01":568.83,"2022-09-15":568.76,"2022-12-02":568.78},"Fractured Clay":{"2015-03-02":569.44,"2015-06-01":570.58,"2015-09-02":570.16,"2015-12-01":569.58,"2016-03-02":569.62,"2016-06-08":570.51,"2016-09-06":570.12,"2016-12-05":569.37,"2017-03-02":569.58,"2017-06-09":571.07,"2017-09-07":570.31,"2017-12-07":569.77,"2019-03-05":569.97,"2019-06-04":570.97,"2019-09-03":570.25,"2019-11-19":569.77,"2022-03-03":569.73,"2022-06-01":570.53,"2022-09-15":569.95,"2022-12-02":569.63}},"n_readings":40,"media":["Fractured Clay","Soft Clay"]}},{"type":"Feature","geometry":{"type":"Point","coordinates":[-78.9502,43.07783]},"properties":{"well_id":"1165","kind":"Piezometer","site":"Love Canal","src":"LC_PIEZO","water_series":{"Soft Clay":{"2015-03-02":571.64,"2015-06-01":572.23,"2015-09-02":572.15,"2015-12-01":571.74,"2016-03-02":571.87,"2016-06-08":572.5,"2016-09-06":571.98,"2016-12-05":571.41,"2017-03-02":571.87,"2017-06-09":572.58,"2017-09-07":572.38,"2017-12-07":572.13,"2019-03-05":572.25,"2019-06-04":572.66,"2019-09-03":572.36,"2019-11-19":572.09,"2022-03-03":572.28,"2022-06-01":572.68,"2022-09-15":572.16,"2022-12-02":572.07},"Fractured Clay":{"2015-03-02":570.95,"2015-06-01":571.25,"2015-09-02":571.02,"2015-12-01":570.83,"2016-03-02":571.75,"2016-06-08":570.92,"2016-09-06":570.64,"2016-12-05":570.37,"2017-03-02":571.74,"2017-06-09":571.91,"2017-09-07":571.32,"2017-12-07":571.65,"2019-03-05":571.96,"2019-06-04":572.07,"2019-09-03":571.09,"2019-11-19":571.57,"2022-03-03":571.93,"2022-06-01":571.38,"2022-09-15":572.08,"2022-12-02":571.64},"Silty Sand/Fill":{"2015-03-02":571.6,"2015-06-01":572.47,"2015-09-02":571.81,"2015-12-01":571.23,"2016-03-02":573.59,"2016-06-08":572.62,"2016-09-06":571.39,"2016-12-05":570.75,"2017-03-02":573.48,"2017-06-09":573.09,"2017-09-07":572.12,"2017-12-07":572.55,"2019-03-05":573.12,"2019-06-04":573.41,"2019-09-03":571.89,"2019-11-19":572.47,"2022-03-03":573.63,"2022-06-01":572.57,"2022-09-15":571.34,"2022-12-02":573.0}},"n_readings":60,"media":["Fractured Clay","Silty Sand/Fill","Soft Clay"]}},{"type":"Feature","geometry":{"type":"Point","coordinates":[-78.949935,43.075493]},"properties":{"well_id":"1154","kind":"Piezometer","site":"Love Canal","src":"LC_PIEZO","water_series":{"Glacial Till":{"2015-03-02":571.51,"2015-06-01":572.43,"2015-09-02":572.22,"2015-12-01":572.21,"2016-03-02":572.04,"2016-06-08":571.77,"2016-09-06":571.51,"2016-12-05":571.41,"2017-03-02":571.24,"2017-06-09":571.59,"2017-09-07":571.47,"2017-12-07":571.33,"2019-03-05":571.84,"2019-06-04":571.62,"2019-09-03":571.45,"2019-11-19":571.13,"2022-03-03":572.58,"2022-06-01":572.15,"2022-09-15":571.96,"2022-12-02":571.79},"Soft Clay":{"2015-03-02":568.06,"2015-06-01":568.0,"2015-09-02":568.08,"2015-12-01":568.07,"2016-03-02":568.65,"2016-06-08":568.27,"2016-09-06":567.87,"2016-12-05":567.8,"2017-03-02":568.02,"2017-06-09":569.63,"2017-09-07":568.68,"2017-12-07":568.46,"2019-03-05":568.42,"2019-06-04":568.41,"2019-09-03":568.21,"2019-11-19":568.51,"2022-03-03":568.39,"2022-06-01":568.3,"2022-09-15":568.02,"2022-12-02":568.45},"Fractured Clay":{"2016-03-02":569.17,"2016-06-08":568.38,"2016-09-06":567.9,"2016-12-05":567.73,"2017-03-02":568.86,"2017-06-09":568.75,"2017-09-07":568.59,"2017-12-07":568.78,"2019-03-05":568.73,"2019-06-04":568.63,"2019-09-03":568.13,"2019-11-19":568.63,"2022-03-03":569.63,"2022-06-01":568.33,"2022-09-15":567.93,"2022-12-02":569.5}},"n_readings":56,"media":["Fractured Clay","Glacial Till","Soft Clay"]}},{"type":"Feature","geometry":{"type":"Point","coordinates":[-78.949875,43.075796]},"properties":{"well_id":"1153","kind":"Piezometer","site":"Love Canal","src":"LC_PIEZO","water_series":{"Glacial Till":{"2015-03-02":568.63,"2015-06-01":569.25,"2015-09-02":568.84,"2015-12-01":569.62,"2016-03-02":571.21,"2016-06-08":569.24,"2016-09-06":568.91,"2016-12-05":570.78,"2017-03-02":573.03,"2017-06-09":571.35,"2017-09-07":570.37,"2017-12-07":568.57,"2019-03-05":570.86,"2019-06-04":570.9,"2019-09-03":572.05,"2019-11-19":572.75,"2022-03-03":572.76,"2022-06-01":570.35,"2022-09-15":568.53,"2022-12-02":572.42},"Soft Clay":{"2015-03-02":570.5,"2015-06-01":570.77,"2015-09-02":569.82,"2015-12-01":570.44,"2016-03-02":576.1,"2016-06-08":570.21,"2016-09-06":569.34,"2016-12-05":572.94,"2017-03-02":576.51,"2017-06-09":570.7,"2017-09-07":570.58,"2017-12-07":576.1,"2019-03-05":573.55,"2019-06-04":571.84,"2019-09-03":574.29,"2019-11-19":576.59,"2022-03-03":575.84,"2022-06-01":570.4,"2022-09-15":570.44,"2022-12-02":574.87},"Fractured Clay":{"2015-03-02":568.29,"2015-06-01":568.67,"2015-09-02":568.15,"2015-12-01":568.11,"2016-03-02":569.2,"2016-06-08":569.09,"2016-09-06":568.84,"2016-12-05":568.96,"2017-03-02":569.28,"2017-06-09":569.2,"2017-09-07":569.24,"2017-12-07":569.23,"2019-03-05":569.59,"2019-06-04":569.31,"2019-09-03":569.07,"2019-11-19":570.18,"2022-03-03":569.86,"2022-06-01":569.26,"2022-09-15":569.32,"2022-12-02":569.7}},"n_readings":60,"media":["Fractured Clay","Glacial Till","Soft Clay"]}},{"type":"Feature","geometry":{"type":"Point","coordinates":[-78.94976,43.076008]},"properties":{"well_id":"1151","kind":"Piezometer","site":"Love Canal","src":"LC_PIEZO","water_series":{"Glacial Till":{"2015-03-02":567.0,"2015-06-01":566.68,"2015-09-02":566.86,"2015-12-01":567.22,"2016-03-02":567.06,"2016-06-08":566.94,"2016-09-06":566.84,"2016-12-05":567.0,"2017-03-02":567.15,"2017-06-09":567.15,"2017-09-07":567.19,"2017-12-07":567.64,"2019-03-05":567.46,"2019-06-04":567.04,"2019-09-03":576.06,"2019-11-19":567.44,"2022-03-03":567.37,"2022-06-01":567.01,"2022-09-15":566.9,"2022-12-02":567.3},"Soft Clay":{"2015-03-02":567.47,"2015-06-01":567.48,"2015-09-02":567.61,"2015-12-01":567.87,"2016-03-02":567.47,"2016-06-08":567.73,"2016-09-06":567.21,"2016-12-05":567.28,"2017-03-02":567.72,"2017-06-09":568.15,"2017-09-07":567.96,"2017-12-07":568.43,"2019-03-05":567.88,"2019-06-04":568.0,"2019-09-03":567.63,"2019-11-19":568.15,"2022-03-03":567.83,"2022-06-01":567.89,"2022-09-15":567.61,"2022-12-02":568.08},"Fractured Clay":{"2015-03-02":568.23,"2015-06-01":569.22,"2015-09-02":568.06,"2015-12-01":568.04,"2016-03-02":568.97,"2016-06-08":569.05,"2016-09-06":567.33,"2016-12-05":566.43,"2017-03-02":568.72,"2017-06-09":569.44,"2017-09-07":568.5,"2017-12-07":568.82,"2019-03-05":569.23,"2019-06-04":569.37,"2019-09-03":568.07,"2019-11-19":568.22,"2022-03-03":569.17,"2022-06-01":569.23,"2022-09-15":567.49,"2022-12-02":568.33},"Silty Sand/Fill":{"2016-03-02":571.85,"2016-06-08":572.11,"2016-09-06":568.32,"2017-03-02":572.52,"2017-06-09":569.91,"2017-09-07":568.82,"2017-12-07":571.37,"2019-03-05":570.73,"2019-06-04":570.22,"2019-09-03":568.53,"2019-11-19":570.56,"2022-03-03":571.45,"2022-06-01":569.44,"2022-09-15":568.28,"2022-12-02":571.97}},"n_readings":75,"media":["Fractured Clay","Glacial Till","Silty Sand/Fill","Soft Clay"]}},{"type":"Feature","geometry":{"type":"Point","coordinates":[-78.949682,43.076267]},"properties":{"well_id":"1150","kind":"Piezometer","site":"Love Canal","src":"LC_PIEZO","water_series":{},"n_readings":0,"media":[]}}]}